{"type": "FeatureCollection", "features": [{"type": "Feature", "properties": {"highway": "secondary"}, "geometry": {"type": "LineString", "coordinates": [[-15.9794721, 18.0630677], [-15.9790201, 18.0628845], [-15.9786584, 18.0627379], [-15.978171, 18.0625404], [-15.9780751, 18.0625015], [-15.9770844, 18.0621], [-15.9740041, 18.0608515], [-15.9739413, 18.0608261], [-15.9738984, 18.0608087]]}}, {"type": "Feature", "properties": {"highway": "secondary"}, "geometry": {"type": "LineString", "coordinates": [[-15.9798945, 18.0685148], [-15.9800659, 18.0683673], [-15.9801963, 18.0682665], [-15.980309, 18.0681722], [-15.980462, 18.0680727], [-15.9809554, 18.0677518], [-15.980989, 18.0677328], [-15.9813241, 18.0675136], [-15.9821624, 18.0669864], [-15.9831454, 18.0663643]]}}, {"type": "Feature", "properties": {"highway": "tertiary"}, "geometry": {"type": "LineString", "coordinates": [[-15.985314, 18.0649905], [-15.9853759, 18.0649523], [-15.9864047, 18.0643169], [-15.9864835, 18.0642683], [-15.9866388, 18.0641723], [-15.987508, 18.0636355], [-15.9878984, 18.0633924], [-15.9880686, 18.0632864], [-15.9885988, 18.0629587], [-15.9887391, 18.0628752], [-15.9897195, 18.062269]]}}, {"type": "Feature", "properties": {"highway": "tertiary"}, "geometry": {"type": "LineString", "coordinates": [[-15.9866929, 18.0579009], [-15.9868465, 18.0581322], [-15.9869627, 18.0583074], [-15.9871496, 18.0585556], [-15.9873243, 18.0588226], [-15.9876269, 18.059242], [-15.9877825, 18.0594711], [-15.9881271, 18.0599752], [-15.9883033, 18.0602225], [-15.9884776, 18.0604635], [-15.9888303, 18.0609876], [-15.9889832, 18.0611992], [-15.9894151, 18.0618023], [-15.9894781, 18.0618967], [-15.9897195, 18.062269]]}}, {"type": "Feature", "properties": {"highway": "tertiary"}, "geometry": {"type": "LineString", "coordinates": [[-15.9797806, 18.0624513], [-15.9798959, 18.0621733], [-15.9800394, 18.0618903], [-15.9800944, 18.0617895], [-15.9801722, 18.0617054], [-15.9802298, 18.0616442]]}}, {"type": "Feature", "properties": {"highway": "tertiary"}, "geometry": {"type": "LineString", "coordinates": [[-15.9877454, 18.0724872], [-15.9885689, 18.0719682], [-15.9896394, 18.0712934], [-15.9900477, 18.071036], [-15.9903836, 18.0708243], [-15.99076, 18.0705871], [-15.9908823, 18.07051], [-15.9911353, 18.0703506], [-15.9918526, 18.0698984], [-15.9925668, 18.0694579], [-15.9929436, 18.0692256], [-15.9933161, 18.0689759], [-15.9936498, 18.0687656], [-15.9940314, 18.068525]]}}, {"type": "Feature", "properties": {"highway": "unclassified"}, "geometry": {"type": "LineString", "coordinates": [[-15.9794721, 18.0630677], [-15.9788847, 18.0637964], [-15.9781677, 18.0646649], [-15.9775573, 18.0654112], [-15.9769327, 18.0661365], [-15.9762363, 18.066958], [-15.9757114, 18.0675917], [-15.9754421, 18.0679146], [-15.9753026, 18.0680893], [-15.975253, 18.0681613], [-15.9752114, 18.0682371]]}}, {"type": "Feature", "properties": {"highway": "tertiary"}, "geometry": {"type": "LineString", "coordinates": [[-15.987508, 18.0636355], [-15.9867987, 18.0626026], [-15.9865427, 18.0622273], [-15.9863387, 18.0619283], [-15.9860895, 18.0615666], [-15.9859514, 18.0613651], [-15.9854313, 18.0606062], [-15.9852167, 18.0602932], [-15.9848718, 18.0597834], [-15.9847995, 18.0596765], [-15.9847247, 18.0595659], [-15.9846352, 18.0594335], [-15.9845033, 18.0592386], [-15.9843242, 18.0589743], [-15.9841178, 18.0586968], [-15.983675, 18.0580219], [-15.9835069, 18.0577764], [-15.9830515, 18.0571045], [-15.982879, 18.0568501], [-15.982688, 18.0565752], [-15.9823455, 18.0560825], [-15.982181, 18.0558457], [-15.9818847, 18.0554439], [-15.98173, 18.0552071], [-15.9812766, 18.05447]]}}, {"type": "Feature", "properties": {"highway": "residential"}, "geometry": {"type": "LineString", "coordinates": [[-15.9911387, 18.0628388], [-15.990423, 18.0632884]]}}, {"type": "Feature", "properties": {"highway": "residential"}, "geometry": {"type": "LineString", "coordinates": [[-15.9867644, 18.0761121], [-15.9865292, 18.0757767], [-15.9860838, 18.0751417], [-15.9855688, 18.074408], [-15.9853022, 18.0740273], [-15.9847267, 18.0732068], [-15.9846168, 18.07305], [-15.9840926, 18.0723028], [-15.9838413, 18.0719444], [-15.9836123, 18.0716179], [-15.9831028, 18.0708915], [-15.9826433, 18.0702362], [-15.9823653, 18.0698398]]}}, {"type": "Feature", "properties": {"highway": "residential"}, "geometry": {"type": "LineString", "coordinates": [[-15.9800926, 18.0661281], [-15.9790726, 18.0653377], [-15.9781677, 18.0646649], [-15.9780492, 18.0646009], [-15.9775302, 18.0642414], [-15.9772968, 18.0640731], [-15.9770393, 18.0639316], [-15.9767419, 18.063857], [-15.9761039, 18.0637281], [-15.9756139, 18.0636286], [-15.9740797, 18.063317], [-15.9726662, 18.0630007], [-15.9723226, 18.0629465]]}}, {"type": "Feature", "properties": {"highway": "tertiary"}, "geometry": {"type": "LineString", "coordinates": [[-15.9918526, 18.0698984], [-15.9915937, 18.0695252], [-15.9911423, 18.0688743], [-15.9908688, 18.0684801], [-15.9904172, 18.067829], [-15.989686, 18.0667773], [-15.9894349, 18.0664004], [-15.9889463, 18.0657085], [-15.9887098, 18.0653561], [-15.9882037, 18.0646377], [-15.9880015, 18.0643421], [-15.9877733, 18.0640176], [-15.987508, 18.0636355]]}}, {"type": "Feature", "properties": {"highway": "residential"}, "geometry": {"type": "LineString", "coordinates": [[-15.9904172, 18.067829], [-15.9900484, 18.0680605], [-15.9893249, 18.0685126], [-15.9892661, 18.0685494], [-15.9886135, 18.0689578], [-15.9882098, 18.0692104], [-15.9873673, 18.0697377], [-15.9872626, 18.0698032], [-15.9871891, 18.0698487], [-15.9864197, 18.0703305], [-15.9860352, 18.0705713], [-15.9856583, 18.0708072], [-15.9853278, 18.071014], [-15.9849311, 18.0712623], [-15.9848773, 18.071296], [-15.9847261, 18.0713884], [-15.9845576, 18.0714961], [-15.9838413, 18.0719444], [-15.9827107, 18.0726518], [-15.9817065, 18.0732794]]}}, {"type": "Feature", "properties": {"highway": "residential"}, "geometry": {"type": "LineString", "coordinates": [[-15.9809748, 18.0651394], [-15.9799522, 18.0643804], [-15.9799083, 18.0643749], [-15.9798691, 18.0643906], [-15.9797765, 18.0645007], [-15.9790726, 18.0653377], [-15.9783084, 18.0662334], [-15.9776066, 18.067056], [-15.9760656, 18.0688621]]}}, {"type": "Feature", "properties": {"highway": "residential"}, "geometry": {"type": "LineString", "coordinates": [[-15.9802298, 18.0616442], [-15.9799217, 18.0614587], [-15.9797414, 18.0613277], [-15.9796881, 18.061287], [-15.9794331, 18.0611087], [-15.9793643, 18.0610624], [-15.9792825, 18.0610028], [-15.9790537, 18.0608154], [-15.9789705, 18.0607619], [-15.9788702, 18.0607173], [-15.9786978, 18.0606514], [-15.9778812, 18.0602455]]}}, {"type": "Feature", "properties": {"highway": "residential"}, "geometry": {"type": "LineString", "coordinates": [[-15.978244, 18.068421], [-15.9786379, 18.0688217], [-15.9787462, 18.0689562], [-15.9789418, 18.0691992], [-15.9790426, 18.0693628]]}}, {"type": "Feature", "properties": {"highway": "residential"}, "geometry": {"type": "LineString", "coordinates": [[-15.9791001, 18.0674012], [-15.9798945, 18.0685148]]}}, {"type": "Feature", "properties": {"highway": "residential"}, "geometry": {"type": "LineString", "coordinates": [[-15.9846068, 18.0639561], [-15.9842487, 18.0641793], [-15.9832528, 18.0648], [-15.9824186, 18.0652939], [-15.9820487, 18.065521], [-15.9803128, 18.0666389]]}}, {"type": "Feature", "properties": {"highway": "residential"}, "geometry": {"type": "LineString", "coordinates": [[-15.982655, 18.0632828], [-15.9820451, 18.0624482], [-15.981569, 18.0617966], [-15.9814156, 18.0615866], [-15.9812505, 18.0613606], [-15.9810519, 18.06111]]}}, {"type": "Feature", "properties": {"highway": "residential"}, "geometry": {"type": "LineString", "coordinates": [[-15.982655, 18.0632828], [-15.9828553, 18.0630521], [-15.9830612, 18.0628149], [-15.9832678, 18.0625769], [-15.9834894, 18.0623217], [-15.9837281, 18.0620351], [-15.9839457, 18.0617848], [-15.9841554, 18.0615344], [-15.9843761, 18.0612735], [-15.9845721, 18.0610449], [-15.9847685, 18.0608159], [-15.9849894, 18.0605583], [-15.9852167, 18.0602932], [-15.9854394, 18.0600471], [-15.9855599, 18.0598999], [-15.985963, 18.0594379], [-15.986006, 18.0593886], [-15.9861579, 18.0592145], [-15.9863524, 18.0589916], [-15.9865157, 18.0588044], [-15.9867074, 18.0585848], [-15.9869627, 18.0583074]]}}, {"type": "Feature", "properties": {"highway": "residential"}, "geometry": {"type": "LineString", "coordinates": [[-15.9864047, 18.0643169], [-15.9861873, 18.0639854], [-15.985955, 18.0636383], [-15.9856827, 18.0632158], [-15.9850329, 18.0622249], [-15.9848628, 18.0619786], [-15.9843761, 18.0612735], [-15.9837992, 18.0604404], [-15.9836581, 18.0602307], [-15.9834879, 18.0599908], [-15.9832674, 18.0596641]]}}, {"type": "Feature", "properties": {"highway": "residential"}, "geometry": {"type": "LineString", "coordinates": [[-15.9905346, 18.0619457], [-15.9901313, 18.0615265], [-15.989999, 18.0614082], [-15.9896076, 18.0610583], [-15.9894736, 18.0609384]]}}, {"type": "Feature", "properties": {"highway": "unclassified"}, "geometry": {"type": "LineString", "coordinates": [[-15.989686, 18.0667773], [-15.9888089, 18.0673205], [-15.9886238, 18.0674301], [-15.9878755, 18.0678993], [-15.98748, 18.0681469]]}}, {"type": "Feature", "properties": {"highway": "residential"}, "geometry": {"type": "LineString", "coordinates": [[-15.9860501, 18.0660256], [-15.9878505, 18.064865], [-15.9880418, 18.064745], [-15.9882037, 18.0646377]]}}, {"type": "Feature", "properties": {"highway": "residential"}, "geometry": {"type": "LineString", "coordinates": [[-15.9889832, 18.0611992], [-15.9888344, 18.0612859], [-15.9887137, 18.0613675], [-15.9886614, 18.0614096], [-15.9885955, 18.0614633], [-15.9878253, 18.0619457], [-15.9876553, 18.0620487], [-15.9867987, 18.0626026]]}}, {"type": "Feature", "properties": {"highway": "residential"}, "geometry": {"type": "LineString", "coordinates": [[-15.99076, 18.0705871], [-15.9901796, 18.0697482], [-15.9900725, 18.0695934], [-15.9895746, 18.0688721], [-15.9893249, 18.0685126]]}}, {"type": "Feature", "properties": {"highway": "residential"}, "geometry": {"type": "LineString", "coordinates": [[-15.9889137, 18.070236], [-15.9885293, 18.0704698], [-15.9875766, 18.0710493], [-15.9867202, 18.0715702]]}}, {"type": "Feature", "properties": {"highway": "residential"}, "geometry": {"type": "LineString", "coordinates": [[-15.9925666, 18.07547], [-15.9918545, 18.0744105], [-15.9913754, 18.0737312], [-15.991114, 18.0733607], [-15.9903714, 18.0723159], [-15.9901426, 18.0719989], [-15.9896394, 18.0712934]]}}, {"type": "Feature", "properties": {"highway": "unclassified"}, "geometry": {"type": "LineString", "coordinates": [[-15.9779991, 18.0704688], [-15.9782434, 18.0707503], [-15.9783088, 18.0708305], [-15.9788614, 18.0715737], [-15.9790364, 18.0718091], [-15.9790908, 18.0718927], [-15.9791416, 18.0719423], [-15.9792326, 18.072111], [-15.9793306, 18.0722687], [-15.9794306, 18.0723879], [-15.9794966, 18.072508], [-15.9795516, 18.0725821], [-15.9800772, 18.0733499], [-15.980111, 18.0734006], [-15.9805405, 18.0740458], [-15.9805939, 18.0741216], [-15.9809355, 18.0746069], [-15.9814312, 18.075353], [-15.9816957, 18.0757071], [-15.9819257, 18.0759986], [-15.9820357, 18.0761134], [-15.9821894, 18.0762456], [-15.9825026, 18.0765121]]}}, {"type": "Feature", "properties": {"highway": "unclassified"}, "geometry": {"type": "LineString", "coordinates": [[-15.9896394, 18.0712934], [-15.9893819, 18.0709195], [-15.9890925, 18.0704967], [-15.9889137, 18.070236], [-15.9884527, 18.0695686], [-15.9882098, 18.0692104]]}}, {"type": "Feature", "properties": {"highway": "tertiary"}, "geometry": {"type": "LineString", "coordinates": [[-15.9779991, 18.0704688], [-15.9781562, 18.0703084], [-15.9784877, 18.0699542], [-15.9788661, 18.0695638], [-15.9790426, 18.0693628], [-15.9795358, 18.0688694], [-15.9798945, 18.0685148]]}}, {"type": "Feature", "properties": {"highway": "residential"}, "geometry": {"type": "LineString", "coordinates": [[-15.9891884, 18.0691106], [-15.9896878, 18.0698267], [-15.9898014, 18.0699896], [-15.9900355, 18.0703296], [-15.9901162, 18.0704554], [-15.9903836, 18.0708243]]}}, {"type": "Feature", "properties": {"highway": "residential"}, "geometry": {"type": "LineString", "coordinates": [[-15.9889012, 18.0693582], [-15.9890593, 18.0696176], [-15.9897132, 18.0705312], [-15.9897961, 18.0706549]]}}, {"type": "Feature", "properties": {"highway": "residential"}, "geometry": {"type": "LineString", "coordinates": [[-15.9889012, 18.0693582], [-15.9888961, 18.0693356], [-15.9889014, 18.0693127], [-15.9889115, 18.0692935], [-15.9889419, 18.0692658], [-15.9891884, 18.0691106], [-15.9895746, 18.0688721], [-15.9899574, 18.0686396], [-15.990217, 18.0684692], [-15.9902501, 18.0684734]]}}, {"type": "Feature", "properties": {"highway": "residential"}, "geometry": {"type": "LineString", "coordinates": [[-15.9897132, 18.0705312], [-15.9900355, 18.0703296]]}}, {"type": "Feature", "properties": {"highway": "residential"}, "geometry": {"type": "LineString", "coordinates": [[-15.9896878, 18.0698267], [-15.9900725, 18.0695934], [-15.9904541, 18.0693602]]}}, {"type": "Feature", "properties": {"highway": "residential"}, "geometry": {"type": "LineString", "coordinates": [[-15.9911992, 18.0697609], [-15.9907675, 18.0691155], [-15.9902801, 18.0684871], [-15.9902501, 18.0684734]]}}, {"type": "Feature", "properties": {"highway": "residential"}, "geometry": {"type": "LineString", "coordinates": [[-15.9861718, 18.0699579], [-15.9864197, 18.0703305], [-15.9866551, 18.0706841], [-15.9868374, 18.0709472], [-15.9868478, 18.070964], [-15.9868653, 18.0709761], [-15.9868807, 18.0709787], [-15.9868991, 18.070974]]}}, {"type": "Feature", "properties": {"highway": "residential"}, "geometry": {"type": "LineString", "coordinates": [[-15.9875143, 18.0701509], [-15.9872626, 18.0698032]]}}, {"type": "Feature", "properties": {"highway": "residential"}, "geometry": {"type": "LineString", "coordinates": [[-15.9884527, 18.0695686], [-15.9880782, 18.069801], [-15.9875143, 18.0701509], [-15.9866551, 18.0706841]]}}, {"type": "Feature", "properties": {"highway": "residential"}, "geometry": {"type": "LineString", "coordinates": [[-15.9880782, 18.069801], [-15.9882887, 18.07012], [-15.9885293, 18.0704698]]}}, {"type": "Feature", "properties": {"highway": "residential"}, "geometry": {"type": "LineString", "coordinates": [[-15.9868991, 18.070974], [-15.9875965, 18.0705551], [-15.9882887, 18.07012]]}}, {"type": "Feature", "properties": {"highway": "service"}, "geometry": {"type": "LineString", "coordinates": [[-15.9877765, 18.0713342], [-15.9875766, 18.0710493]]}}, {"type": "Feature", "properties": {"highway": "service"}, "geometry": {"type": "LineString", "coordinates": [[-15.9873774, 18.0716164], [-15.9869306, 18.071877]]}}, {"type": "Feature", "properties": {"highway": "tertiary"}, "geometry": {"type": "LineString", "coordinates": [[-15.9802298, 18.0616442], [-15.9803063, 18.0615855], [-15.9808508, 18.0612285], [-15.9810519, 18.06111], [-15.9811217, 18.0610641], [-15.981807, 18.0606165], [-15.98187, 18.0605732], [-15.9821463, 18.0603959], [-15.9824587, 18.060206], [-15.9827223, 18.0600345], [-15.9829556, 18.0598751], [-15.9829818, 18.0598566], [-15.9832151, 18.0596953], [-15.9832674, 18.0596641], [-15.9835222, 18.0595009], [-15.983777, 18.05933], [-15.9840091, 18.0591668], [-15.9843242, 18.0589743], [-15.9847351, 18.0587009], [-15.9849894, 18.0585459], [-15.9851195, 18.0584668], [-15.9852563, 18.0583916], [-15.9853555, 18.0583393], [-15.9855057, 18.0582513], [-15.9856097, 18.0581933], [-15.9856844, 18.0581525], [-15.9859979, 18.0579912], [-15.9863144, 18.05783]]}}, {"type": "Feature", "properties": {"highway": "residential"}, "geometry": {"type": "LineString", "coordinates": [[-15.9901162, 18.0704554], [-15.9897961, 18.0706549], [-15.9893819, 18.0709195]]}}, {"type": "Feature", "properties": {"highway": "residential"}, "geometry": {"type": "LineString", "coordinates": [[-15.9898014, 18.0699896], [-15.9901796, 18.0697482], [-15.9905586, 18.0695122]]}}, {"type": "Feature", "properties": {"highway": "residential"}, "geometry": {"type": "LineString", "coordinates": [[-15.9911353, 18.0703506], [-15.9908664, 18.0699597], [-15.9905586, 18.0695122], [-15.9904541, 18.0693602], [-15.9899574, 18.0686396]]}}, {"type": "Feature", "properties": {"highway": "residential"}, "geometry": {"type": "LineString", "coordinates": [[-15.9900484, 18.0680605], [-15.9898925, 18.0678458], [-15.9898174, 18.0677502], [-15.989768, 18.0676993]]}}, {"type": "Feature", "properties": {"highway": "residential"}, "geometry": {"type": "LineString", "coordinates": [[-15.9817065, 18.0732794], [-15.9809849, 18.0722265], [-15.9802966, 18.0712248], [-15.980254, 18.0711628], [-15.9797961, 18.0704835], [-15.9792884, 18.0697302], [-15.9791096, 18.06946], [-15.9790426, 18.0693628]]}}, {"type": "Feature", "properties": {"highway": "residential"}, "geometry": {"type": "LineString", "coordinates": [[-15.9823653, 18.0698398], [-15.9821288, 18.0694956], [-15.9817859, 18.0689773], [-15.9816592, 18.0687941], [-15.9812107, 18.0681299], [-15.9809554, 18.0677518], [-15.9806281, 18.067221], [-15.980368, 18.0667876], [-15.9803128, 18.0666389], [-15.9802207, 18.0664161], [-15.9800926, 18.0661281]]}}, {"type": "Feature", "properties": {"highway": "secondary"}, "geometry": {"type": "LineString", "coordinates": [[-15.9841512, 18.0747529], [-15.9840089, 18.0745453], [-15.9839044, 18.0743929], [-15.9827107, 18.0726518], [-15.9824745, 18.0723073], [-15.9819795, 18.071585], [-15.9818339, 18.0713989], [-15.9812947, 18.0706188], [-15.981245, 18.0705436], [-15.9810036, 18.0701892], [-15.9805468, 18.0695127], [-15.9801077, 18.0688669], [-15.9798945, 18.0685148]]}}, {"type": "Feature", "properties": {"highway": "tertiary"}, "geometry": {"type": "LineString", "coordinates": [[-15.9831454, 18.0663643], [-15.9835196, 18.0661488], [-15.9838642, 18.0659269], [-15.9842183, 18.0657], [-15.9842786, 18.0656579], [-15.9844664, 18.065533], [-15.9846085, 18.065445], [-15.985314, 18.0649905]]}}, {"type": "Feature", "properties": {"highway": "residential"}, "geometry": {"type": "LineString", "coordinates": [[-15.9830549, 18.0699734], [-15.9826433, 18.0702362]]}}, {"type": "Feature", "properties": {"highway": "residential"}, "geometry": {"type": "LineString", "coordinates": [[-15.9836671, 18.0695772], [-15.9830549, 18.0699734]]}}, {"type": "Feature", "properties": {"highway": "residential"}, "geometry": {"type": "LineString", "coordinates": [[-15.9830549, 18.0699734], [-15.9832527, 18.0702223], [-15.9832809, 18.0702408], [-15.9833063, 18.0702472], [-15.9833284, 18.0702427], [-15.9836108, 18.0700757], [-15.9844771, 18.0695287], [-15.9845093, 18.0694956], [-15.9845079, 18.0694561], [-15.9843524, 18.0691985], [-15.9843269, 18.0691883], [-15.9842813, 18.0691998], [-15.9836671, 18.0695772]]}}, {"type": "Feature", "properties": {"highway": "residential"}, "geometry": {"type": "LineString", "coordinates": [[-15.9836671, 18.0695772], [-15.9834263, 18.0691868]]}}, {"type": "Feature", "properties": {"highway": "residential"}, "geometry": {"type": "LineString", "coordinates": [[-15.9844736, 18.0645479], [-15.9836108, 18.0650969], [-15.9832782, 18.0653239], [-15.983246, 18.0653532], [-15.9832419, 18.0653978], [-15.9832513, 18.0654386], [-15.9834127, 18.0656689]]}}, {"type": "Feature", "properties": {"highway": "residential"}, "geometry": {"type": "LineString", "coordinates": [[-15.9846755, 18.0648788], [-15.9844736, 18.0645479], [-15.9842487, 18.0641793]]}}, {"type": "Feature", "properties": {"highway": "residential"}, "geometry": {"type": "LineString", "coordinates": [[-15.9850682, 18.0646309], [-15.9846755, 18.0648788], [-15.984225, 18.0651632], [-15.9840339, 18.0652812], [-15.9834127, 18.0656689], [-15.9832956, 18.0657421], [-15.9832862, 18.0657676], [-15.9832902, 18.0657994], [-15.9835196, 18.0661488]]}}, {"type": "Feature", "properties": {"highway": "residential"}, "geometry": {"type": "LineString", "coordinates": [[-15.9842786, 18.0656579], [-15.9840339, 18.0652812]]}}, {"type": "Feature", "properties": {"highway": "residential"}, "geometry": {"type": "LineString", "coordinates": [[-15.9844664, 18.065533], [-15.984225, 18.0651632]]}}, {"type": "Feature", "properties": {"highway": "residential"}, "geometry": {"type": "LineString", "coordinates": [[-15.9822902, 18.0659221], [-15.9816179, 18.0663464], [-15.9810398, 18.0667198], [-15.9809902, 18.0667595], [-15.9809567, 18.0667927], [-15.9809503, 18.0668232], [-15.9809534, 18.0668589], [-15.9810915, 18.0671178]]}}, {"type": "Feature", "properties": {"highway": "residential"}, "geometry": {"type": "LineString", "coordinates": [[-15.9824896, 18.0662533], [-15.9822902, 18.0659221], [-15.9820487, 18.065521]]}}, {"type": "Feature", "properties": {"highway": "residential"}, "geometry": {"type": "LineString", "coordinates": [[-15.9829007, 18.0659991], [-15.9824896, 18.0662533], [-15.9819144, 18.0666154], [-15.9815562, 18.0668245], [-15.981237, 18.0670222], [-15.981127, 18.0670904], [-15.9810915, 18.0671178], [-15.9811109, 18.0671547], [-15.9813241, 18.0675136]]}}, {"type": "Feature", "properties": {"highway": "residential"}, "geometry": {"type": "LineString", "coordinates": [[-15.9850528, 18.0676622], [-15.9847795, 18.067819], [-15.9847474, 18.0678202], [-15.9847158, 18.0678043], [-15.9845911, 18.0676533], [-15.9845106, 18.0675385], [-15.9841512, 18.0670527], [-15.9837884, 18.0665043]]}}, {"type": "Feature", "properties": {"highway": "residential"}, "geometry": {"type": "LineString", "coordinates": [[-15.9841325, 18.0663055], [-15.9837884, 18.0665043], [-15.9833953, 18.0667315]]}}, {"type": "Feature", "properties": {"highway": "residential"}, "geometry": {"type": "LineString", "coordinates": [[-15.9838642, 18.0659269], [-15.9841325, 18.0663055], [-15.9844972, 18.0668118], [-15.9845696, 18.0669316], [-15.9847574, 18.0672312], [-15.98493, 18.067486], [-15.9850122, 18.0676074], [-15.9850323, 18.0676341], [-15.9850528, 18.0676622], [-15.9851664, 18.0675857], [-15.9854612, 18.0674154]]}}, {"type": "Feature", "properties": {"highway": "residential"}, "geometry": {"type": "LineString", "coordinates": [[-15.9858075, 18.0671803], [-15.9860596, 18.067026], [-15.9860998, 18.0669979], [-15.9861146, 18.0669705], [-15.9861052, 18.0669393], [-15.9859818, 18.0667442], [-15.9856353, 18.0662361], [-15.9852083, 18.0656258]]}}, {"type": "Feature", "properties": {"highway": "residential"}, "geometry": {"type": "LineString", "coordinates": [[-15.9855865, 18.0653876], [-15.9852083, 18.0656258], [-15.9848943, 18.0658286]]}}, {"type": "Feature", "properties": {"highway": "residential"}, "geometry": {"type": "LineString", "coordinates": [[-15.9854612, 18.0674154], [-15.9856921, 18.0672516], [-15.9858075, 18.0671803], [-15.985786, 18.0671369], [-15.9857043, 18.0670204], [-15.9852375, 18.0663547], [-15.9848943, 18.0658286], [-15.9846085, 18.065445]]}}, {"type": "Feature", "properties": {"highway": "residential"}, "geometry": {"type": "LineString", "coordinates": [[-15.9877733, 18.0640176], [-15.9874034, 18.0642555], [-15.9868924, 18.0645609], [-15.9867507, 18.0646447], [-15.9865853, 18.0647425], [-15.9860498, 18.0651122]]}}, {"type": "Feature", "properties": {"highway": "residential"}, "geometry": {"type": "LineString", "coordinates": [[-15.9876134, 18.0645491], [-15.986246, 18.0654118], [-15.9862252, 18.0654144], [-15.9861984, 18.0654131], [-15.9861736, 18.0654017], [-15.9860489, 18.0651964], [-15.9860435, 18.0651709], [-15.9860428, 18.0651422], [-15.9860498, 18.0651122]]}}, {"type": "Feature", "properties": {"highway": "residential"}, "geometry": {"type": "LineString", "coordinates": [[-15.9874034, 18.0642555], [-15.9876134, 18.0645491], [-15.9878505, 18.064865]]}}, {"type": "Feature", "properties": {"highway": "residential"}, "geometry": {"type": "LineString", "coordinates": [[-15.9886238, 18.0674301], [-15.9884022, 18.0670632]]}}, {"type": "Feature", "properties": {"highway": "residential"}, "geometry": {"type": "LineString", "coordinates": [[-15.9888089, 18.0673205], [-15.9885594, 18.0669634]]}}, {"type": "Feature", "properties": {"highway": "residential"}, "geometry": {"type": "LineString", "coordinates": [[-15.9877929, 18.06745], [-15.9876461, 18.0675532], [-15.9876716, 18.0675946], [-15.9878755, 18.0678993]]}}, {"type": "Feature", "properties": {"highway": "residential"}, "geometry": {"type": "LineString", "coordinates": [[-15.988838, 18.0663432], [-15.9879425, 18.0668768], [-15.987618, 18.0670935], [-15.9875013, 18.0671828], [-15.9874845, 18.0672115], [-15.9874772, 18.0672351], [-15.9874812, 18.0672682], [-15.9876461, 18.0675532]]}}, {"type": "Feature", "properties": {"highway": "residential"}, "geometry": {"type": "LineString", "coordinates": [[-15.9890339, 18.0666622], [-15.988838, 18.0663432], [-15.9885868, 18.0659341]]}}, {"type": "Feature", "properties": {"highway": "residential"}, "geometry": {"type": "LineString", "coordinates": [[-15.9894349, 18.0664004], [-15.9890339, 18.0666622], [-15.9885594, 18.0669634], [-15.9884022, 18.0670632], [-15.9877929, 18.06745]]}}, {"type": "Feature", "properties": {"highway": "residential"}, "geometry": {"type": "LineString", "coordinates": [[-15.9903632, 18.0653723], [-15.9899873, 18.065605], [-15.989617, 18.0658579]]}}, {"type": "Feature", "properties": {"highway": "residential"}, "geometry": {"type": "LineString", "coordinates": [[-15.9912121, 18.065269], [-15.9902962, 18.0658734], [-15.9898818, 18.0661322], [-15.9898556, 18.0661386], [-15.9898295, 18.0661379], [-15.989808, 18.0661271], [-15.989617, 18.0658579], [-15.9893424, 18.0654599]]}}, {"type": "Feature", "properties": {"highway": "residential"}, "geometry": {"type": "LineString", "coordinates": [[-15.989077, 18.0651093], [-15.9887673, 18.0646532], [-15.9885031, 18.0642631], [-15.9882695, 18.0639003], [-15.9882014, 18.0637964]]}}, {"type": "Feature", "properties": {"highway": "residential"}, "geometry": {"type": "LineString", "coordinates": [[-15.9896662, 18.0652568], [-15.9894083, 18.0648865], [-15.9891267, 18.0644709], [-15.9891049, 18.0644401], [-15.9889819, 18.0642658], [-15.9888089, 18.0640132], [-15.9885842, 18.0637036], [-15.9884583, 18.0635536]]}}, {"type": "Feature", "properties": {"highway": "residential"}, "geometry": {"type": "LineString", "coordinates": [[-15.9894083, 18.0648865], [-15.989077, 18.0651093], [-15.9887098, 18.0653561]]}}, {"type": "Feature", "properties": {"highway": "residential"}, "geometry": {"type": "LineString", "coordinates": [[-15.9883387, 18.0655887], [-15.9881077, 18.0652679], [-15.9878505, 18.064865]]}}, {"type": "Feature", "properties": {"highway": "residential"}, "geometry": {"type": "LineString", "coordinates": [[-15.9880696, 18.0662586], [-15.9878191, 18.0659129]]}}, {"type": "Feature", "properties": {"highway": "residential"}, "geometry": {"type": "LineString", "coordinates": [[-15.9887098, 18.0653561], [-15.9883387, 18.0655887], [-15.9878191, 18.0659129], [-15.9869009, 18.0664727]]}}, {"type": "Feature", "properties": {"highway": "residential"}, "geometry": {"type": "LineString", "coordinates": [[-15.9808233, 18.0683813], [-15.9808749, 18.0683468], [-15.9812107, 18.0681299]]}}, {"type": "Feature", "properties": {"highway": "residential"}, "geometry": {"type": "LineString", "coordinates": [[-15.9814266, 18.0699277], [-15.9808669, 18.0690953], [-15.9806309, 18.0687408], [-15.9805591, 18.0686261], [-15.9805557, 18.0685904], [-15.9805664, 18.0685661], [-15.9808233, 18.0683813]]}}, {"type": "Feature", "properties": {"highway": "residential"}, "geometry": {"type": "LineString", "coordinates": [[-15.9832031, 18.0688326], [-15.9825481, 18.0692227], [-15.9821288, 18.0694956]]}}, {"type": "Feature", "properties": {"highway": "residential"}, "geometry": {"type": "LineString", "coordinates": [[-15.9825481, 18.0692227], [-15.9824259, 18.0690156], [-15.9823528, 18.0689148], [-15.9829871, 18.0685037]]}}, {"type": "Feature", "properties": {"highway": "residential"}, "geometry": {"type": "LineString", "coordinates": [[-15.9829871, 18.0685037], [-15.9835772, 18.0681378], [-15.983604, 18.0681352], [-15.9836322, 18.0681569], [-15.983777, 18.0683825], [-15.9837831, 18.0684119], [-15.9837744, 18.0684355], [-15.9837556, 18.0684552], [-15.9832031, 18.0688326]]}}, {"type": "Feature", "properties": {"highway": "residential"}, "geometry": {"type": "LineString", "coordinates": [[-15.9834263, 18.0691868], [-15.9832031, 18.0688326]]}}, {"type": "Feature", "properties": {"highway": "residential"}, "geometry": {"type": "LineString", "coordinates": [[-15.9832313, 18.0672761], [-15.9819853, 18.0680804], [-15.9819035, 18.0681123], [-15.9818552, 18.0681123], [-15.981819, 18.0680982], [-15.9816199, 18.0678662]]}}, {"type": "Feature", "properties": {"highway": "residential"}, "geometry": {"type": "LineString", "coordinates": [[-15.9833953, 18.0667315], [-15.9830208, 18.0669637], [-15.9828977, 18.0670399], [-15.9824118, 18.0673409], [-15.9817442, 18.0677825], [-15.9816199, 18.0678662], [-15.9815951, 18.0678413], [-15.9815508, 18.0677922], [-15.9813241, 18.0675136]]}}, {"type": "Feature", "properties": {"highway": "residential"}, "geometry": {"type": "LineString", "coordinates": [[-15.9814356, 18.0692024], [-15.9809312, 18.0685304], [-15.9808233, 18.0683813]]}}, {"type": "Feature", "properties": {"highway": "residential"}, "geometry": {"type": "LineString", "coordinates": [[-15.9820086, 18.070063], [-15.9817506, 18.0697187], [-15.9814356, 18.0692024]]}}, {"type": "Feature", "properties": {"highway": "residential"}, "geometry": {"type": "LineString", "coordinates": [[-15.9817506, 18.0697187], [-15.9814266, 18.0699277], [-15.9810036, 18.0701892]]}}, {"type": "Feature", "properties": {"highway": "residential"}, "geometry": {"type": "LineString", "coordinates": [[-15.9861718, 18.0699579], [-15.9869388, 18.0694922], [-15.987111, 18.0693828], [-15.9875932, 18.0690838], [-15.9879636, 18.0688516]]}}, {"type": "Feature", "properties": {"highway": "residential"}, "geometry": {"type": "LineString", "coordinates": [[-15.9890164, 18.0681818], [-15.9887096, 18.06838], [-15.9883635, 18.0685851], [-15.9879636, 18.0688516]]}}, {"type": "Feature", "properties": {"highway": "tertiary"}, "geometry": {"type": "LineString", "coordinates": [[-15.9860352, 18.0705713], [-15.985307, 18.0695093], [-15.9851272, 18.0692471], [-15.9845797, 18.0684485], [-15.9838505, 18.0674128], [-15.9833953, 18.0667315], [-15.9831454, 18.0663643]]}}, {"type": "Feature", "properties": {"highway": "residential"}, "geometry": {"type": "LineString", "coordinates": [[-15.9856353, 18.0662361], [-15.9860069, 18.0659727]]}}, {"type": "Feature", "properties": {"highway": "residential"}, "geometry": {"type": "LineString", "coordinates": [[-15.987111, 18.0693828], [-15.9873673, 18.0697377]]}}, {"type": "Feature", "properties": {"highway": "residential"}, "geometry": {"type": "LineString", "coordinates": [[-15.9858943, 18.0718314], [-15.9854975, 18.0720823], [-15.9851596, 18.0723213]]}}, {"type": "Feature", "properties": {"highway": "residential"}, "geometry": {"type": "LineString", "coordinates": [[-15.9875932, 18.0690838], [-15.9873712, 18.0687944], [-15.987337, 18.0687855], [-15.9873042, 18.0687969], [-15.9871789, 18.0688754], [-15.9867503, 18.0691437], [-15.9861723, 18.0695122], [-15.9860113, 18.0696231], [-15.9859952, 18.0696626], [-15.9859939, 18.069697], [-15.9860033, 18.0697276], [-15.9860221, 18.0697684], [-15.9861718, 18.0699579]]}}, {"type": "Feature", "properties": {"highway": "residential"}, "geometry": {"type": "LineString", "coordinates": [[-15.989768, 18.0676993], [-15.9895773, 18.067439], [-15.9895539, 18.0674148], [-15.9895169, 18.0674066], [-15.9894814, 18.0674199], [-15.989171, 18.0676341], [-15.9888799, 18.0678101], [-15.9883328, 18.0681543], [-15.9881866, 18.0682486], [-15.9881684, 18.0682722], [-15.9881745, 18.0683028], [-15.988196, 18.0683456], [-15.9883635, 18.0685851]]}}, {"type": "Feature", "properties": {"highway": "residential"}, "geometry": {"type": "LineString", "coordinates": [[-15.9809312, 18.0685304], [-15.9806309, 18.0687408]]}}, {"type": "Feature", "properties": {"highway": "residential"}, "geometry": {"type": "LineString", "coordinates": [[-15.982894, 18.0720421], [-15.9823702, 18.0713137]]}}, {"type": "Feature", "properties": {"highway": "residential"}, "geometry": {"type": "LineString", "coordinates": [[-15.9822536, 18.0711467], [-15.9818339, 18.0713989]]}}, {"type": "Feature", "properties": {"highway": "residential"}, "geometry": {"type": "LineString", "coordinates": [[-15.9819795, 18.071585], [-15.9823702, 18.0713137], [-15.9822536, 18.0711467], [-15.9820389, 18.070805], [-15.9819652, 18.0706877], [-15.981683, 18.0702668]]}}, {"type": "Feature", "properties": {"highway": "residential"}, "geometry": {"type": "LineString", "coordinates": [[-15.9819652, 18.0706877], [-15.9822764, 18.0704684], [-15.9826433, 18.0702362]]}}, {"type": "Feature", "properties": {"highway": "residential"}, "geometry": {"type": "LineString", "coordinates": [[-15.9822764, 18.0704684], [-15.982566, 18.0708815], [-15.9829228, 18.0713813], [-15.9831682, 18.0718007], [-15.9831719, 18.0718198], [-15.9831695, 18.0718431], [-15.9831554, 18.0718676], [-15.982894, 18.0720421], [-15.9824745, 18.0723073]]}}, {"type": "Feature", "properties": {"highway": "residential"}, "geometry": {"type": "LineString", "coordinates": [[-15.9847261, 18.0713884], [-15.9844972, 18.0710459]]}}, {"type": "Feature", "properties": {"highway": "residential"}, "geometry": {"type": "LineString", "coordinates": [[-15.9848773, 18.071296], [-15.984645, 18.0709471]]}}, {"type": "Feature", "properties": {"highway": "residential"}, "geometry": {"type": "LineString", "coordinates": [[-15.9854136, 18.0704479], [-15.984645, 18.0709471], [-15.9844972, 18.0710459], [-15.9840154, 18.0713439], [-15.9836123, 18.0716179]]}}, {"type": "Feature", "properties": {"highway": "residential"}, "geometry": {"type": "LineString", "coordinates": [[-15.9856583, 18.0708072], [-15.9854136, 18.0704479], [-15.9852405, 18.070192], [-15.9852296, 18.0701767], [-15.9852148, 18.0701647], [-15.9851973, 18.0701567], [-15.9851783, 18.0701533], [-15.9851589, 18.0701547], [-15.9851406, 18.0701609], [-15.9851246, 18.0701713], [-15.9838507, 18.0709745], [-15.9838352, 18.0709858], [-15.9838237, 18.0710007], [-15.9838171, 18.0710181], [-15.983816, 18.0710366], [-15.9838205, 18.0710546], [-15.9838301, 18.0710707], [-15.9840154, 18.0713439]]}}, {"type": "Feature", "properties": {"highway": "residential"}, "geometry": {"type": "LineString", "coordinates": [[-15.9853278, 18.071014], [-15.9856023, 18.0713966], [-15.9858943, 18.0718314], [-15.98601, 18.0720098], [-15.9862581, 18.0723559], [-15.9864519, 18.0726358], [-15.9864914, 18.0727034], [-15.9864955, 18.0727365], [-15.9864834, 18.072762], [-15.9861354, 18.072997]]}}, {"type": "Feature", "properties": {"highway": "residential"}, "geometry": {"type": "LineString", "coordinates": [[-15.9862931, 18.0709474], [-15.9856023, 18.0713966]]}}, {"type": "Feature", "properties": {"highway": "residential"}, "geometry": {"type": "LineString", "coordinates": [[-15.9856235, 18.0722647], [-15.985322, 18.0724433], [-15.9852844, 18.0724509], [-15.9852563, 18.0724439], [-15.9852348, 18.0724216], [-15.9851596, 18.0723213], [-15.9848245, 18.0718747], [-15.9845576, 18.0714961]]}}, {"type": "Feature", "properties": {"highway": "residential"}, "geometry": {"type": "LineString", "coordinates": [[-15.9848245, 18.0718747], [-15.9844892, 18.0720697], [-15.9840926, 18.0723028]]}}, {"type": "Feature", "properties": {"highway": "residential"}, "geometry": {"type": "LineString", "coordinates": [[-15.989768, 18.0676993], [-15.9894311, 18.0679197], [-15.9890164, 18.0681818], [-15.9892661, 18.0685494]]}}, {"type": "Feature", "properties": {"highway": "residential"}, "geometry": {"type": "LineString", "coordinates": [[-15.9905516, 18.0652467], [-15.9902802, 18.0648715]]}}, {"type": "Feature", "properties": {"highway": "residential"}, "geometry": {"type": "LineString", "coordinates": [[-15.9903632, 18.0653723], [-15.9900976, 18.0649905]]}}, {"type": "Feature", "properties": {"highway": "residential"}, "geometry": {"type": "LineString", "coordinates": [[-15.9905516, 18.0652467], [-15.9903632, 18.0653723]]}}, {"type": "Feature", "properties": {"highway": "unclassified"}, "geometry": {"type": "LineString", "coordinates": [[-15.98748, 18.0681469], [-15.985307, 18.0695093]]}}, {"type": "Feature", "properties": {"highway": "residential"}, "geometry": {"type": "LineString", "coordinates": [[-15.985307, 18.0695093], [-15.9831028, 18.0708915]]}}, {"type": "Feature", "properties": {"highway": "residential"}, "geometry": {"type": "LineString", "coordinates": [[-15.989466, 18.0642019], [-15.9891049, 18.0644401]]}}, {"type": "Feature", "properties": {"highway": "residential"}, "geometry": {"type": "LineString", "coordinates": [[-15.9805993, 18.0628389], [-15.9804465, 18.0630861], [-15.9802915, 18.0633816]]}}, {"type": "Feature", "properties": {"highway": "residential"}, "geometry": {"type": "LineString", "coordinates": [[-15.98092, 18.0633055], [-15.9804465, 18.0630861], [-15.9798588, 18.0627924], [-15.979809, 18.0627472], [-15.9796509, 18.0627174]]}}, {"type": "Feature", "properties": {"highway": "residential"}, "geometry": {"type": "LineString", "coordinates": [[-15.9810993, 18.0617925], [-15.9809269, 18.061566]]}}, {"type": "Feature", "properties": {"highway": "residential"}, "geometry": {"type": "LineString", "coordinates": [[-15.9808141, 18.0619783], [-15.9806352, 18.0617511]]}}, {"type": "Feature", "properties": {"highway": "residential"}, "geometry": {"type": "LineString", "coordinates": [[-15.9804195, 18.0622253], [-15.9802479, 18.0619948], [-15.9800944, 18.0617895]]}}, {"type": "Feature", "properties": {"highway": "residential"}, "geometry": {"type": "LineString", "coordinates": [[-15.980976, 18.063019], [-15.9809446, 18.0629422], [-15.980899, 18.0628618], [-15.9808306, 18.0627713], [-15.980802, 18.0627361], [-15.9805718, 18.0624526], [-15.9804195, 18.0622253]]}}, {"type": "Feature", "properties": {"highway": "residential"}, "geometry": {"type": "LineString", "coordinates": [[-15.9812715, 18.0628789], [-15.9808721, 18.0623859], [-15.9808199, 18.0623216], [-15.9808051, 18.0623033], [-15.9806309, 18.0620976]]}}, {"type": "Feature", "properties": {"highway": "residential"}, "geometry": {"type": "LineString", "coordinates": [[-15.9811051, 18.0630808], [-15.980976, 18.063019], [-15.9805993, 18.0628389], [-15.9802489, 18.0626713], [-15.9799611, 18.0625338], [-15.9797806, 18.0624513]]}}, {"type": "Feature", "properties": {"highway": "residential"}, "geometry": {"type": "LineString", "coordinates": [[-15.9814663, 18.0626425], [-15.9812715, 18.0628789], [-15.9811051, 18.0630808]]}}, {"type": "Feature", "properties": {"highway": "residential"}, "geometry": {"type": "LineString", "coordinates": [[-15.981569, 18.0617966], [-15.9813309, 18.0619642], [-15.9811283, 18.0620967], [-15.9810774, 18.06213], [-15.9808051, 18.0623033], [-15.9805718, 18.0624526], [-15.98039, 18.0625503], [-15.9802489, 18.0626713]]}}, {"type": "Feature", "properties": {"highway": "residential"}, "geometry": {"type": "LineString", "coordinates": [[-15.9819806, 18.0628576], [-15.9818301, 18.0629701]]}}, {"type": "Feature", "properties": {"highway": "residential"}, "geometry": {"type": "LineString", "coordinates": [[-15.9822455, 18.0633425], [-15.98222, 18.0632418], [-15.9821932, 18.0631857], [-15.9821315, 18.0630786], [-15.9820524, 18.06296], [-15.9819806, 18.0628576], [-15.9817976, 18.0625966], [-15.9813309, 18.0619642]]}}, {"type": "Feature", "properties": {"highway": "residential"}, "geometry": {"type": "LineString", "coordinates": [[-15.983119, 18.061779], [-15.982811, 18.0619677], [-15.9825511, 18.0621279], [-15.9822943, 18.0622943], [-15.9820451, 18.0624482], [-15.9817976, 18.0625966]]}}, {"type": "Feature", "properties": {"highway": "residential"}, "geometry": {"type": "LineString", "coordinates": [[-15.9826519, 18.0610947], [-15.9823246, 18.0613191], [-15.9820765, 18.0614886], [-15.9818324, 18.0616704]]}}, {"type": "Feature", "properties": {"highway": "residential"}, "geometry": {"type": "LineString", "coordinates": [[-15.9832678, 18.0625769], [-15.982811, 18.0619677], [-15.9823246, 18.0613191]]}}, {"type": "Feature", "properties": {"highway": "residential"}, "geometry": {"type": "LineString", "coordinates": [[-15.9830612, 18.0628149], [-15.9825511, 18.0621279], [-15.9820765, 18.0614886]]}}, {"type": "Feature", "properties": {"highway": "residential"}, "geometry": {"type": "LineString", "coordinates": [[-15.9828553, 18.0630521], [-15.9822943, 18.0622943], [-15.9818324, 18.0616704], [-15.9816554, 18.0614313]]}}, {"type": "Feature", "properties": {"highway": "residential"}, "geometry": {"type": "LineString", "coordinates": [[-15.9819987, 18.0608553], [-15.9812505, 18.0613606], [-15.9809269, 18.061566], [-15.9806352, 18.0617511], [-15.9802479, 18.0619948]]}}, {"type": "Feature", "properties": {"highway": "residential"}, "geometry": {"type": "LineString", "coordinates": [[-15.9825055, 18.0608807], [-15.9821843, 18.0610887], [-15.9816554, 18.0614313], [-15.9814156, 18.0615866], [-15.9810993, 18.0617925], [-15.9809541, 18.0618871], [-15.9808141, 18.0619783], [-15.9806309, 18.0620976], [-15.9804195, 18.0622253], [-15.9799611, 18.0625338]]}}, {"type": "Feature", "properties": {"highway": "residential"}, "geometry": {"type": "LineString", "coordinates": [[-15.9826162, 18.0636823], [-15.9824612, 18.0635393], [-15.9822455, 18.0633425], [-15.9818301, 18.0629701], [-15.9817955, 18.0629391], [-15.9817278, 18.0628784], [-15.981575, 18.0627369], [-15.9814663, 18.0626425], [-15.9813188, 18.062464], [-15.9810774, 18.06213]]}}, {"type": "Feature", "properties": {"highway": "residential"}, "geometry": {"type": "LineString", "coordinates": [[-15.982655, 18.0632828], [-15.9824612, 18.0635393]]}}, {"type": "Feature", "properties": {"highway": "residential"}, "geometry": {"type": "LineString", "coordinates": [[-15.9851208, 18.0618202], [-15.9845721, 18.0610449], [-15.9840637, 18.0603231], [-15.9838938, 18.0600818]]}}, {"type": "Feature", "properties": {"highway": "residential"}, "geometry": {"type": "LineString", "coordinates": [[-15.9856436, 18.061499], [-15.9851208, 18.0618202], [-15.9848628, 18.0619786]]}}, {"type": "Feature", "properties": {"highway": "residential"}, "geometry": {"type": "LineString", "coordinates": [[-15.9858112, 18.06174], [-15.9856436, 18.061499], [-15.9849894, 18.0605583], [-15.9845812, 18.0599775]]}}, {"type": "Feature", "properties": {"highway": "residential"}, "geometry": {"type": "LineString", "coordinates": [[-15.9848794, 18.0628351], [-15.9845437, 18.0630562], [-15.9841561, 18.0632968]]}}, {"type": "Feature", "properties": {"highway": "residential"}, "geometry": {"type": "LineString", "coordinates": [[-15.985809, 18.0641983], [-15.985322, 18.0634573], [-15.9848794, 18.0628351], [-15.9846327, 18.0624742]]}}, {"type": "Feature", "properties": {"highway": "residential"}, "geometry": {"type": "LineString", "coordinates": [[-15.9860589, 18.0629717], [-15.9856827, 18.0632158], [-15.985322, 18.0634573]]}}, {"type": "Feature", "properties": {"highway": "residential"}, "geometry": {"type": "LineString", "coordinates": [[-15.9865771, 18.0637336], [-15.9860589, 18.0629717], [-15.98566, 18.0623735], [-15.9853875, 18.062004]]}}, {"type": "Feature", "properties": {"highway": "residential"}, "geometry": {"type": "LineString", "coordinates": [[-15.9863387, 18.0619283], [-15.9859709, 18.0621695], [-15.98566, 18.0623735]]}}, {"type": "Feature", "properties": {"highway": "residential"}, "geometry": {"type": "LineString", "coordinates": [[-15.9845437, 18.0630562], [-15.9854561, 18.0643268], [-15.9855017, 18.0643523], [-15.985558, 18.0643396], [-15.985809, 18.0641983], [-15.9861873, 18.0639854], [-15.9865771, 18.0637336], [-15.9868428, 18.0635618], [-15.9868616, 18.0635261], [-15.9868428, 18.0634751], [-15.9866363, 18.0631385], [-15.9859709, 18.0621695]]}}, {"type": "Feature", "properties": {"highway": "residential"}, "geometry": {"type": "LineString", "coordinates": [[-15.9867507, 18.0646447], [-15.9864835, 18.0642683]]}}, {"type": "Feature", "properties": {"highway": "residential"}, "geometry": {"type": "LineString", "coordinates": [[-15.9868924, 18.0645609], [-15.9866388, 18.0641723]]}}, {"type": "Feature", "properties": {"highway": "residential"}, "geometry": {"type": "LineString", "coordinates": [[-15.9885842, 18.0637036], [-15.9882695, 18.0639003]]}}, {"type": "Feature", "properties": {"highway": "residential"}, "geometry": {"type": "LineString", "coordinates": [[-15.9893488, 18.0640324], [-15.9889819, 18.0642658]]}}, {"type": "Feature", "properties": {"highway": "residential"}, "geometry": {"type": "LineString", "coordinates": [[-15.9796912, 18.0618647], [-15.9794177, 18.0617496], [-15.9791676, 18.0616416]]}}, {"type": "Feature", "properties": {"highway": "residential"}, "geometry": {"type": "LineString", "coordinates": [[-15.9799217, 18.0614587], [-15.9796912, 18.0618647], [-15.9796223, 18.0620025], [-15.9795696, 18.0621073], [-15.9793823, 18.062487]]}}, {"type": "Feature", "properties": {"highway": "residential"}, "geometry": {"type": "LineString", "coordinates": [[-15.9897195, 18.062269], [-15.99004, 18.0620854], [-15.9901741, 18.0620344], [-15.9902626, 18.0620229], [-15.9903742, 18.0619933], [-15.9904504, 18.0619783], [-15.9905346, 18.0619457]]}}, {"type": "Feature", "properties": {"highway": "residential"}, "geometry": {"type": "LineString", "coordinates": [[-15.9797041, 18.0626068], [-15.9793823, 18.062487], [-15.9792267, 18.0624334], [-15.9788847, 18.0623021]]}}, {"type": "Feature", "properties": {"highway": "residential"}, "geometry": {"type": "LineString", "coordinates": [[-15.9788847, 18.0637964], [-15.9797765, 18.0645007]]}}, {"type": "Feature", "properties": {"highway": "residential"}, "geometry": {"type": "LineString", "coordinates": [[-15.9786584, 18.0627379], [-15.9788303, 18.0624063], [-15.9788847, 18.0623021], [-15.9789507, 18.062161], [-15.9790772, 18.0618904], [-15.9791676, 18.0616416]]}}, {"type": "Feature", "properties": {"highway": "residential"}, "geometry": {"type": "LineString", "coordinates": [[-15.9792267, 18.0624334], [-15.9790201, 18.0628845]]}}, {"type": "Feature", "properties": {"highway": "residential"}, "geometry": {"type": "LineString", "coordinates": [[-15.9797414, 18.0613277], [-15.9794177, 18.0617496]]}}, {"type": "Feature", "properties": {"highway": "residential"}, "geometry": {"type": "LineString", "coordinates": [[-15.9791676, 18.0616416], [-15.9791891, 18.0615664], [-15.9791938, 18.0615422], [-15.9791851, 18.0615218], [-15.9791623, 18.061502], [-15.9787018, 18.0611136]]}}, {"type": "Feature", "properties": {"highway": "residential"}, "geometry": {"type": "LineString", "coordinates": [[-15.9791676, 18.0616416], [-15.9785777, 18.0613965]]}}, {"type": "Feature", "properties": {"highway": "residential"}, "geometry": {"type": "LineString", "coordinates": [[-15.9795696, 18.0621073], [-15.9790772, 18.0618904]]}}, {"type": "Feature", "properties": {"highway": "residential"}, "geometry": {"type": "LineString", "coordinates": [[-15.9790772, 18.0618904], [-15.9784462, 18.0616811]]}}, {"type": "Feature", "properties": {"highway": "secondary"}, "geometry": {"type": "LineString", "coordinates": [[-15.9831454, 18.0663643], [-15.9829697, 18.0661021], [-15.9829007, 18.0659991], [-15.9824186, 18.0652939], [-15.982171, 18.0649412], [-15.9820343, 18.0647466], [-15.9819196, 18.0645895], [-15.9817788, 18.0643778], [-15.9817305, 18.0643122]]}}, {"type": "Feature", "properties": {"highway": "tertiary"}, "geometry": {"type": "LineString", "coordinates": [[-15.9874687, 18.0726616], [-15.9869306, 18.071877], [-15.9867202, 18.0715702], [-15.9862931, 18.0709474], [-15.9860352, 18.0705713]]}}, {"type": "Feature", "properties": {"highway": "unclassified"}, "geometry": {"type": "LineString", "coordinates": [[-15.9918703, 18.0653887], [-15.9914904, 18.0656302], [-15.9907685, 18.0660891], [-15.989686, 18.0667773]]}}, {"type": "Feature", "properties": {"highway": "tertiary"}, "geometry": {"type": "LineString", "coordinates": [[-15.9897195, 18.062269], [-15.990423, 18.0632884], [-15.9908323, 18.0638824], [-15.9908977, 18.0639773], [-15.9911414, 18.0643311], [-15.9914097, 18.0647186], [-15.9915444, 18.0649158], [-15.9915585, 18.0649365], [-15.9918703, 18.0653887]]}}, {"type": "Feature", "properties": {"highway": "secondary"}, "geometry": {"type": "LineString", "coordinates": [[-15.9807207, 18.0635707], [-15.9806107, 18.0635197], [-15.9804229, 18.0634356], [-15.9802915, 18.0633816], [-15.9798228, 18.0631961], [-15.9794721, 18.0630677]]}}, {"type": "Feature", "properties": {"highway": "tertiary"}, "geometry": {"type": "LineString", "coordinates": [[-15.9794721, 18.0630677], [-15.9796509, 18.0627174], [-15.9797041, 18.0626068], [-15.9797806, 18.0624513]]}}, {"type": "Feature", "properties": {"highway": "residential"}, "geometry": {"type": "LineString", "coordinates": [[-15.9811051, 18.0630808], [-15.98092, 18.0633055], [-15.9807207, 18.0635707]]}}, {"type": "Feature", "properties": {"highway": "secondary"}, "geometry": {"type": "LineString", "coordinates": [[-15.9817305, 18.0643122], [-15.9816688, 18.0642376], [-15.9815642, 18.0641317], [-15.9814408, 18.0640081], [-15.9813094, 18.0639035], [-15.9810922, 18.0637543], [-15.9807207, 18.0635707]]}}, {"type": "Feature", "properties": {"highway": "unclassified"}, "geometry": {"type": "LineString", "coordinates": [[-15.9882098, 18.0692104], [-15.9879636, 18.0688516], [-15.98748, 18.0681469]]}}, {"type": "Feature", "properties": {"highway": "unclassified"}, "geometry": {"type": "LineString", "coordinates": [[-15.98748, 18.0681469], [-15.9867517, 18.0670856], [-15.9860501, 18.0660256], [-15.9860069, 18.0659727], [-15.9855865, 18.0653876], [-15.985314, 18.0649905]]}}, {"type": "Feature", "properties": {"highway": "residential"}, "geometry": {"type": "LineString", "coordinates": [[-15.9871237, 18.0668522], [-15.9869009, 18.0664727], [-15.9867662, 18.0662431], [-15.9867422, 18.0662074], [-15.9867315, 18.0661692], [-15.9867409, 18.0661424], [-15.986757, 18.0661182], [-15.9870064, 18.0659741], [-15.9881077, 18.0652679]]}}, {"type": "Feature", "properties": {"highway": "residential"}, "geometry": {"type": "LineString", "coordinates": [[-15.9834815, 18.0676475], [-15.9832313, 18.0672761], [-15.9830208, 18.0669637]]}}, {"type": "Feature", "properties": {"highway": "residential"}, "geometry": {"type": "LineString", "coordinates": [[-15.9878138, 18.0629039], [-15.9877072, 18.0629746], [-15.9876888, 18.0630033], [-15.9876838, 18.0630366], [-15.9876931, 18.063069], [-15.9878984, 18.0633924]]}}, {"type": "Feature", "properties": {"highway": "residential"}, "geometry": {"type": "LineString", "coordinates": [[-15.9871891, 18.0698487], [-15.9869388, 18.0694922]]}}, {"type": "Feature", "properties": {"highway": "service"}, "geometry": {"type": "LineString", "coordinates": [[-15.980462, 18.0680727], [-15.9803043, 18.0677808]]}}, {"type": "Feature", "properties": {"highway": "service"}, "geometry": {"type": "LineString", "coordinates": [[-15.9797017, 18.0691082], [-15.9798275, 18.0693311], [-15.9798262, 18.0693502], [-15.9798101, 18.0693655], [-15.9792884, 18.0697302]]}}, {"type": "Feature", "properties": {"highway": "residential"}, "geometry": {"type": "LineString", "coordinates": [[-15.982069, 18.0685363], [-15.9823528, 18.0689148]]}}, {"type": "Feature", "properties": {"highway": "service"}, "geometry": {"type": "LineString", "coordinates": [[-15.9791851, 18.0686745], [-15.9787462, 18.0689562]]}}, {"type": "Feature", "properties": {"highway": "service"}, "geometry": {"type": "LineString", "coordinates": [[-15.9806281, 18.067221], [-15.9803653, 18.0673817], [-15.9803143, 18.0673868], [-15.9802768, 18.0673638], [-15.9801883, 18.0672491]]}}, {"type": "Feature", "properties": {"highway": "service"}, "geometry": {"type": "LineString", "coordinates": [[-15.9800541, 18.070309], [-15.9797961, 18.0704835]]}}, {"type": "Feature", "properties": {"highway": "service"}, "geometry": {"type": "LineString", "coordinates": [[-15.9805468, 18.0695127], [-15.9800501, 18.069785]]}}, {"type": "Feature", "properties": {"highway": "service"}, "geometry": {"type": "LineString", "coordinates": [[-15.9800659, 18.0683673], [-15.9799442, 18.0682206], [-15.97992, 18.0681747], [-15.9799147, 18.0681161], [-15.9799174, 18.0679886], [-15.979971, 18.0677999]]}}, {"type": "Feature", "properties": {"highway": "service"}, "geometry": {"type": "LineString", "coordinates": [[-15.9902626, 18.0620229], [-15.990622, 18.0625074]]}}, {"type": "Feature", "properties": {"highway": "service"}, "geometry": {"type": "LineString", "coordinates": [[-15.9903742, 18.0619933], [-15.9905255, 18.0621937], [-15.9906153, 18.0622932], [-15.9907199, 18.0623531], [-15.9908184, 18.0623752]]}}]}