{"type": "FeatureCollection", "features": [{"type": "Feature", "properties": {"highway": "residential"}, "geometry": {"type": "LineString", "coordinates": [[-48.4494317, -1.4582043], [-48.450285, -1.4579425], [-48.4517401, -1.4574079], [-48.4526198, -1.4571084]]}}, {"type": "Feature", "properties": {"highway": "tertiary"}, "geometry": {"type": "LineString", "coordinates": [[-48.4469079, -1.4515781], [-48.4470056, -1.4516671], [-48.4474593, -1.4521812], [-48.4476812, -1.4524232], [-48.4478511, -1.4526341], [-48.4480586, -1.4528848], [-48.4483727, -1.4532642], [-48.4487253, -1.4535623], [-48.4490445, -1.4538666], [-48.4491302, -1.4539518], [-48.4494339, -1.454254], [-48.4497156, -1.4545638], [-48.4501386, -1.4549813], [-48.4505268, -1.4553721], [-48.4507473, -1.4555926], [-48.4510596, -1.4559174], [-48.4513355, -1.4561964], [-48.4513756, -1.4562306], [-48.451665, -1.4565012], [-48.4519465, -1.4567031], [-48.4522517, -1.4568929], [-48.4524187, -1.4569919], [-48.4526198, -1.4571084]]}}, {"type": "Feature", "properties": {"highway": "residential"}, "geometry": {"type": "LineString", "coordinates": [[-48.4532107, -1.454404], [-48.4531456, -1.45433], [-48.4530867, -1.4542636], [-48.4526413, -1.4538162], [-48.451561, -1.4527846], [-48.45153, -1.4527509], [-48.4513391, -1.4525436], [-48.451178, -1.4523333], [-48.45087, -1.4519396], [-48.4507292, -1.4517583], [-48.4507088, -1.4517177], [-48.4506802, -1.4516065], [-48.4506109, -1.4513115], [-48.4505913, -1.4512222], [-48.450556, -1.4510178], [-48.4505376, -1.4508917], [-48.4505349, -1.4506864], [-48.4505412, -1.4506049], [-48.4505415, -1.4505368], [-48.4505277, -1.4505129], [-48.4505019, -1.4504971]]}}, {"type": "Feature", "properties": {"highway": "residential"}, "geometry": {"type": "LineString", "coordinates": [[-48.451153, -1.4564656], [-48.4514041, -1.4567466], [-48.4515141, -1.4568718], [-48.4516291, -1.4570002], [-48.4516884, -1.4571916], [-48.4517401, -1.4574079], [-48.4519484, -1.4582462], [-48.4520718, -1.4587305], [-48.4521694, -1.459029], [-48.4522511, -1.4592656], [-48.4523141, -1.4594574], [-48.4523607, -1.4596559], [-48.4524214, -1.459944], [-48.4524959, -1.4601807], [-48.4528253, -1.4612078]]}}, {"type": "Feature", "properties": {"highway": "residential"}, "geometry": {"type": "LineString", "coordinates": [[-48.4471017, -1.4646191], [-48.4473132, -1.4644956], [-48.447971, -1.4641343], [-48.448161, -1.4640313], [-48.4495057, -1.4632901], [-48.4498535, -1.4631021], [-48.4500041, -1.4630188], [-48.4502374, -1.4628935], [-48.4504071, -1.462793], [-48.4506746, -1.4626415], [-48.4507826, -1.4625919], [-48.450851, -1.4625751], [-48.4508899, -1.4625754], [-48.4509254, -1.4625798], [-48.451134, -1.4626535], [-48.4513968, -1.4627628], [-48.4516872, -1.4628714], [-48.4520218, -1.4630008], [-48.4522022, -1.4630584], [-48.4524056, -1.4631308], [-48.4525617, -1.4631862], [-48.452726, -1.4632402], [-48.4529367, -1.4632931], [-48.4531997, -1.463325]]}}, {"type": "Feature", "properties": {"highway": "residential"}, "geometry": {"type": "LineString", "coordinates": [[-48.4543997, -1.4616723], [-48.4542174, -1.4617316], [-48.454139, -1.4617438], [-48.4540006, -1.4617666], [-48.4537956, -1.4617933], [-48.4535972, -1.4618385], [-48.4534568, -1.461892], [-48.45338, -1.4619199], [-48.4532562, -1.461965], [-48.4529855, -1.4620406], [-48.4527353, -1.4621109], [-48.4526625, -1.4621379], [-48.4523219, -1.4622571]]}}, {"type": "Feature", "properties": {"highway": "residential"}, "geometry": {"type": "LineString", "coordinates": [[-48.4543997, -1.4616723], [-48.4542174, -1.4617316], [-48.454139, -1.4617438], [-48.4540006, -1.4617666], [-48.4537956, -1.4617933], [-48.4535972, -1.4618385], [-48.4534568, -1.461892], [-48.45338, -1.4619199], [-48.4532562, -1.461965], [-48.4529855, -1.4620406], [-48.4527353, -1.4621109], [-48.4526625, -1.4621379], [-48.4523219, -1.4622571]]}}, {"type": "Feature", "properties": {"highway": "residential"}, "geometry": {"type": "LineString", "coordinates": [[-48.4520547, -1.4614959], [-48.4520993, -1.4616578], [-48.4521176, -1.461744], [-48.4521692, -1.4618587], [-48.4522096, -1.4619577], [-48.4522508, -1.4620558], [-48.4523219, -1.4622571], [-48.4523893, -1.4624671], [-48.4524469, -1.4626334], [-48.4524796, -1.462825]]}}, {"type": "Feature", "properties": {"highway": "residential"}, "geometry": {"type": "LineString", "coordinates": [[-48.4547827, -1.4632021], [-48.4546269, -1.4632294], [-48.4544654, -1.4632805], [-48.4541077, -1.4634259], [-48.453839, -1.4635263], [-48.4535654, -1.4636402], [-48.4534152, -1.4636711], [-48.4532294, -1.4637], [-48.4530477, -1.4636939]]}}, {"type": "Feature", "properties": {"highway": "residential"}, "geometry": {"type": "LineString", "coordinates": [[-48.4547827, -1.4632021], [-48.4546269, -1.4632294], [-48.4544654, -1.4632805], [-48.4541077, -1.4634259], [-48.453839, -1.4635263], [-48.4535654, -1.4636402], [-48.4534152, -1.4636711], [-48.4532294, -1.4637], [-48.4530477, -1.4636939]]}}, {"type": "Feature", "properties": {"highway": "residential"}, "geometry": {"type": "LineString", "coordinates": [[-48.4527064, -1.4640679], [-48.452508, -1.4640424], [-48.4523335, -1.4640089], [-48.4520841, -1.4639499], [-48.4518508, -1.4638882], [-48.4512479, -1.4636684], [-48.4511273, -1.4636261], [-48.4510481, -1.4636088], [-48.4509804, -1.4636107], [-48.4508141, -1.4636215], [-48.4506666, -1.4636483], [-48.450393, -1.463722], [-48.4501222, -1.4637944], [-48.4498279, -1.4639], [-48.4495907, -1.4640024], [-48.4493496, -1.4640994], [-48.4492725, -1.4641383], [-48.4492208, -1.4641523], [-48.4491283, -1.4641671], [-48.4490485, -1.4642221], [-48.4490236, -1.464233], [-48.4489553, -1.464263], [-48.448599, -1.464411], [-48.4484792, -1.4644607], [-48.4481757, -1.4646166], [-48.4478033, -1.4648079], [-48.4476622, -1.4648841], [-48.4473588, -1.465048]]}}, {"type": "Feature", "properties": {"highway": "residential"}, "geometry": {"type": "LineString", "coordinates": [[-48.4527372, -1.4636617], [-48.4527198, -1.4639138], [-48.4527064, -1.4640679], [-48.4526688, -1.4644876], [-48.4526447, -1.4646471], [-48.4526354, -1.4647202], [-48.4526239, -1.4647597], [-48.4526085, -1.4647939], [-48.4525615, -1.4648637], [-48.4525193, -1.4650641], [-48.4524677, -1.465249]]}}, {"type": "Feature", "properties": {"highway": "residential"}, "geometry": {"type": "LineString", "coordinates": [[-48.4512957, -1.4649401], [-48.451252, -1.4644775], [-48.4512526, -1.4643159], [-48.4512406, -1.4642281], [-48.4512319, -1.4641866], [-48.4512144, -1.4641638], [-48.4511963, -1.4641484], [-48.4511742, -1.464137]]}}, {"type": "Feature", "properties": {"highway": "residential"}, "geometry": {"type": "LineString", "coordinates": [[-48.451034, -1.4614891], [-48.4503551, -1.4618351], [-48.4496822, -1.4622348], [-48.4490893, -1.4625454], [-48.4475675, -1.4633949], [-48.4467084, -1.4638375]]}}, {"type": "Feature", "properties": {"highway": "residential"}, "geometry": {"type": "LineString", "coordinates": [[-48.451037, -1.4610557], [-48.4509396, -1.4611071], [-48.4508745, -1.4611164], [-48.4507866, -1.4611285], [-48.4507094, -1.4611493], [-48.450635, -1.4611921], [-48.4505157, -1.4612552], [-48.4497225, -1.4616916], [-48.4488836, -1.4621648], [-48.4481329, -1.4625818], [-48.4473554, -1.4630046], [-48.4471692, -1.4631027], [-48.4465123, -1.4634578]]}}, {"type": "Feature", "properties": {"highway": "residential"}, "geometry": {"type": "LineString", "coordinates": [[-48.4488836, -1.4621648], [-48.4490893, -1.4625454], [-48.4493031, -1.4629271], [-48.4495057, -1.4632901]]}}, {"type": "Feature", "properties": {"highway": "residential"}, "geometry": {"type": "LineString", "coordinates": [[-48.4473554, -1.4630046], [-48.4475675, -1.4633949], [-48.4477764, -1.4637623], [-48.447971, -1.4641343]]}}, {"type": "Feature", "properties": {"highway": "residential"}, "geometry": {"type": "LineString", "coordinates": [[-48.451134, -1.4626535], [-48.4511849, -1.4624256], [-48.4511715, -1.4622942], [-48.4511393, -1.4621119], [-48.4511044, -1.4618947], [-48.4510716, -1.4617533], [-48.451034, -1.4614891], [-48.4510267, -1.4613665], [-48.451037, -1.4610557], [-48.4510044, -1.4607901], [-48.450977, -1.4605098], [-48.4509636, -1.4604629], [-48.4508025, -1.4598919], [-48.4507822, -1.4598012], [-48.4507549, -1.4597103], [-48.4507162, -1.4595621], [-48.4504759, -1.4587106], [-48.450285, -1.4579425], [-48.45007, -1.4575737]]}}, {"type": "Feature", "properties": {"highway": "residential"}, "geometry": {"type": "LineString", "coordinates": [[-48.4524959, -1.4601807], [-48.4522457, -1.460247], [-48.4520794, -1.4602926], [-48.4519279, -1.4603261], [-48.4516422, -1.4603824], [-48.4515968, -1.4603898], [-48.4515745, -1.4603932], [-48.4514545, -1.4604283], [-48.4514062, -1.4604307], [-48.450977, -1.4605098]]}}, {"type": "Feature", "properties": {"highway": "residential"}, "geometry": {"type": "LineString", "coordinates": [[-48.4510267, -1.4613665], [-48.4511742, -1.4613685], [-48.4513633, -1.461339], [-48.4515698, -1.4612861], [-48.4516731, -1.4612244], [-48.4517925, -1.4611158], [-48.4519467, -1.4609308], [-48.4520423, -1.460819], [-48.452056, -1.4608031]]}}, {"type": "Feature", "properties": {"highway": "residential"}, "geometry": {"type": "LineString", "coordinates": [[-48.4524324, -1.4611156], [-48.4524006, -1.4611534], [-48.4523159, -1.4612589], [-48.4522444, -1.4613383], [-48.4521237, -1.4614496], [-48.4520547, -1.4614959], [-48.451716, -1.4616225], [-48.4515457, -1.4616662], [-48.451248, -1.4617231], [-48.4510716, -1.4617533]]}}, {"type": "Feature", "properties": {"highway": "residential"}, "geometry": {"type": "LineString", "coordinates": [[-48.4530971, -1.4586558], [-48.4529276, -1.4587536], [-48.4526458, -1.4588762], [-48.4521694, -1.459029]]}}, {"type": "Feature", "properties": {"highway": "residential"}, "geometry": {"type": "LineString", "coordinates": [[-48.4505083, -1.4537968], [-48.45092, -1.4542326], [-48.4512869, -1.4546134], [-48.4515355, -1.4548777], [-48.4521436, -1.4554684], [-48.4522954, -1.4556194], [-48.452456, -1.4557933], [-48.4526239, -1.4559609], [-48.4527782, -1.4561298], [-48.4534438, -1.4568257], [-48.4535372, -1.456961], [-48.4536688, -1.4571535], [-48.4538458, -1.4573914], [-48.4539389, -1.4575314], [-48.4542405, -1.458216], [-48.4545407, -1.4587282], [-48.4547204, -1.4590375], [-48.4547469, -1.4590673], [-48.4550979, -1.4595912], [-48.4551924, -1.459748], [-48.4553661, -1.4600574], [-48.4555173, -1.4602966], [-48.4555905, -1.4604267], [-48.4556371, -1.4605425], [-48.4556535, -1.4606707], [-48.4556623, -1.4608278], [-48.4556471, -1.4612831], [-48.4555918, -1.4621562], [-48.4555891, -1.4623391]]}}, {"type": "Feature", "properties": {"highway": "residential"}, "geometry": {"type": "LineString", "coordinates": [[-48.4505083, -1.4537968], [-48.45092, -1.4542326], [-48.4512869, -1.4546134], [-48.4515355, -1.4548777], [-48.4521436, -1.4554684], [-48.4522954, -1.4556194], [-48.452456, -1.4557933], [-48.4526239, -1.4559609], [-48.4527782, -1.4561298], [-48.4534438, -1.4568257], [-48.4535372, -1.456961], [-48.4536688, -1.4571535], [-48.4538458, -1.4573914], [-48.4539389, -1.4575314], [-48.4542405, -1.458216], [-48.4545407, -1.4587282], [-48.4547204, -1.4590375], [-48.4547469, -1.4590673], [-48.4550979, -1.4595912], [-48.4551924, -1.459748], [-48.4553661, -1.4600574], [-48.4555173, -1.4602966], [-48.4555905, -1.4604267], [-48.4556371, -1.4605425], [-48.4556535, -1.4606707], [-48.4556623, -1.4608278], [-48.4556471, -1.4612831], [-48.4555918, -1.4621562], [-48.4555891, -1.4623391]]}}, {"type": "Feature", "properties": {"highway": "residential"}, "geometry": {"type": "LineString", "coordinates": [[-48.4561694, -1.4604861], [-48.4562208, -1.4606044], [-48.4562542, -1.4606812], [-48.4563087, -1.4608345], [-48.4563501, -1.4609921], [-48.4563656, -1.4610957], [-48.4563723, -1.4611842], [-48.4563737, -1.4612861], [-48.4563603, -1.4613836], [-48.4563227, -1.4616038], [-48.456253, -1.4618129], [-48.4561296, -1.4620288], [-48.4560665, -1.462128], [-48.4559767, -1.4622339], [-48.4559016, -1.4622969], [-48.4558171, -1.4623398], [-48.4557273, -1.4623492], [-48.4555891, -1.4623391], [-48.4554289, -1.4623559], [-48.4553197, -1.4623893], [-48.4551787, -1.4624632], [-48.4551094, -1.4625118]]}}, {"type": "Feature", "properties": {"highway": "residential"}, "geometry": {"type": "LineString", "coordinates": [[-48.4546645, -1.4628283], [-48.4545195, -1.4628291]]}}, {"type": "Feature", "properties": {"highway": "residential"}, "geometry": {"type": "LineString", "coordinates": [[-48.4564058, -1.4643388], [-48.4560387, -1.4642839], [-48.455778, -1.4642328], [-48.455685, -1.4642044], [-48.4554644, -1.4641309], [-48.4550009, -1.4639643]]}}, {"type": "Feature", "properties": {"highway": "residential"}, "geometry": {"type": "LineString", "coordinates": [[-48.454475, -1.4574178], [-48.4544808, -1.4575027], [-48.4545433, -1.4576427], [-48.4545945, -1.4577317], [-48.4546718, -1.4578272], [-48.4547731, -1.4579847], [-48.4551395, -1.4583664], [-48.4555769, -1.4587858], [-48.4556558, -1.458849]]}}, {"type": "Feature", "properties": {"highway": "residential"}, "geometry": {"type": "LineString", "coordinates": [[-48.4546718, -1.4578272], [-48.4549294, -1.457674], [-48.4550289, -1.4576136], [-48.4551292, -1.4575508], [-48.4552237, -1.4575034], [-48.4553205, -1.4574528], [-48.4554651, -1.457392]]}}, {"type": "Feature", "properties": {"highway": "residential"}, "geometry": {"type": "LineString", "coordinates": [[-48.4605106, -1.4568943], [-48.4601848, -1.4568922], [-48.4594845, -1.4568524], [-48.4584234, -1.4568095], [-48.4584037, -1.4568094], [-48.4575748, -1.4567239], [-48.4573182, -1.4567211], [-48.4572316, -1.4567234], [-48.4568977, -1.4567314], [-48.4568128, -1.456728], [-48.4566664, -1.4567299], [-48.4565919, -1.4567321], [-48.4565195, -1.4567452], [-48.4562017, -1.4568326], [-48.4560739, -1.4568631], [-48.4557267, -1.4569747], [-48.4546509, -1.4572836], [-48.454475, -1.4574178], [-48.4544442, -1.4574306]]}}, {"type": "Feature", "properties": {"highway": "residential"}, "geometry": {"type": "LineString", "coordinates": [[-48.4556676, -1.4535077], [-48.4555646, -1.4535828], [-48.4553723, -1.4537211], [-48.4547591, -1.4541466], [-48.4541944, -1.4546041], [-48.4536728, -1.4550088]]}}, {"type": "Feature", "properties": {"highway": "residential"}, "geometry": {"type": "LineString", "coordinates": [[-48.4556676, -1.4535077], [-48.4555646, -1.4535828], [-48.4553723, -1.4537211], [-48.4547591, -1.4541466], [-48.4541944, -1.4546041], [-48.4536728, -1.4550088]]}}, {"type": "Feature", "properties": {"highway": "residential"}, "geometry": {"type": "LineString", "coordinates": [[-48.4543577, -1.4564691], [-48.4542799, -1.456242], [-48.4542575, -1.4560483], [-48.4542639, -1.4559121], [-48.4542923, -1.4557601], [-48.4543081, -1.4556691]]}}, {"type": "Feature", "properties": {"highway": "residential"}, "geometry": {"type": "LineString", "coordinates": [[-48.4541587, -1.456535], [-48.4536043, -1.4559421], [-48.4526931, -1.454944], [-48.4525344, -1.4547778], [-48.4523785, -1.4546316], [-48.4520844, -1.4543394], [-48.4510411, -1.4532817], [-48.4507943, -1.4529893], [-48.4506361, -1.4527907], [-48.4504227, -1.4526127], [-48.4501216, -1.4523543], [-48.4500118, -1.4522686]]}}, {"type": "Feature", "properties": {"highway": "residential"}, "geometry": {"type": "LineString", "coordinates": [[-48.4541587, -1.456535], [-48.4536043, -1.4559421], [-48.4526931, -1.454944], [-48.4525344, -1.4547778], [-48.4523785, -1.4546316], [-48.4520844, -1.4543394], [-48.4510411, -1.4532817], [-48.4507943, -1.4529893], [-48.4506361, -1.4527907], [-48.4504227, -1.4526127], [-48.4501216, -1.4523543], [-48.4500118, -1.4522686]]}}, {"type": "Feature", "properties": {"highway": "residential"}, "geometry": {"type": "LineString", "coordinates": [[-48.452738, -1.461257], [-48.4526284, -1.4611756], [-48.4525374, -1.4610996], [-48.4524883, -1.461058], [-48.4523431, -1.4609339], [-48.4522143, -1.4608287], [-48.4521056, -1.4607459], [-48.4519877, -1.4606619], [-48.4518846, -1.4605951]]}}, {"type": "Feature", "properties": {"highway": "residential"}, "geometry": {"type": "LineString", "coordinates": [[-48.4488124, -1.4598278], [-48.4488487, -1.4598636], [-48.4489553, -1.459808], [-48.4490549, -1.4597554], [-48.4491377, -1.4597356], [-48.4492286, -1.4597114], [-48.4493265, -1.4596732], [-48.4494147, -1.4596545], [-48.44953, -1.4596183], [-48.4496293, -1.4595821], [-48.4498023, -1.4595123], [-48.449923, -1.4594601], [-48.4499685, -1.4593823]]}}, {"type": "Feature", "properties": {"highway": "residential"}, "geometry": {"type": "LineString", "coordinates": [[-48.4507549, -1.4597103], [-48.450686, -1.4597316], [-48.4505775, -1.4597751], [-48.4504842, -1.4597657], [-48.4503476, -1.459806], [-48.4501097, -1.4598584], [-48.4500222, -1.4598877], [-48.4495126, -1.4600379], [-48.4493959, -1.4600848], [-48.4490372, -1.4602457]]}}, {"type": "Feature", "properties": {"highway": "residential"}, "geometry": {"type": "LineString", "coordinates": [[-48.450428, -1.460234], [-48.4502613, -1.4603076], [-48.4500898, -1.4603602], [-48.4499028, -1.4604106], [-48.4497674, -1.4604522], [-48.4497111, -1.460479], [-48.4496675, -1.4605085], [-48.4496427, -1.4605433], [-48.4496313, -1.4605862], [-48.4496155, -1.4607064], [-48.449618, -1.4608178], [-48.4496663, -1.4610709]]}}, {"type": "Feature", "properties": {"highway": "residential"}, "geometry": {"type": "LineString", "coordinates": [[-48.4509636, -1.4604629], [-48.4508074, -1.4605172], [-48.4505392, -1.4606741], [-48.4503394, -1.4608128], [-48.4501188, -1.4609187], [-48.4499283, -1.4609931], [-48.449742, -1.4610488], [-48.4496663, -1.4610709], [-48.4494551, -1.4611619]]}}, {"type": "Feature", "properties": {"highway": "residential"}, "geometry": {"type": "LineString", "coordinates": [[-48.4497225, -1.4616916], [-48.4494551, -1.4611619], [-48.4492398, -1.4607379], [-48.4492001, -1.460666], [-48.4491766, -1.4606177], [-48.4491485, -1.4605406], [-48.449119, -1.4604609], [-48.4490821, -1.4603556], [-48.4490372, -1.4602457], [-48.44895, -1.4600828], [-48.4489151, -1.4600024], [-48.4488715, -1.4599065], [-48.4488124, -1.4598278], [-48.448706, -1.4596721], [-48.4486624, -1.4596141], [-48.4485622, -1.4594595], [-48.4484917, -1.4593548], [-48.4484303, -1.4592435], [-48.4483324, -1.4591098], [-48.4482436, -1.4589623], [-48.4480756, -1.4586738], [-48.4477745, -1.4581322], [-48.4477611, -1.4580926], [-48.4477584, -1.4580665], [-48.4477644, -1.4580457], [-48.4477785, -1.4580296]]}}, {"type": "Feature", "properties": {"highway": "residential"}, "geometry": {"type": "LineString", "coordinates": [[-48.4541526, -1.4593499], [-48.4542893, -1.4596808], [-48.4543383, -1.4597769], [-48.45444, -1.4599039], [-48.4546257, -1.460147]]}}, {"type": "Feature", "properties": {"highway": "residential"}, "geometry": {"type": "LineString", "coordinates": [[-48.4546257, -1.460147], [-48.4546872, -1.4602663], [-48.4547456, -1.4603449], [-48.4548046, -1.4604136], [-48.4549083, -1.4605459], [-48.4550145, -1.4606978], [-48.4550658, -1.460785], [-48.455104, -1.4608638], [-48.4552786, -1.4613754]]}}, {"type": "Feature", "properties": {"highway": "residential"}, "geometry": {"type": "LineString", "coordinates": [[-48.4543691, -1.461608], [-48.4545719, -1.4615527], [-48.4548221, -1.4614992], [-48.4550567, -1.4614302], [-48.4552786, -1.4613754], [-48.4556471, -1.4612831]]}}, {"type": "Feature", "properties": {"highway": "residential"}, "geometry": {"type": "LineString", "coordinates": [[-48.4543888, -1.4603194], [-48.4545728, -1.4606778], [-48.4546589, -1.4608559], [-48.4547182, -1.4610358], [-48.4547716, -1.4612668], [-48.4548221, -1.4614992]]}}, {"type": "Feature", "properties": {"highway": "residential"}, "geometry": {"type": "LineString", "coordinates": [[-48.4528253, -1.4612078], [-48.4528501, -1.4612583], [-48.4528837, -1.4613205], [-48.4529182, -1.4613777], [-48.4529575, -1.4614441], [-48.4530471, -1.4615677], [-48.4531797, -1.4617212], [-48.453281, -1.4618022]]}}, {"type": "Feature", "properties": {"highway": "residential"}, "geometry": {"type": "LineString", "coordinates": [[-48.4546645, -1.463844], [-48.4545886, -1.4638337], [-48.4544906, -1.4638439], [-48.4543243, -1.4639016], [-48.4543011, -1.4639094], [-48.4540286, -1.4640014]]}}, {"type": "Feature", "properties": {"highway": "service"}, "geometry": {"type": "LineString", "coordinates": [[-48.4531435, -1.4627469], [-48.4531564, -1.4628881], [-48.4531738, -1.463159], [-48.4531997, -1.463325], [-48.4532075, -1.4634204], [-48.4532231, -1.4635747], [-48.4532294, -1.4637]]}}, {"type": "Feature", "properties": {"highway": "residential"}, "geometry": {"type": "LineString", "coordinates": [[-48.4526625, -1.4621379], [-48.4527427, -1.4624153], [-48.4528349, -1.4627838]]}}, {"type": "Feature", "properties": {"highway": "residential"}, "geometry": {"type": "LineString", "coordinates": [[-48.4541746, -1.4624495], [-48.4540954, -1.4625147], [-48.4540247, -1.4625466], [-48.4538982, -1.4625751], [-48.4537932, -1.4626029], [-48.4534921, -1.4626866], [-48.453283, -1.4627192], [-48.4531435, -1.4627469], [-48.4528349, -1.4627838], [-48.452644, -1.4628062], [-48.4524796, -1.462825]]}}, {"type": "Feature", "properties": {"highway": "residential"}, "geometry": {"type": "LineString", "coordinates": [[-48.4541746, -1.4624495], [-48.4540954, -1.4625147], [-48.4540247, -1.4625466], [-48.4538982, -1.4625751], [-48.4537932, -1.4626029], [-48.4534921, -1.4626866], [-48.453283, -1.4627192], [-48.4531435, -1.4627469], [-48.4528349, -1.4627838], [-48.452644, -1.4628062], [-48.4524796, -1.462825]]}}, {"type": "Feature", "properties": {"highway": "residential"}, "geometry": {"type": "LineString", "coordinates": [[-48.4544442, -1.4574306], [-48.4541263, -1.4574941]]}}, {"type": "Feature", "properties": {"highway": "residential"}, "geometry": {"type": "LineString", "coordinates": [[-48.4541263, -1.4574941], [-48.4540867, -1.4575026], [-48.4539967, -1.4575164], [-48.4539389, -1.4575314], [-48.4528684, -1.4579179], [-48.4519484, -1.4582462], [-48.4504759, -1.4587106], [-48.4498719, -1.4589435], [-48.4496633, -1.4590239], [-48.4495206, -1.4590468], [-48.449351, -1.4591886], [-48.4491832, -1.4592867], [-48.4489318, -1.4594379], [-48.448787, -1.4595449], [-48.4486918, -1.4596062], [-48.4486624, -1.4596141]]}}, {"type": "Feature", "properties": {"highway": "residential"}, "geometry": {"type": "LineString", "coordinates": [[-48.4541263, -1.4574941], [-48.4540867, -1.4575026], [-48.4539967, -1.4575164], [-48.4539389, -1.4575314], [-48.4528684, -1.4579179], [-48.4519484, -1.4582462], [-48.4504759, -1.4587106], [-48.4498719, -1.4589435], [-48.4496633, -1.4590239], [-48.4495206, -1.4590468], [-48.449351, -1.4591886], [-48.4491832, -1.4592867], [-48.4489318, -1.4594379], [-48.448787, -1.4595449], [-48.4486918, -1.4596062], [-48.4486624, -1.4596141]]}}, {"type": "Feature", "properties": {"highway": "tertiary"}, "geometry": {"type": "LineString", "coordinates": [[-48.4544167, -1.4564504], [-48.4546662, -1.4563602]]}}, {"type": "Feature", "properties": {"highway": "tertiary"}, "geometry": {"type": "LineString", "coordinates": [[-48.4546662, -1.4563602], [-48.4547041, -1.4563432], [-48.4554717, -1.4560546], [-48.4556233, -1.4559745], [-48.4558181, -1.4558982], [-48.4559709, -1.4558443]]}}, {"type": "Feature", "properties": {"highway": "residential"}, "geometry": {"type": "LineString", "coordinates": [[-48.4543081, -1.4556691], [-48.4539265, -1.4552496], [-48.4536728, -1.4550088], [-48.4531598, -1.4544481]]}}, {"type": "Feature", "properties": {"highway": "residential"}, "geometry": {"type": "LineString", "coordinates": [[-48.4543081, -1.4556691], [-48.4539265, -1.4552496], [-48.4536728, -1.4550088], [-48.4531598, -1.4544481]]}}, {"type": "Feature", "properties": {"highway": "residential"}, "geometry": {"type": "LineString", "coordinates": [[-48.4550445, -1.4544536], [-48.4547591, -1.4541466], [-48.4542605, -1.4536084], [-48.4536211, -1.4528711], [-48.4533305, -1.4525092], [-48.4530395, -1.452187], [-48.4528774, -1.4519764], [-48.4528275, -1.4518994], [-48.4527323, -1.4517399], [-48.4526172, -1.4515959], [-48.4525661, -1.4515319], [-48.4524506, -1.4514045], [-48.4522547, -1.4512093], [-48.4520932, -1.4510404], [-48.4519296, -1.4508681], [-48.4517758, -1.4506687], [-48.4517044, -1.4505787], [-48.4515722, -1.4504068], [-48.4514942, -1.4502446], [-48.4514679, -1.4501638], [-48.4514515, -1.4500447], [-48.4514365, -1.4498541]]}}, {"type": "Feature", "properties": {"highway": "residential"}, "geometry": {"type": "LineString", "coordinates": [[-48.4550445, -1.4544536], [-48.4547591, -1.4541466], [-48.4542605, -1.4536084], [-48.4536211, -1.4528711], [-48.4533305, -1.4525092], [-48.4530395, -1.452187], [-48.4528774, -1.4519764], [-48.4528275, -1.4518994], [-48.4527323, -1.4517399], [-48.4526172, -1.4515959], [-48.4525661, -1.4515319], [-48.4524506, -1.4514045], [-48.4522547, -1.4512093], [-48.4520932, -1.4510404], [-48.4519296, -1.4508681], [-48.4517758, -1.4506687], [-48.4517044, -1.4505787], [-48.4515722, -1.4504068], [-48.4514942, -1.4502446], [-48.4514679, -1.4501638], [-48.4514515, -1.4500447], [-48.4514365, -1.4498541]]}}, {"type": "Feature", "properties": {"highway": "residential"}, "geometry": {"type": "LineString", "coordinates": [[-48.4545589, -1.4570769], [-48.4567183, -1.456473], [-48.4570409, -1.456419]]}}, {"type": "Feature", "properties": {"highway": "residential"}, "geometry": {"type": "LineString", "coordinates": [[-48.4556233, -1.4559745], [-48.4555514, -1.4558827], [-48.4554616, -1.4557744], [-48.4553802, -1.4557011], [-48.455285, -1.4556795], [-48.4550372, -1.4556658]]}}, {"type": "Feature", "properties": {"highway": "tertiary"}, "geometry": {"type": "LineString", "coordinates": [[-48.455606, -1.4530115], [-48.4555712, -1.4530175], [-48.4552699, -1.4531173], [-48.4548783, -1.4532393], [-48.454757, -1.4532843], [-48.4542605, -1.4536084], [-48.4535936, -1.4540947], [-48.4532107, -1.454404], [-48.4531598, -1.4544481]]}}, {"type": "Feature", "properties": {"highway": "tertiary"}, "geometry": {"type": "LineString", "coordinates": [[-48.455606, -1.4530115], [-48.4555712, -1.4530175], [-48.4552699, -1.4531173], [-48.4548783, -1.4532393], [-48.454757, -1.4532843], [-48.4542605, -1.4536084], [-48.4535936, -1.4540947], [-48.4532107, -1.454404], [-48.4531598, -1.4544481]]}}, {"type": "Feature", "properties": {"highway": "residential"}, "geometry": {"type": "LineString", "coordinates": [[-48.4550259, -1.4517393], [-48.4549045, -1.4517694], [-48.4547398, -1.4518229], [-48.454653, -1.4518799], [-48.4545715, -1.4519441], [-48.4541666, -1.4523475], [-48.4536211, -1.4528711], [-48.4533736, -1.4531146], [-48.4530942, -1.4533889], [-48.4526413, -1.4538162], [-48.4520844, -1.4543394], [-48.4515355, -1.4548777], [-48.4507473, -1.4555926], [-48.4500064, -1.4562649], [-48.4498083, -1.4563882], [-48.4497582, -1.4563817], [-48.4493298, -1.4563388]]}}, {"type": "Feature", "properties": {"highway": "residential"}, "geometry": {"type": "LineString", "coordinates": [[-48.4550259, -1.4517393], [-48.4549045, -1.4517694], [-48.4547398, -1.4518229], [-48.454653, -1.4518799], [-48.4545715, -1.4519441], [-48.4541666, -1.4523475], [-48.4536211, -1.4528711], [-48.4533736, -1.4531146], [-48.4530942, -1.4533889], [-48.4526413, -1.4538162], [-48.4520844, -1.4543394], [-48.4515355, -1.4548777], [-48.4507473, -1.4555926], [-48.4500064, -1.4562649], [-48.4498083, -1.4563882], [-48.4497582, -1.4563817], [-48.4493298, -1.4563388]]}}, {"type": "Feature", "properties": {"highway": "residential"}, "geometry": {"type": "LineString", "coordinates": [[-48.4487253, -1.4535623], [-48.4484184, -1.4539138], [-48.4481338, -1.4542733], [-48.4480453, -1.4543549], [-48.4474142, -1.4545603], [-48.4470809, -1.4546936], [-48.4466794, -1.4548141], [-48.4463757, -1.4548615], [-48.4462717, -1.4548649]]}}, {"type": "Feature", "properties": {"highway": "residential"}, "geometry": {"type": "LineString", "coordinates": [[-48.4470845, -1.4535948], [-48.4470809, -1.4546936], [-48.4470636, -1.4548013], [-48.447061, -1.4555817], [-48.4471, -1.4561042], [-48.4471038, -1.4561613], [-48.4471408, -1.4566614], [-48.4471689, -1.4568631], [-48.4471388, -1.4572299]]}}, {"type": "Feature", "properties": {"highway": "residential"}, "geometry": {"type": "LineString", "coordinates": [[-48.4493298, -1.4563388], [-48.4493617, -1.4566166], [-48.4493391, -1.4566377], [-48.4492645, -1.4566795], [-48.4491934, -1.4567148], [-48.4491109, -1.4567479], [-48.4490633, -1.4567667], [-48.4490124, -1.4567872], [-48.4489465, -1.4568027], [-48.4487954, -1.4568125], [-48.4486216, -1.4567884], [-48.4482013, -1.4568897], [-48.44799, -1.4569247], [-48.4475705, -1.4569424], [-48.4471689, -1.4568631], [-48.4462576, -1.4567979]]}}, {"type": "Feature", "properties": {"highway": "residential"}, "geometry": {"type": "LineString", "coordinates": [[-48.4484891, -1.457405], [-48.4479824, -1.4574035], [-48.4476176, -1.457363], [-48.4472743, -1.4573311], [-48.4471985, -1.4573089], [-48.447163, -1.4572902], [-48.4471462, -1.4572554], [-48.4471388, -1.4572299]]}}, {"type": "Feature", "properties": {"highway": "residential"}, "geometry": {"type": "LineString", "coordinates": [[-48.4510596, -1.4559174], [-48.4508116, -1.4561689], [-48.4504704, -1.4565011], [-48.4503408, -1.4566274], [-48.4500074, -1.4568618], [-48.4494817, -1.4571514], [-48.4485094, -1.4576689], [-48.4480374, -1.4578915], [-48.4479688, -1.4579286], [-48.4477785, -1.4580296]]}}, {"type": "Feature", "properties": {"highway": "service"}, "geometry": {"type": "LineString", "coordinates": [[-48.4456958, -1.456287], [-48.4456512, -1.4562435], [-48.4455903, -1.4561836], [-48.4455386, -1.4561301], [-48.445484, -1.4560711], [-48.4451952, -1.4556728], [-48.4447449, -1.4549589], [-48.4444449, -1.4545377]]}}, {"type": "Feature", "properties": {"highway": "service"}, "geometry": {"type": "LineString", "coordinates": [[-48.4461146, -1.4552947], [-48.4460396, -1.4551365], [-48.4460066, -1.4550228], [-48.4459921, -1.4549642], [-48.4459841, -1.4549176], [-48.4459859, -1.4548888], [-48.4459956, -1.4548536], [-48.4460427, -1.4547671], [-48.4462266, -1.4546181]]}}, {"type": "Feature", "properties": {"highway": "service"}, "geometry": {"type": "LineString", "coordinates": [[-48.4438268, -1.4536196], [-48.4440481, -1.453758], [-48.4443188, -1.453956], [-48.444445, -1.4540524], [-48.44457, -1.4541449]]}}, {"type": "Feature", "properties": {"highway": "service"}, "geometry": {"type": "LineString", "coordinates": [[-48.4448426, -1.4543393], [-48.4444449, -1.4545377]]}}, {"type": "Feature", "properties": {"highway": "service"}, "geometry": {"type": "LineString", "coordinates": [[-48.4454745, -1.4546909], [-48.4456427, -1.4546085], [-48.4456961, -1.4545813], [-48.445748, -1.4545619], [-48.4457977, -1.4545667], [-48.4458369, -1.4545876], [-48.4458698, -1.4546154], [-48.4458887, -1.4546581], [-48.4458852, -1.4547109], [-48.4458631, -1.4547601], [-48.4458369, -1.4547874], [-48.4458067, -1.4548139]]}}, {"type": "Feature", "properties": {"highway": "service"}, "geometry": {"type": "LineString", "coordinates": [[-48.4458067, -1.4548139], [-48.4458333, -1.4548765], [-48.4458405, -1.45491], [-48.4457998, -1.455083], [-48.4456931, -1.4552794], [-48.4456003, -1.4553759], [-48.4455596, -1.4554182], [-48.4454389, -1.4555096], [-48.4453156, -1.4555876], [-48.4452882, -1.4556075], [-48.4451952, -1.4556728]]}}, {"type": "Feature", "properties": {"highway": "tertiary"}, "geometry": {"type": "LineString", "coordinates": [[-48.455005, -1.4624254], [-48.4548348, -1.462244], [-48.4546635, -1.4620547], [-48.4545683, -1.4619655], [-48.4545104, -1.4618881], [-48.4544478, -1.4617968], [-48.4543997, -1.4616723], [-48.4543691, -1.461608], [-48.4541522, -1.4611362], [-48.4538695, -1.4604816], [-48.4535084, -1.4596941], [-48.453485, -1.4596365], [-48.4533296, -1.4592564], [-48.4532225, -1.4590015], [-48.453207, -1.4589637], [-48.4530971, -1.4586558], [-48.4528684, -1.4579179], [-48.4527453, -1.4575067], [-48.4526789, -1.4572627], [-48.4526528, -1.4571782], [-48.4526198, -1.4571084]]}}, {"type": "Feature", "properties": {"highway": "tertiary"}, "geometry": {"type": "LineString", "coordinates": [[-48.455005, -1.4624254], [-48.4548348, -1.462244], [-48.4546635, -1.4620547], [-48.4545683, -1.4619655], [-48.4545104, -1.4618881], [-48.4544478, -1.4617968], [-48.4543997, -1.4616723], [-48.4543691, -1.461608], [-48.4541522, -1.4611362], [-48.4538695, -1.4604816], [-48.4535084, -1.4596941], [-48.453485, -1.4596365], [-48.4533296, -1.4592564], [-48.4532225, -1.4590015], [-48.453207, -1.4589637], [-48.4530971, -1.4586558], [-48.4528684, -1.4579179], [-48.4527453, -1.4575067], [-48.4526789, -1.4572627], [-48.4526528, -1.4571782], [-48.4526198, -1.4571084]]}}, {"type": "Feature", "properties": {"highway": "service"}, "geometry": {"type": "LineString", "coordinates": [[-48.4533896, -1.4633449], [-48.4534305, -1.4633258], [-48.453591, -1.4632664], [-48.4537068, -1.4632186], [-48.4539881, -1.4630912], [-48.4541552, -1.4629993], [-48.4542618, -1.4629576], [-48.4543777, -1.4629033], [-48.4545195, -1.4628291]]}}, {"type": "Feature", "properties": {"highway": "service"}, "geometry": {"type": "LineString", "coordinates": [[-48.4533896, -1.4633449], [-48.4534305, -1.4633258], [-48.453591, -1.4632664], [-48.4537068, -1.4632186], [-48.4539881, -1.4630912], [-48.4541552, -1.4629993], [-48.4542618, -1.4629576], [-48.4543777, -1.4629033], [-48.4545195, -1.4628291]]}}, {"type": "Feature", "properties": {"highway": "service"}, "geometry": {"type": "LineString", "coordinates": [[-48.4444824, -1.4635736], [-48.4435657, -1.4638843], [-48.4429562, -1.4641033], [-48.4428898, -1.464131], [-48.4428509, -1.4641483], [-48.4427721, -1.4641858]]}}, {"type": "Feature", "properties": {"highway": "service"}, "geometry": {"type": "LineString", "coordinates": [[-48.4458796, -1.4642532], [-48.4458749, -1.464732], [-48.4458451, -1.4654423], [-48.4457857, -1.4658464], [-48.4457689, -1.4660909], [-48.4457659, -1.4663377], [-48.4458366, -1.4668542]]}}, {"type": "Feature", "properties": {"highway": "service"}, "geometry": {"type": "LineString", "coordinates": [[-48.4426194, -1.4608621], [-48.4430989, -1.4612617], [-48.4433281, -1.4614537], [-48.4437255, -1.4618767], [-48.4439722, -1.4621866], [-48.4441145, -1.462391], [-48.4442299, -1.4625572], [-48.4443336, -1.4627455], [-48.4445826, -1.4633677]]}}, {"type": "Feature", "properties": {"highway": "service"}, "geometry": {"type": "LineString", "coordinates": [[-48.4452917, -1.4631616], [-48.4453581, -1.4632918], [-48.4457324, -1.4639799], [-48.4458796, -1.4642532], [-48.4464321, -1.4651094], [-48.4466114, -1.4654419], [-48.4468037, -1.4657926], [-48.447299, -1.4666663], [-48.4473679, -1.466834], [-48.4473536, -1.4669302], [-48.4472271, -1.4670831], [-48.446971, -1.4673033]]}}, {"type": "Feature", "properties": {"highway": "service"}, "geometry": {"type": "LineString", "coordinates": [[-48.4452112, -1.4630178], [-48.4446901, -1.4620537], [-48.4446225, -1.4619534], [-48.4445264, -1.4618508], [-48.4441701, -1.4615643], [-48.4441137, -1.4615496], [-48.4440559, -1.4615823], [-48.4437255, -1.4618767], [-48.4436444, -1.4619447]]}}, {"type": "Feature", "properties": {"highway": "service"}, "geometry": {"type": "LineString", "coordinates": [[-48.4445826, -1.4633677], [-48.4446406, -1.4633914], [-48.4446738, -1.4634301], [-48.4446881, -1.4634791], [-48.4446809, -1.4635296], [-48.4446536, -1.4635726]]}}, {"type": "Feature", "properties": {"highway": "service"}, "geometry": {"type": "LineString", "coordinates": [[-48.4452112, -1.4630178], [-48.4452917, -1.4631616]]}}, {"type": "Feature", "properties": {"highway": "service"}, "geometry": {"type": "LineString", "coordinates": [[-48.4447882, -1.4643137], [-48.4447942, -1.4643798], [-48.4448163, -1.4646768], [-48.4448149, -1.4647556], [-48.4448112, -1.4649706], [-48.4447714, -1.4654344], [-48.4447287, -1.4656706], [-48.4447098, -1.4660623], [-48.4447056, -1.4662706], [-48.4447084, -1.4664505], [-48.4447476, -1.4668122], [-48.4448166, -1.4671513], [-48.4448979, -1.4674607], [-48.4449752, -1.4675493], [-48.4450858, -1.4675418], [-48.4451418, -1.4675112], [-48.4451912, -1.467471]]}}, {"type": "Feature", "properties": {"highway": "service"}, "geometry": {"type": "LineString", "coordinates": [[-48.4446263, -1.4665055], [-48.4446166, -1.4663152], [-48.4446012, -1.4660821], [-48.4446146, -1.4657959], [-48.4446556, -1.4655552], [-48.4446659, -1.4654311], [-48.4447166, -1.4649642], [-48.4447213, -1.4647667], [-48.4447004, -1.4643866], [-48.4446725, -1.4642128]]}}, {"type": "Feature", "properties": {"highway": "service"}, "geometry": {"type": "LineString", "coordinates": [[-48.4452917, -1.4631616], [-48.4451471, -1.4632191], [-48.4449809, -1.4632982], [-48.4448571, -1.4633745], [-48.4446881, -1.4634791]]}}, {"type": "Feature", "properties": {"highway": "service"}, "geometry": {"type": "LineString", "coordinates": [[-48.4446406, -1.4633914], [-48.4449199, -1.463232], [-48.4450689, -1.4631268], [-48.4452112, -1.4630178]]}}, {"type": "Feature", "properties": {"highway": "service"}, "geometry": {"type": "LineString", "coordinates": [[-48.4444881, -1.4633965], [-48.4442364, -1.4627852], [-48.4441465, -1.4626184], [-48.4440436, -1.4624558], [-48.443898, -1.462257], [-48.443762, -1.4620777], [-48.4436444, -1.4619447], [-48.4434134, -1.4616844], [-48.4432628, -1.461543], [-48.4430482, -1.4613706], [-48.4425438, -1.4609464]]}}, {"type": "Feature", "properties": {"highway": "tertiary"}, "geometry": {"type": "LineString", "coordinates": [[-48.4552069, -1.4626383], [-48.4551094, -1.4625118], [-48.455005, -1.4624254]]}}, {"type": "Feature", "properties": {"highway": "residential"}, "geometry": {"type": "LineString", "coordinates": [[-48.4509647, -1.4630533], [-48.4508429, -1.463041], [-48.4507732, -1.4630611], [-48.4507269, -1.4630906], [-48.4506652, -1.4631321], [-48.4505257, -1.4632337], [-48.4504259, -1.4632863], [-48.4503039, -1.4633447], [-48.4501812, -1.4634104], [-48.4500571, -1.4634726], [-48.4497082, -1.463629], [-48.4494757, -1.4637753], [-48.4493979, -1.463828], [-48.449311, -1.4638913], [-48.4492356, -1.4639456], [-48.4492027, -1.4639768], [-48.4491756, -1.4640157], [-48.4491558, -1.4640599], [-48.4491283, -1.4641671]]}}, {"type": "Feature", "properties": {"highway": "residential"}, "geometry": {"type": "LineString", "coordinates": [[-48.4500571, -1.4634726], [-48.4500893, -1.463651], [-48.4501081, -1.4637401], [-48.4501222, -1.4637944], [-48.4501885, -1.4639929], [-48.4502489, -1.4641269], [-48.450276, -1.4641891], [-48.4503143, -1.4642793], [-48.4503528, -1.4643498], [-48.4504149, -1.4645357], [-48.4504685, -1.4648468], [-48.4504882, -1.4649544], [-48.4505697, -1.4652606]]}}, {"type": "Feature", "properties": {"highway": "living_street"}, "geometry": {"type": "LineString", "coordinates": [[-48.4509647, -1.4630533], [-48.451134, -1.4626535]]}}, {"type": "Feature", "properties": {"highway": "residential"}, "geometry": {"type": "LineString", "coordinates": [[-48.4526867, -1.4613258], [-48.4526372, -1.4613744], [-48.4525607, -1.4614527], [-48.4524677, -1.4615501], [-48.4522834, -1.4617632], [-48.4521692, -1.4618587], [-48.4520433, -1.4620395], [-48.4519293, -1.4623291], [-48.4516872, -1.4628714]]}}, {"type": "Feature", "properties": {"highway": "residential"}, "geometry": {"type": "LineString", "coordinates": [[-48.4545195, -1.4628291], [-48.4541746, -1.4624495], [-48.4539689, -1.4622818], [-48.4538282, -1.4621378], [-48.4537868, -1.4620992], [-48.4537506, -1.4620839], [-48.453729, -1.4620824], [-48.4535922, -1.4621038]]}}, {"type": "Feature", "properties": {"highway": "residential"}, "geometry": {"type": "LineString", "coordinates": [[-48.4545195, -1.4628291], [-48.4541746, -1.4624495], [-48.4539689, -1.4622818], [-48.4538282, -1.4621378], [-48.4537868, -1.4620992], [-48.4537506, -1.4620839], [-48.453729, -1.4620824], [-48.4535922, -1.4621038]]}}, {"type": "Feature", "properties": {"highway": "residential"}, "geometry": {"type": "LineString", "coordinates": [[-48.4511742, -1.464137], [-48.4511521, -1.4641316], [-48.4511239, -1.464133], [-48.4503528, -1.4643498], [-48.4499497, -1.4644648], [-48.4496008, -1.4645818], [-48.4495622, -1.4645948], [-48.4493516, -1.4646605], [-48.4488165, -1.4648659], [-48.4484879, -1.4649978], [-48.4480485, -1.4651742], [-48.4477068, -1.4653114], [-48.4475452, -1.4653764]]}}, {"type": "Feature", "properties": {"highway": "residential"}, "geometry": {"type": "LineString", "coordinates": [[-48.4561694, -1.4604861], [-48.4560477, -1.4602544], [-48.4559213, -1.4600082], [-48.4557895, -1.4597351], [-48.455657, -1.4595025], [-48.4555753, -1.4593898], [-48.4554587, -1.4592488], [-48.4553745, -1.459149], [-48.4551412, -1.4588956], [-48.4547, -1.4584854], [-48.4545082, -1.4582521], [-48.4543768, -1.4580711], [-48.4542319, -1.4578285], [-48.4540965, -1.4575389], [-48.4540867, -1.4575026]]}}, {"type": "Feature", "properties": {"highway": "residential"}, "geometry": {"type": "LineString", "coordinates": [[-48.4515137, -1.4593085], [-48.4515618, -1.4595713], [-48.4515739, -1.4598462], [-48.4515968, -1.4603898]]}}, {"type": "Feature", "properties": {"highway": "residential"}, "geometry": {"type": "LineString", "coordinates": [[-48.4507162, -1.4595621], [-48.4515137, -1.4593085], [-48.4516796, -1.4592603], [-48.4517001, -1.4592523]]}}, {"type": "Feature", "properties": {"highway": "residential"}, "geometry": {"type": "LineString", "coordinates": [[-48.4487025, -1.4551263], [-48.4485597, -1.4551585], [-48.4484209, -1.45519], [-48.447061, -1.4555817], [-48.4466674, -1.4556928], [-48.4464837, -1.455735], [-48.4463871, -1.4557591], [-48.4462825, -1.4557638], [-48.4461357, -1.4557464], [-48.4460753, -1.4557343], [-48.4460365, -1.4557156]]}}, {"type": "Feature", "properties": {"highway": "residential"}, "geometry": {"type": "LineString", "coordinates": [[-48.4492398, -1.4607379], [-48.4494201, -1.4607131], [-48.4496155, -1.4607064]]}}, {"type": "Feature", "properties": {"highway": "secondary"}, "geometry": {"type": "LineString", "coordinates": [[-48.4470455, -1.4646685], [-48.4468451, -1.4642828], [-48.4466146, -1.4638409], [-48.4465656, -1.4637461], [-48.4464429, -1.4635118], [-48.4460145, -1.4627103], [-48.4459331, -1.462568], [-48.4459182, -1.462542], [-48.4456849, -1.4621253], [-48.4454698, -1.4617209], [-48.4452323, -1.4612879], [-48.4447115, -1.4603036], [-48.4445968, -1.4600001], [-48.4445487, -1.4598318], [-48.44451, -1.4596172], [-48.4444866, -1.4594386], [-48.444468, -1.4591008], [-48.444478, -1.458889], [-48.4445016, -1.4586482], [-48.4445414, -1.458429], [-48.4445404, -1.4583355]]}}, {"type": "Feature", "properties": {"highway": "residential"}, "geometry": {"type": "LineString", "coordinates": [[-48.4466051, -1.4518673], [-48.446703, -1.4520435], [-48.4467539, -1.4521427], [-48.4468148, -1.4522563], [-48.4471518, -1.4529939], [-48.4473355, -1.453275], [-48.447397, -1.4533601], [-48.4474939, -1.4534922], [-48.4480453, -1.4543549], [-48.4486281, -1.4550586], [-48.4486764, -1.4551082], [-48.4487025, -1.4551263], [-48.4487253, -1.4551394], [-48.4488018, -1.4551806], [-48.4489124, -1.4552403], [-48.4491059, -1.4553565], [-48.4491401, -1.4553871], [-48.449563, -1.455787], [-48.4500064, -1.4562649], [-48.4503408, -1.4566274], [-48.4506616, -1.4569734]]}}, {"type": "Feature", "properties": {"highway": "service"}, "geometry": {"type": "LineString", "coordinates": [[-48.4533409, -1.4611331], [-48.4532684, -1.4609475], [-48.4532156, -1.4608177], [-48.4531309, -1.4604816], [-48.453085, -1.4603177], [-48.4529581, -1.4599223], [-48.4529185, -1.4597947], [-48.4529091, -1.4596907], [-48.4529044, -1.4596334], [-48.4528356, -1.4594326], [-48.4527933, -1.4593064], [-48.4527536, -1.4592292]]}}, {"type": "Feature", "properties": {"highway": "residential"}, "geometry": {"type": "LineString", "coordinates": [[-48.4502613, -1.4603076], [-48.450212, -1.4602077], [-48.4501617, -1.4600625], [-48.4501097, -1.4598584]]}}, {"type": "Feature", "properties": {"highway": "residential"}, "geometry": {"type": "LineString", "coordinates": [[-48.449742, -1.4610488], [-48.4497782, -1.4612429], [-48.4497835, -1.4613851]]}}, {"type": "Feature", "properties": {"highway": "service"}, "geometry": {"type": "LineString", "coordinates": [[-48.4535922, -1.4621038], [-48.4536831, -1.4623027], [-48.4537271, -1.46244], [-48.4537511, -1.4625021], [-48.4537932, -1.4626029], [-48.453844, -1.462723], [-48.4539328, -1.4629203], [-48.4539881, -1.4630912]]}}, {"type": "Feature", "properties": {"highway": "service"}, "geometry": {"type": "LineString", "coordinates": [[-48.4535922, -1.4621038], [-48.4536831, -1.4623027], [-48.4537271, -1.46244], [-48.4537511, -1.4625021], [-48.4537932, -1.4626029], [-48.453844, -1.462723], [-48.4539328, -1.4629203], [-48.4539881, -1.4630912]]}}, {"type": "Feature", "properties": {"highway": "residential"}, "geometry": {"type": "LineString", "coordinates": [[-48.4535678, -1.4646149], [-48.4535215, -1.4644377], [-48.4534927, -1.4643058], [-48.4534829, -1.4641805], [-48.4534744, -1.4640763]]}}, {"type": "Feature", "properties": {"highway": "residential"}, "geometry": {"type": "LineString", "coordinates": [[-48.4531856, -1.4640374], [-48.4531818, -1.464387], [-48.4531858, -1.4645291], [-48.4532066, -1.4646799], [-48.4532341, -1.4648656], [-48.4532731, -1.4650614]]}}, {"type": "Feature", "properties": {"highway": "residential"}, "geometry": {"type": "LineString", "coordinates": [[-48.4469074, -1.4642377], [-48.4470578, -1.4641559], [-48.4472076, -1.4640745], [-48.4473477, -1.4639983], [-48.4477764, -1.4637623], [-48.4486176, -1.4633169], [-48.4493031, -1.4629271], [-48.4495664, -1.4627964]]}}, {"type": "Feature", "properties": {"highway": "residential"}, "geometry": {"type": "LineString", "coordinates": [[-48.450668, -1.4621638], [-48.4504269, -1.4622992], [-48.4503384, -1.4623539], [-48.4503119, -1.4623717], [-48.4502968, -1.4623794], [-48.450279, -1.4623847], [-48.4502405, -1.4623907], [-48.4501774, -1.4623931], [-48.4501143, -1.4623971], [-48.4500286, -1.4623951], [-48.4499421, -1.4623859], [-48.4498904, -1.4623727], [-48.4498373, -1.4623466], [-48.4497731, -1.4623033], [-48.4497499, -1.4622875], [-48.4497221, -1.4622671], [-48.4496822, -1.4622348]]}}, {"type": "Feature", "properties": {"highway": "residential"}, "geometry": {"type": "LineString", "coordinates": [[-48.4463871, -1.4557591], [-48.446349, -1.4566929]]}}, {"type": "Feature", "properties": {"highway": "residential"}, "geometry": {"type": "LineString", "coordinates": [[-48.4489983, -1.4586584], [-48.4484762, -1.458295], [-48.4482231, -1.4581103], [-48.4479688, -1.4579286]]}}, {"type": "Feature", "properties": {"highway": "residential"}, "geometry": {"type": "LineString", "coordinates": [[-48.4516138, -1.4619918], [-48.4516072, -1.461955], [-48.4515457, -1.4616662]]}}, {"type": "Feature", "properties": {"highway": "residential"}, "geometry": {"type": "LineString", "coordinates": [[-48.4527353, -1.4621109], [-48.4526776, -1.4619322], [-48.4526406, -1.461836], [-48.4525864, -1.4617245], [-48.4524677, -1.4615501]]}}, {"type": "Feature", "properties": {"highway": "service"}, "geometry": {"type": "LineString", "coordinates": [[-48.4498016, -1.4555427], [-48.449563, -1.455787]]}}, {"type": "Feature", "properties": {"highway": "service"}, "geometry": {"type": "LineString", "coordinates": [[-48.4427721, -1.4641858], [-48.4427454, -1.4641076], [-48.4427662, -1.4640715], [-48.4428129, -1.4640355], [-48.4428805, -1.4640056], [-48.4435353, -1.4638018], [-48.4444465, -1.4634909]]}}, {"type": "Feature", "properties": {"highway": "service"}, "geometry": {"type": "LineString", "coordinates": [[-48.4426194, -1.4608621], [-48.4427929, -1.4606519], [-48.4429059, -1.4605129], [-48.4431967, -1.4601459], [-48.4435893, -1.4596012], [-48.4439353, -1.4590976], [-48.4441711, -1.4586916], [-48.4443116, -1.4584782]]}}, {"type": "Feature", "properties": {"highway": "service"}, "geometry": {"type": "LineString", "coordinates": [[-48.445928, -1.4548339], [-48.4459901, -1.4548519]]}}, {"type": "Feature", "properties": {"highway": "secondary"}, "geometry": {"type": "LineString", "coordinates": [[-48.444947, -1.4574655], [-48.4452975, -1.4569651], [-48.4455641, -1.4565468], [-48.4456466, -1.456395], [-48.4456958, -1.456287], [-48.4458608, -1.4559119], [-48.4459651, -1.4556663], [-48.4460069, -1.4555788], [-48.4460498, -1.4554729], [-48.4461146, -1.4552947], [-48.4461283, -1.4552189], [-48.4461763, -1.45496], [-48.4461943, -1.4548471], [-48.4462266, -1.4546181], [-48.446264, -1.454375], [-48.4463429, -1.4537825], [-48.4464323, -1.4529963], [-48.4464482, -1.452799], [-48.4464591, -1.4526658], [-48.446497, -1.4522014], [-48.4465258, -1.4516749], [-48.44652, -1.4514127]]}}, {"type": "Feature", "properties": {"highway": "secondary"}, "geometry": {"type": "LineString", "coordinates": [[-48.444736, -1.4581811], [-48.4446788, -1.4583473], [-48.4446009, -1.4586454], [-48.4445731, -1.4588427], [-48.4445591, -1.4591001], [-48.4445555, -1.4591669], [-48.4445677, -1.459384], [-48.4445961, -1.4595968], [-48.4446371, -1.4598161], [-48.4447129, -1.4600432], [-48.4447865, -1.4602135], [-48.445053, -1.4607024], [-48.4454054, -1.461313], [-48.4455677, -1.4616715], [-48.445791, -1.4620877], [-48.4460935, -1.4626495], [-48.4463127, -1.4630825], [-48.4465123, -1.4634578], [-48.4466404, -1.463703], [-48.4467084, -1.4638375], [-48.4469074, -1.4642377], [-48.4471017, -1.4646191], [-48.4473588, -1.465048], [-48.4475452, -1.4653764], [-48.4477289, -1.4657317], [-48.4479234, -1.4661259], [-48.4480726, -1.4664386], [-48.4481164, -1.4665853]]}}, {"type": "Feature", "properties": {"highway": "service"}, "geometry": {"type": "LineString", "coordinates": [[-48.44457, -1.4541449], [-48.4448257, -1.4538072], [-48.4446645, -1.4537618], [-48.444507, -1.4537218], [-48.4443188, -1.453956]]}}, {"type": "Feature", "properties": {"highway": "service"}, "geometry": {"type": "LineString", "coordinates": [[-48.4446645, -1.4537618], [-48.444445, -1.4540524]]}}, {"type": "Feature", "properties": {"highway": "service"}, "geometry": {"type": "LineString", "coordinates": [[-48.4448426, -1.4543393], [-48.4451297, -1.4544911], [-48.4454467, -1.4546604], [-48.4454745, -1.4546909], [-48.4455243, -1.4547151], [-48.4455621, -1.4547334], [-48.4456042, -1.4547538], [-48.4456728, -1.4547864], [-48.4456973, -1.4547938], [-48.445744, -1.4548065], [-48.4458067, -1.4548139]]}}, {"type": "Feature", "properties": {"highway": "service"}, "geometry": {"type": "LineString", "coordinates": [[-48.4444449, -1.4545377], [-48.4442873, -1.4542992], [-48.4441359, -1.45407], [-48.4439039, -1.4537482], [-48.4438268, -1.4536196], [-48.4435746, -1.4532525], [-48.4433953, -1.4529489], [-48.4433527, -1.4528844], [-48.4428745, -1.4521606], [-48.4426296, -1.4517898]]}}, {"type": "Feature", "properties": {"highway": "residential"}, "geometry": {"type": "LineString", "coordinates": [[-48.4559578, -1.455127], [-48.454881, -1.4551914]]}}, {"type": "Feature", "properties": {"highway": "residential"}, "geometry": {"type": "LineString", "coordinates": [[-48.4549586, -1.4550338], [-48.4551278, -1.4550372], [-48.4554644, -1.4550291], [-48.4558388, -1.4549902], [-48.4559746, -1.4549827]]}}, {"type": "Feature", "properties": {"highway": "service"}, "geometry": {"type": "LineString", "coordinates": [[-48.4446536, -1.4635726], [-48.4446913, -1.4637455], [-48.4447234, -1.4639164], [-48.4447512, -1.4640588], [-48.4447731, -1.4641637], [-48.4447882, -1.4643137]]}}, {"type": "Feature", "properties": {"highway": "service"}, "geometry": {"type": "LineString", "coordinates": [[-48.4446536, -1.4635726], [-48.4446133, -1.4635996], [-48.4445657, -1.4636086]]}}, {"type": "Feature", "properties": {"highway": "service"}, "geometry": {"type": "LineString", "coordinates": [[-48.4444881, -1.4633965], [-48.4445164, -1.463378], [-48.4445488, -1.4633682], [-48.4445826, -1.4633677]]}}, {"type": "Feature", "properties": {"highway": "service"}, "geometry": {"type": "LineString", "coordinates": [[-48.4445657, -1.4636086], [-48.4445206, -1.4635992], [-48.4444824, -1.4635736], [-48.4444564, -1.4635357], [-48.4444465, -1.4634909], [-48.4444508, -1.4634557], [-48.444465, -1.4634233], [-48.4444881, -1.4633965]]}}, {"type": "Feature", "properties": {"highway": "service"}, "geometry": {"type": "LineString", "coordinates": [[-48.4446725, -1.4642128], [-48.4446541, -1.4641071], [-48.4445833, -1.4637645], [-48.4445657, -1.4636086]]}}, {"type": "Feature", "properties": {"highway": "secondary_link"}, "geometry": {"type": "LineString", "coordinates": [[-48.445791, -1.4620877], [-48.4458212, -1.4621756], [-48.4458413, -1.4622226], [-48.446046, -1.4626408], [-48.446052, -1.4626525], [-48.4460561, -1.4626628], [-48.446057, -1.4626676], [-48.4460569, -1.4626726], [-48.4460558, -1.4626774], [-48.446053, -1.4626824], [-48.4460465, -1.4626887], [-48.4460391, -1.4626944], [-48.4460145, -1.4627103]]}}, {"type": "Feature", "properties": {"highway": "residential"}, "geometry": {"type": "LineString", "coordinates": [[-48.4520084, -1.4523243], [-48.451561, -1.4527846], [-48.4510411, -1.4532817], [-48.4505083, -1.4537968], [-48.4497156, -1.4545638], [-48.4494495, -1.4548642], [-48.4492303, -1.4551661], [-48.4491462, -1.4552789], [-48.4491109, -1.4553435], [-48.4491059, -1.4553565], [-48.4489895, -1.4556566], [-48.4487668, -1.4562783], [-48.4486216, -1.4567884], [-48.4485631, -1.4569905], [-48.4485342, -1.4570991], [-48.4484937, -1.4573656], [-48.4484891, -1.457405], [-48.448488, -1.4574149], [-48.4485094, -1.4576689]]}}, {"type": "Feature", "properties": {"highway": "residential"}, "geometry": {"type": "LineString", "coordinates": [[-48.4493298, -1.4563388], [-48.4487668, -1.4562783], [-48.4471, -1.4561042]]}}, {"type": "Feature", "properties": {"highway": "residential"}, "geometry": {"type": "LineString", "coordinates": [[-48.4489713, -1.4586932], [-48.4491686, -1.4588289], [-48.4493543, -1.4589824], [-48.4494264, -1.4590321], [-48.4495206, -1.4590468], [-48.4499685, -1.4593823], [-48.4500369, -1.4594296], [-48.450098, -1.4594792], [-48.4502296, -1.4595682], [-48.4504735, -1.4597111], [-48.4505238, -1.4597423], [-48.4505775, -1.4597751]]}}, {"type": "Feature", "properties": {"highway": "tertiary"}, "geometry": {"type": "LineString", "coordinates": [[-48.4548634, -1.4651838], [-48.454838, -1.4648751], [-48.4548358, -1.4647939], [-48.4548592, -1.4644777], [-48.4550009, -1.4639643], [-48.4551297, -1.4635537], [-48.4551442, -1.4635222], [-48.4552307, -1.4633701], [-48.4553912, -1.4632214], [-48.4555878, -1.4630359]]}}, {"type": "Feature", "properties": {"highway": "residential"}, "geometry": {"type": "LineString", "coordinates": [[-48.4539835, -1.4638815], [-48.453891, -1.4639221], [-48.4537639, -1.4639771], [-48.4536433, -1.4640196], [-48.4535676, -1.4640459], [-48.4534744, -1.4640763], [-48.4534496, -1.4640409], [-48.4534288, -1.4640271], [-48.4533882, -1.4640209], [-48.4533149, -1.4640256], [-48.4531856, -1.4640374], [-48.4529925, -1.4640371]]}}, {"type": "Feature", "properties": {"highway": "residential"}, "geometry": {"type": "LineString", "coordinates": [[-48.4539835, -1.4638815], [-48.453891, -1.4639221], [-48.4537639, -1.4639771], [-48.4536433, -1.4640196], [-48.4535676, -1.4640459], [-48.4534744, -1.4640763], [-48.4534496, -1.4640409], [-48.4534288, -1.4640271], [-48.4533882, -1.4640209], [-48.4533149, -1.4640256], [-48.4531856, -1.4640374], [-48.4529925, -1.4640371]]}}, {"type": "Feature", "properties": {"highway": "residential"}, "geometry": {"type": "LineString", "coordinates": [[-48.4517674, -1.4607478], [-48.4516349, -1.4608738], [-48.451606, -1.4608872], [-48.4515846, -1.4609006], [-48.4515638, -1.4608999], [-48.4514726, -1.4609556], [-48.4513734, -1.4610062], [-48.451245, -1.4610477], [-48.4511494, -1.4610595], [-48.4511011, -1.4610611], [-48.451037, -1.4610557]]}}, {"type": "Feature", "properties": {"highway": "residential"}, "geometry": {"type": "LineString", "coordinates": [[-48.4530477, -1.4636939], [-48.452931, -1.4636899], [-48.4527372, -1.4636617], [-48.4523584, -1.4635665], [-48.4521036, -1.4634834], [-48.451775, -1.4633735], [-48.4512842, -1.4631858], [-48.4510897, -1.4631067], [-48.4509647, -1.4630533]]}}, {"type": "Feature", "properties": {"highway": "residential"}, "geometry": {"type": "LineString", "coordinates": [[-48.4532562, -1.461965], [-48.4533535, -1.4622782], [-48.4534921, -1.4626866], [-48.4537068, -1.4632186], [-48.453839, -1.4635263], [-48.4539835, -1.4638815], [-48.4540286, -1.4640014], [-48.4540952, -1.4642275], [-48.4541705, -1.4644986]]}}, {"type": "Feature", "properties": {"highway": "residential"}, "geometry": {"type": "LineString", "coordinates": [[-48.4532562, -1.461965], [-48.4533535, -1.4622782], [-48.4534921, -1.4626866], [-48.4537068, -1.4632186], [-48.453839, -1.4635263], [-48.4539835, -1.4638815], [-48.4540286, -1.4640014], [-48.4540952, -1.4642275], [-48.4541705, -1.4644986]]}}, {"type": "Feature", "properties": {"highway": "service"}, "geometry": {"type": "LineString", "coordinates": [[-48.4535972, -1.4618385], [-48.4535014, -1.4615864], [-48.4534489, -1.461441], [-48.4534222, -1.4613386], [-48.4533853, -1.4612417], [-48.4533409, -1.4611331]]}}, {"type": "Feature", "properties": {"highway": "residential"}, "geometry": {"type": "LineString", "coordinates": [[-48.4547751, -1.4633198], [-48.4547697, -1.4634016], [-48.4547596, -1.463462], [-48.4547496, -1.4635015], [-48.4547368, -1.4635454], [-48.4547051, -1.4636736], [-48.4546645, -1.463844], [-48.4546017, -1.4640797], [-48.4545484, -1.4642717], [-48.4544909, -1.4644751], [-48.4543913, -1.4648477], [-48.4543486, -1.4649174], [-48.4543021, -1.4649656], [-48.4540232, -1.4652471], [-48.4539301, -1.4653446], [-48.4538691, -1.4654056], [-48.4538256, -1.4654599], [-48.4537622, -1.4655728]]}}, {"type": "Feature", "properties": {"highway": "residential"}, "geometry": {"type": "LineString", "coordinates": [[-48.4539265, -1.4552496], [-48.4544305, -1.4548243]]}}, {"type": "Feature", "properties": {"highway": "service"}, "geometry": {"type": "LineString", "coordinates": [[-48.445791, -1.4628439], [-48.4455791, -1.462974], [-48.4452917, -1.4631616]]}}, {"type": "Feature", "properties": {"highway": "service"}, "geometry": {"type": "LineString", "coordinates": [[-48.4459901, -1.4548519], [-48.4459956, -1.4548536]]}}, {"type": "Feature", "properties": {"highway": "service"}, "geometry": {"type": "LineString", "coordinates": [[-48.4458067, -1.4548139], [-48.445928, -1.4548339]]}}, {"type": "Feature", "properties": {"highway": "residential"}, "geometry": {"type": "LineString", "coordinates": [[-48.4493617, -1.4566166], [-48.4494056, -1.4565856], [-48.4496703, -1.4564637], [-48.4498083, -1.4563882]]}}, {"type": "Feature", "properties": {"highway": "secondary_link"}, "geometry": {"type": "LineString", "coordinates": [[-48.4452323, -1.4612879], [-48.4452391, -1.4612338], [-48.4452361, -1.4612137], [-48.4452304, -1.4611976], [-48.4450018, -1.4607538], [-48.4449966, -1.4607424], [-48.4449942, -1.4607368], [-48.4449942, -1.4607317], [-48.4449971, -1.4607268], [-48.4450246, -1.4607042], [-48.4450356, -1.4606983], [-48.4450423, -1.4606973], [-48.445048, -1.4606995], [-48.445053, -1.4607024]]}}, {"type": "Feature", "properties": {"highway": "residential"}, "geometry": {"type": "LineString", "coordinates": [[-48.4527236, -1.4612768], [-48.4526867, -1.4613258]]}}, {"type": "Feature", "properties": {"highway": "residential"}, "geometry": {"type": "LineString", "coordinates": [[-48.4528253, -1.4612078], [-48.452738, -1.461257], [-48.4527236, -1.4612768]]}}, {"type": "Feature", "properties": {"highway": "residential"}, "geometry": {"type": "LineString", "coordinates": [[-48.4520892, -1.460762], [-48.4521056, -1.4607459]]}}, {"type": "Feature", "properties": {"highway": "residential"}, "geometry": {"type": "LineString", "coordinates": [[-48.452056, -1.4608031], [-48.4520892, -1.460762]]}}, {"type": "Feature", "properties": {"highway": "residential"}, "geometry": {"type": "LineString", "coordinates": [[-48.4524792, -1.4610673], [-48.4524324, -1.4611156]]}}, {"type": "Feature", "properties": {"highway": "residential"}, "geometry": {"type": "LineString", "coordinates": [[-48.4524883, -1.461058], [-48.4524792, -1.4610673]]}}, {"type": "Feature", "properties": {"highway": "service"}, "geometry": {"type": "LineString", "coordinates": [[-48.44457, -1.4541449], [-48.4447887, -1.4542928], [-48.4448426, -1.4543393]]}}, {"type": "Feature", "properties": {"highway": "service"}, "geometry": {"type": "LineString", "coordinates": [[-48.4457324, -1.4639799], [-48.4453994, -1.4640438]]}}, {"type": "Feature", "properties": {"highway": "service"}, "geometry": {"type": "LineString", "coordinates": [[-48.4449764, -1.4634955], [-48.4450189, -1.4634912], [-48.4453581, -1.4632918]]}}, {"type": "Feature", "properties": {"highway": "service"}, "geometry": {"type": "LineString", "coordinates": [[-48.4448571, -1.4633745], [-48.4449078, -1.4634596], [-48.4449416, -1.4634852], [-48.4449764, -1.4634955]]}}, {"type": "Feature", "properties": {"highway": "service"}, "geometry": {"type": "LineString", "coordinates": [[-48.448155, -1.4593274], [-48.447778, -1.4586985]]}}, {"type": "Feature", "properties": {"highway": "service"}, "geometry": {"type": "LineString", "coordinates": [[-48.4478326, -1.4592895], [-48.4479113, -1.4592895], [-48.4480327, -1.4593108], [-48.4480789, -1.459326], [-48.4481232, -1.4593287], [-48.448155, -1.4593274], [-48.4481855, -1.4593262], [-48.4482448, -1.459324], [-48.4483096, -1.4593166], [-48.448393, -1.4592931], [-48.4484303, -1.4592435]]}}, {"type": "Feature", "properties": {"highway": "service"}, "geometry": {"type": "LineString", "coordinates": [[-48.4468583, -1.4621944], [-48.4476095, -1.4617741]]}}, {"type": "Feature", "properties": {"highway": "service"}, "geometry": {"type": "LineString", "coordinates": [[-48.4467232, -1.4619628], [-48.4468583, -1.4621944], [-48.4469524, -1.4623559]]}}, {"type": "Feature", "properties": {"highway": "service"}, "geometry": {"type": "LineString", "coordinates": [[-48.4454772, -1.4600473], [-48.4459599, -1.4603978], [-48.4460342, -1.4604856], [-48.4460782, -1.460565], [-48.4460832, -1.4606343], [-48.4461063, -1.4608914]]}}, {"type": "Feature", "properties": {"highway": "service"}, "geometry": {"type": "LineString", "coordinates": [[-48.4457558, -1.4596173], [-48.4454772, -1.4600473], [-48.4450861, -1.4598013]]}}, {"type": "Feature", "properties": {"highway": "service"}, "geometry": {"type": "LineString", "coordinates": [[-48.4470608, -1.4601689], [-48.446966, -1.4601168], [-48.4466737, -1.4600445], [-48.4463027, -1.4599702], [-48.4462329, -1.4599411], [-48.446163, -1.4599046], [-48.4458999, -1.4597219], [-48.4457558, -1.4596173], [-48.4454683, -1.4594169], [-48.4452774, -1.4592974]]}}, {"type": "Feature", "properties": {"highway": "service"}, "geometry": {"type": "LineString", "coordinates": [[-48.4468216, -1.4587188], [-48.4465836, -1.4590793], [-48.4465581, -1.4591477], [-48.4465797, -1.4592424], [-48.4466198, -1.4593501], [-48.4467623, -1.4596031], [-48.4468651, -1.4597978], [-48.4470608, -1.4601689], [-48.4472102, -1.4604763], [-48.4473534, -1.4607364], [-48.4477276, -1.4614228], [-48.4467232, -1.4619628]]}}, {"type": "Feature", "properties": {"highway": "service"}, "geometry": {"type": "LineString", "coordinates": [[-48.4461968, -1.4609699], [-48.4463291, -1.4612398], [-48.4463364, -1.4612536], [-48.4465147, -1.4615886], [-48.4465867, -1.4617238], [-48.4467232, -1.4619628]]}}, {"type": "Feature", "properties": {"highway": "service"}, "geometry": {"type": "LineString", "coordinates": [[-48.4460372, -1.4609813], [-48.4460721, -1.4609209], [-48.4461063, -1.4608914], [-48.4461445, -1.4608854], [-48.4461653, -1.4608894], [-48.4461767, -1.4608988], [-48.4461975, -1.460935], [-48.4461968, -1.4609699], [-48.4461821, -1.4610007], [-48.4461539, -1.4610141], [-48.4461157, -1.4610101], [-48.4460949, -1.461002], [-48.4460372, -1.4609813]]}}, {"type": "Feature", "properties": {"highway": "service"}, "geometry": {"type": "LineString", "coordinates": [[-48.4533296, -1.4592564], [-48.4537296, -1.4591183], [-48.4540307, -1.4589846], [-48.4542339, -1.4588918]]}}, {"type": "Feature", "properties": {"highway": "service"}, "geometry": {"type": "LineString", "coordinates": [[-48.4533296, -1.4592564], [-48.4537296, -1.4591183], [-48.4540307, -1.4589846], [-48.4542339, -1.4588918]]}}, {"type": "Feature", "properties": {"highway": "residential"}, "geometry": {"type": "LineString", "coordinates": [[-48.454881, -1.4551914], [-48.4546499, -1.4558016], [-48.4546094, -1.4559604], [-48.4546094, -1.4561192], [-48.4547041, -1.4563432], [-48.454747, -1.4565568], [-48.4547423, -1.4566253], [-48.4547306, -1.4566866], [-48.4546702, -1.4568219], [-48.4545589, -1.4570769], [-48.4545575, -1.4570816]]}}, {"type": "Feature", "properties": {"highway": "residential"}, "geometry": {"type": "LineString", "coordinates": [[-48.4513756, -1.4562306], [-48.4513335, -1.456274], [-48.451153, -1.4564656], [-48.4508109, -1.4568269], [-48.4506616, -1.4569734], [-48.45007, -1.4575737], [-48.4494317, -1.4582043], [-48.4489983, -1.4586584], [-48.4489713, -1.4586932], [-48.4487974, -1.4588711], [-48.4484303, -1.4592435]]}}, {"type": "Feature", "properties": {"highway": "residential"}, "geometry": {"type": "LineString", "coordinates": [[-48.4524796, -1.462825], [-48.4524056, -1.4631308]]}}, {"type": "Feature", "properties": {"highway": "service"}, "geometry": {"type": "LineString", "coordinates": [[-48.4539881, -1.4630912], [-48.4540484, -1.4632695], [-48.4541077, -1.4634259]]}}, {"type": "Feature", "properties": {"highway": "residential"}, "geometry": {"type": "LineString", "coordinates": [[-48.4534568, -1.461892], [-48.4535164, -1.4619658], [-48.4535922, -1.4621038]]}}, {"type": "Feature", "properties": {"highway": "residential"}, "geometry": {"type": "LineString", "coordinates": [[-48.4511044, -1.4618947], [-48.450668, -1.4621638]]}}, {"type": "Feature", "properties": {"highway": "residential"}, "geometry": {"type": "LineString", "coordinates": [[-48.4549494, -1.4550452], [-48.454881, -1.4551914]]}}, {"type": "Feature", "properties": {"highway": "residential"}, "geometry": {"type": "LineString", "coordinates": [[-48.4560182, -1.4535464], [-48.4559458, -1.4536912], [-48.4558841, -1.4538038], [-48.4557903, -1.4539767], [-48.455742, -1.4541671], [-48.4556401, -1.4543588], [-48.4555207, -1.4545465], [-48.455365, -1.4547093], [-48.4550997, -1.4548978], [-48.4549586, -1.4550338], [-48.4549494, -1.4550452]]}}, {"type": "Feature", "properties": {"highway": "residential"}, "geometry": {"type": "LineString", "coordinates": [[-48.4543081, -1.4556691], [-48.4543701, -1.4554783], [-48.4545189, -1.4550533], [-48.45461, -1.4548645], [-48.4546477, -1.4547865], [-48.454822, -1.4546256], [-48.4550445, -1.4544536], [-48.455168, -1.4543454], [-48.4552431, -1.4542717], [-48.4553504, -1.4541054], [-48.4555918, -1.4536429], [-48.4556676, -1.4535077], [-48.4556941, -1.4534039], [-48.4556852, -1.4533077], [-48.4556527, -1.4531966], [-48.4555712, -1.4530175]]}}, {"type": "Feature", "properties": {"highway": "residential"}, "geometry": {"type": "LineString", "coordinates": [[-48.4543577, -1.4564691], [-48.4543573, -1.4565669], [-48.4543439, -1.4566239], [-48.454248, -1.4568108], [-48.4541703, -1.456945], [-48.4540911, -1.4571849], [-48.4540797, -1.4573887], [-48.4540867, -1.4575026]]}}, {"type": "Feature", "properties": {"highway": "service"}, "geometry": {"type": "LineString", "coordinates": [[-48.4471516, -1.4605085], [-48.4472102, -1.4604763]]}}, {"type": "Feature", "properties": {"highway": "service"}, "geometry": {"type": "LineString", "coordinates": [[-48.4465147, -1.4615886], [-48.4466537, -1.4614939], [-48.4466614, -1.4614774], [-48.44666, -1.461459], [-48.4465263, -1.4612297], [-48.4465179, -1.4612214], [-48.4465025, -1.4612183], [-48.4463364, -1.4612536]]}}, {"type": "Feature", "properties": {"highway": "service"}, "geometry": {"type": "LineString", "coordinates": [[-48.4448149, -1.4647556], [-48.4449086, -1.4646994], [-48.4449461, -1.4646417], [-48.4449729, -1.4645238], [-48.4449555, -1.4642704], [-48.4449327, -1.4642087], [-48.4448522, -1.4641819], [-48.4447731, -1.4641637]]}}, {"type": "Feature", "properties": {"highway": "service"}, "geometry": {"type": "LineString", "coordinates": [[-48.4460145, -1.4627103], [-48.445791, -1.4628439]]}}, {"type": "Feature", "properties": {"highway": "service"}, "geometry": {"type": "LineString", "coordinates": [[-48.4443116, -1.4584782], [-48.4443741, -1.4584137], [-48.4444192, -1.458362], [-48.4444474, -1.4583263]]}}, {"type": "Feature", "properties": {"highway": "residential"}, "geometry": {"type": "LineString", "coordinates": [[-48.4516796, -1.4592603], [-48.4516696, -1.4592171], [-48.4516551, -1.4591412], [-48.4516496, -1.4590853], [-48.4516327, -1.459025], [-48.4515918, -1.458905], [-48.4515417, -1.4589003], [-48.4515189, -1.4588976], [-48.4515066, -1.4588389], [-48.4513756, -1.45881], [-48.4511456, -1.4588674], [-48.4509975, -1.4589043]]}}, {"type": "Feature", "properties": {"highway": "residential"}, "geometry": {"type": "LineString", "coordinates": [[-48.4485469, -1.4586409], [-48.448631, -1.458721], [-48.4487974, -1.4588711]]}}, {"type": "Feature", "properties": {"highway": "residential"}, "geometry": {"type": "LineString", "coordinates": [[-48.45461, -1.4548645], [-48.4545846, -1.4548445], [-48.4545685, -1.4548418], [-48.4545585, -1.4548585], [-48.4545524, -1.4548599], [-48.4545384, -1.4548525], [-48.4545028, -1.454813], [-48.4544827, -1.4547922], [-48.454474, -1.4547821], [-48.4544626, -1.4547955], [-48.4544559, -1.4548016], [-48.4544425, -1.4548136], [-48.4544305, -1.4548243]]}}, {"type": "Feature", "properties": {"highway": "service"}, "geometry": {"type": "LineString", "coordinates": [[-48.4494339, -1.454254], [-48.4491964, -1.4545284]]}}, {"type": "Feature", "properties": {"highway": "residential"}, "geometry": {"type": "LineString", "coordinates": [[-48.4519467, -1.4609308], [-48.4517674, -1.4607478], [-48.4514545, -1.4604283]]}}, {"type": "Feature", "properties": {"highway": "unclassified"}, "geometry": {"type": "LineString", "coordinates": [[-48.4538371, -1.458381], [-48.4537136, -1.4580704]]}}, {"type": "Feature", "properties": {"highway": "residential"}, "geometry": {"type": "LineString", "coordinates": [[-48.4494317, -1.4582043], [-48.4495929, -1.4584496], [-48.4497171, -1.4586536], [-48.4498442, -1.4588638], [-48.4498673, -1.458922], [-48.4498719, -1.4589435]]}}, {"type": "Feature", "properties": {"highway": "tertiary"}, "geometry": {"type": "LineString", "coordinates": [[-48.4531598, -1.4544481], [-48.4531113, -1.4544947], [-48.4526931, -1.454944], [-48.4521436, -1.4554684], [-48.4513756, -1.4562306]]}}, {"type": "Feature", "properties": {"highway": "tertiary"}, "geometry": {"type": "LineString", "coordinates": [[-48.4526198, -1.4571084], [-48.4534438, -1.4568257], [-48.4541587, -1.456535], [-48.4543577, -1.4564691], [-48.4544167, -1.4564504]]}}, {"type": "Feature", "properties": {"highway": "tertiary"}, "geometry": {"type": "LineString", "coordinates": [[-48.4526198, -1.4571084], [-48.4534438, -1.4568257], [-48.4541587, -1.456535], [-48.4543577, -1.4564691], [-48.4544167, -1.4564504]]}}, {"type": "Feature", "properties": {"highway": "service"}, "geometry": {"type": "LineString", "coordinates": [[-48.4454054, -1.461313], [-48.4455868, -1.461201], [-48.4456061, -1.461193], [-48.445832, -1.4610724], [-48.4460372, -1.4609813]]}}, {"type": "Feature", "properties": {"highway": "primary"}, "geometry": {"type": "LineString", "coordinates": [[-48.4370728, -1.4604267], [-48.4376688, -1.4601406], [-48.4382409, -1.4598419], [-48.4397756, -1.4590536], [-48.4413056, -1.4582473], [-48.4419047, -1.4579389], [-48.4422286, -1.4577663], [-48.4425348, -1.457618], [-48.4427383, -1.4575546], [-48.4429422, -1.4575115], [-48.4432675, -1.4574865], [-48.4434148, -1.4574761], [-48.4435656, -1.4574994], [-48.4437057, -1.457527], [-48.443864, -1.4575727], [-48.4440231, -1.4576193], [-48.4441164, -1.4576478], [-48.4442749, -1.4576895], [-48.4444324, -1.4577148]]}}, {"type": "Feature", "properties": {"highway": "primary"}, "geometry": {"type": "LineString", "coordinates": [[-48.444319, -1.457905], [-48.4442123, -1.4578083], [-48.4440942, -1.4577419], [-48.4439297, -1.4576865], [-48.4438148, -1.4576521], [-48.4436346, -1.4576088], [-48.4434611, -1.4575853], [-48.4433139, -1.457578], [-48.4431679, -1.4575739], [-48.4428414, -1.4576268], [-48.4425207, -1.4577266], [-48.4420715, -1.4579543], [-48.4413199, -1.4583421], [-48.439611, -1.4592404], [-48.4383813, -1.4598773], [-48.4377739, -1.4601926], [-48.4374139, -1.4603678], [-48.4372021, -1.4604668], [-48.437093, -1.4605053]]}}, {"type": "Feature", "properties": {"highway": "residential"}, "geometry": {"type": "LineString", "coordinates": [[-48.4526867, -1.4613258], [-48.4528758, -1.4615067], [-48.4529631, -1.4616284], [-48.4531015, -1.461804], [-48.4531537, -1.4618486], [-48.4532562, -1.461965]]}}, {"type": "Feature", "properties": {"highway": "residential"}, "geometry": {"type": "LineString", "coordinates": [[-48.4524006, -1.4611534], [-48.4520423, -1.460819]]}}, {"type": "Feature", "properties": {"highway": "residential"}, "geometry": {"type": "LineString", "coordinates": [[-48.4528758, -1.4615067], [-48.4529575, -1.4614441]]}}, {"type": "Feature", "properties": {"highway": "service"}, "geometry": {"type": "LineString", "coordinates": [[-48.4455426, -1.4575015], [-48.4452289, -1.4579516], [-48.4450366, -1.4582078], [-48.4450261, -1.4582218]]}}, {"type": "Feature", "properties": {"highway": "service"}, "geometry": {"type": "LineString", "coordinates": [[-48.4450366, -1.4582078], [-48.4450926, -1.4582487], [-48.4451623, -1.4582808], [-48.4452407, -1.4582776], [-48.4453254, -1.4582465], [-48.4454413, -1.4582315], [-48.4455164, -1.4582583], [-48.4456559, -1.4583248], [-48.4461247, -1.4586419]]}}, {"type": "Feature", "properties": {"highway": "service"}, "geometry": {"type": "LineString", "coordinates": [[-48.4466737, -1.4600445], [-48.446752, -1.4600078], [-48.4468079, -1.4599618], [-48.4468447, -1.4598903], [-48.4468651, -1.4597978]]}}, {"type": "Feature", "properties": {"highway": "residential"}, "geometry": {"type": "LineString", "coordinates": [[-48.4544981, -1.4572784], [-48.454475, -1.4574178]]}}, {"type": "Feature", "properties": {"highway": "residential"}, "geometry": {"type": "LineString", "coordinates": [[-48.4545575, -1.4570816], [-48.4544981, -1.4572784]]}}, {"type": "Feature", "properties": {"highway": "service"}, "geometry": {"type": "LineString", "coordinates": [[-48.4543011, -1.4639094], [-48.4542769, -1.4637669], [-48.454267, -1.4635392]]}}, {"type": "Feature", "properties": {"highway": "residential"}, "geometry": {"type": "LineString", "coordinates": [[-48.4529855, -1.4620406], [-48.4530612, -1.4622312], [-48.4531148, -1.4624712], [-48.4531435, -1.4627469]]}}, {"type": "Feature", "properties": {"highway": "service"}, "geometry": {"type": "LineString", "coordinates": [[-48.4545683, -1.4619655], [-48.4544219, -1.4621306], [-48.4543045, -1.4622872], [-48.4541746, -1.4624495]]}}, {"type": "Feature", "properties": {"highway": "secondary"}, "geometry": {"type": "LineString", "coordinates": [[-48.4447281, -1.4577466], [-48.4447757, -1.4578119], [-48.4447992, -1.4578892], [-48.4447957, -1.4579699], [-48.4447659, -1.4580449], [-48.4447129, -1.4581059], [-48.4446428, -1.458146], [-48.4445633, -1.4581606], [-48.4444834, -1.4581482], [-48.4444123, -1.4581102], [-48.4443575, -1.4580506], [-48.4443266, -1.457981], [-48.444319, -1.457905], [-48.4443357, -1.4578304], [-48.4443749, -1.4577649], [-48.4444324, -1.4577148], [-48.4445029, -1.4576852], [-48.4445834, -1.4576796], [-48.4446615, -1.4577008]]}}, {"type": "Feature", "properties": {"highway": "secondary"}, "geometry": {"type": "LineString", "coordinates": [[-48.4466496, -1.4514404], [-48.4466255, -1.4516277], [-48.4466051, -1.4518673], [-48.4465398, -1.4526708], [-48.4465298, -1.4528028], [-48.4464932, -1.453213], [-48.4464522, -1.4535416], [-48.4464282, -1.4537394], [-48.4463437, -1.4543849], [-48.4462987, -1.4547025], [-48.4462717, -1.4548649], [-48.4462582, -1.4549754], [-48.4462307, -1.4551584], [-48.4462091, -1.4552769], [-48.4461949, -1.4553198], [-48.4460833, -1.4556116], [-48.4460365, -1.4557156], [-48.4458456, -1.4561445], [-48.4457428, -1.4563901], [-48.4455609, -1.4567647], [-48.4453557, -1.457153]]}}, {"type": "Feature", "properties": {"highway": "secondary"}, "geometry": {"type": "LineString", "coordinates": [[-48.4448804, -1.4578585], [-48.4447957, -1.4579699]]}}, {"type": "Feature", "properties": {"highway": "secondary"}, "geometry": {"type": "LineString", "coordinates": [[-48.4447659, -1.4580449], [-48.444736, -1.4581811]]}}, {"type": "Feature", "properties": {"highway": "secondary"}, "geometry": {"type": "LineString", "coordinates": [[-48.4445404, -1.4583355], [-48.4445149, -1.4582691], [-48.4444825, -1.4582086], [-48.4444123, -1.4581102]]}}, {"type": "Feature", "properties": {"highway": "secondary"}, "geometry": {"type": "LineString", "coordinates": [[-48.4446615, -1.4577008], [-48.4447549, -1.4576619], [-48.444835, -1.4576156]]}}, {"type": "Feature", "properties": {"highway": "secondary"}, "geometry": {"type": "LineString", "coordinates": [[-48.444835, -1.4576156], [-48.444947, -1.4574655]]}}, {"type": "Feature", "properties": {"highway": "secondary"}, "geometry": {"type": "LineString", "coordinates": [[-48.4453557, -1.457153], [-48.4452572, -1.4573093], [-48.445162, -1.4574605], [-48.4449743, -1.4577157], [-48.4448804, -1.4578585]]}}, {"type": "Feature", "properties": {"highway": "secondary"}, "geometry": {"type": "LineString", "coordinates": [[-48.4446615, -1.4577008], [-48.4447281, -1.4577466]]}}, {"type": "Feature", "properties": {"highway": "service"}, "geometry": {"type": "LineString", "coordinates": [[-48.4452112, -1.4630178], [-48.4455027, -1.4628265], [-48.4457065, -1.4627085], [-48.4459331, -1.462568]]}}]}