{"type": "FeatureCollection", "features": [{"type": "Feature", "properties": {"highway": "tertiary"}, "geometry": {"type": "LineString", "coordinates": [[-48.4983887, -1.4718979], [-48.4982331, -1.471708]]}}, {"type": "Feature", "properties": {"highway": "residential"}, "geometry": {"type": "LineString", "coordinates": [[-48.5015219, -1.4731895], [-48.5012591, -1.4728975], [-48.5009815, -1.4726137], [-48.5007171, -1.472393], [-48.500605, -1.4722771], [-48.5004202, -1.4720799], [-48.5000119, -1.4715412], [-48.4998116, -1.4712989], [-48.4995123, -1.4709355]]}}, {"type": "Feature", "properties": {"highway": "residential"}, "geometry": {"type": "LineString", "coordinates": [[-48.4918756, -1.4703467], [-48.4919147, -1.4703165], [-48.4919277, -1.470306], [-48.4924814, -1.4698738], [-48.4929447, -1.4694886], [-48.4940159, -1.4686331], [-48.4945707, -1.4682034], [-48.4950998, -1.4677787], [-48.4957865, -1.4672097], [-48.4961894, -1.4668758], [-48.4971284, -1.4661607], [-48.4984764, -1.4650587], [-48.4988907, -1.4645385], [-48.499278, -1.4640088], [-48.4993146, -1.4639585], [-48.4993787, -1.4638701], [-48.4997749, -1.4633216], [-48.5002299, -1.4627145], [-48.5005228, -1.4623317], [-48.5009286, -1.4617718], [-48.5017042, -1.460771]]}}, {"type": "Feature", "properties": {"highway": "residential"}, "geometry": {"type": "LineString", "coordinates": [[-48.502354, -1.4662986], [-48.5015382, -1.4656705], [-48.5010041, -1.4652593], [-48.5000028, -1.4644883], [-48.4993146, -1.4639585], [-48.4985561, -1.4633745], [-48.4977829, -1.4627791]]}}, {"type": "Feature", "properties": {"highway": "residential"}, "geometry": {"type": "LineString", "coordinates": [[-48.5008984, -1.465402], [-48.4992381, -1.4657519]]}}, {"type": "Feature", "properties": {"highway": "tertiary"}, "geometry": {"type": "LineString", "coordinates": [[-48.5003482, -1.4702058], [-48.5004034, -1.4702748], [-48.5006524, -1.4705652], [-48.5009552, -1.470916], [-48.5012518, -1.4712754], [-48.5013439, -1.471378], [-48.5015217, -1.471572]]}}, {"type": "Feature", "properties": {"highway": "residential"}, "geometry": {"type": "LineString", "coordinates": [[-48.4872724, -1.4769222], [-48.4873328, -1.4768341], [-48.4875541, -1.4766136], [-48.4878909, -1.4762871], [-48.4882324, -1.475969], [-48.4885639, -1.4756604], [-48.4887106, -1.4755238], [-48.4888925, -1.4753581], [-48.4890443, -1.4752062], [-48.4891977, -1.4750443], [-48.4899571, -1.4742815], [-48.4902151, -1.4740465], [-48.4902316, -1.4740322], [-48.4903241, -1.473946], [-48.4904208, -1.4738445], [-48.4904966, -1.4737394], [-48.4905499, -1.4736451], [-48.4906469, -1.4734777], [-48.4906491, -1.473457]]}}, {"type": "Feature", "properties": {"highway": "residential"}, "geometry": {"type": "LineString", "coordinates": [[-48.4905334, -1.4750029], [-48.4907073, -1.4756245], [-48.4907645, -1.4759282], [-48.4908776, -1.4764315]]}}, {"type": "Feature", "properties": {"highway": "residential"}, "geometry": {"type": "LineString", "coordinates": [[-48.4913528, -1.473843], [-48.491807, -1.4734881], [-48.4922542, -1.4731272]]}}, {"type": "Feature", "properties": {"highway": "residential"}, "geometry": {"type": "LineString", "coordinates": [[-48.4919316, -1.4763684], [-48.4918747, -1.4759643], [-48.4917898, -1.4754464], [-48.4917413, -1.4752075], [-48.4917238, -1.4749783], [-48.4916857, -1.4745693], [-48.4916775, -1.4745441]]}}, {"type": "Feature", "properties": {"highway": "residential"}, "geometry": {"type": "LineString", "coordinates": [[-48.4916857, -1.4745693], [-48.4920225, -1.4745609], [-48.492046, -1.4745777], [-48.4920631, -1.4746176], [-48.4920913, -1.4748951], [-48.4921101, -1.4750627], [-48.4921286, -1.4752514], [-48.4921476, -1.4754314], [-48.4921584, -1.4755923], [-48.4921704, -1.4758256], [-48.4922111, -1.4761863], [-48.4922283, -1.4763242]]}}, {"type": "Feature", "properties": {"highway": "residential"}, "geometry": {"type": "LineString", "coordinates": [[-48.4912597, -1.469507], [-48.4919277, -1.470306], [-48.4921137, -1.4705372], [-48.4924219, -1.4709052], [-48.4928256, -1.4714036], [-48.4929552, -1.4715622], [-48.4930841, -1.4717084]]}}, {"type": "Feature", "properties": {"highway": "secondary"}, "geometry": {"type": "LineString", "coordinates": [[-48.4935639, -1.4636049], [-48.4934224, -1.4637159], [-48.492931, -1.4641014], [-48.492486, -1.4644505], [-48.4913821, -1.4653423], [-48.4910749, -1.4655714], [-48.4907382, -1.4658458], [-48.4902896, -1.4662015], [-48.4898329, -1.4665704], [-48.4892314, -1.4670563], [-48.4881475, -1.467931]]}}, {"type": "Feature", "properties": {"highway": "tertiary"}, "geometry": {"type": "LineString", "coordinates": [[-48.5063985, -1.4676307], [-48.5063751, -1.4677519], [-48.5060132, -1.468644], [-48.5058862, -1.4689317], [-48.5056991, -1.469323], [-48.5056025, -1.4694893], [-48.5054957, -1.46964], [-48.5053959, -1.4697816], [-48.5051841, -1.4700283], [-48.5046711, -1.470594], [-48.5044464, -1.4708461], [-48.5041507, -1.4711544], [-48.5036813, -1.4716344], [-48.5034008, -1.471902], [-48.503086, -1.4721774], [-48.5028311, -1.4724039], [-48.5026869, -1.4725226], [-48.5022544, -1.4728785], [-48.5019343, -1.4731212], [-48.5013559, -1.4735596], [-48.5010528, -1.4738491], [-48.500945, -1.4739352], [-48.5007926, -1.4740239], [-48.5006721, -1.4740785]]}}, {"type": "Feature", "properties": {"highway": "residential"}, "geometry": {"type": "LineString", "coordinates": [[-48.5033648, -1.4620075], [-48.5029407, -1.4625684], [-48.5026046, -1.4629959], [-48.5021873, -1.4635918], [-48.5018959, -1.4639878], [-48.5013386, -1.4647702], [-48.5010041, -1.4652593], [-48.5008984, -1.465402], [-48.5007295, -1.465647], [-48.4998033, -1.4663341], [-48.4988957, -1.4670553], [-48.4986738, -1.46723], [-48.498624, -1.4672692], [-48.4982441, -1.4675593], [-48.4978046, -1.4679014], [-48.4973211, -1.4682915], [-48.4967449, -1.4687348], [-48.4961934, -1.4692052], [-48.4951411, -1.4700862], [-48.494221, -1.4708617], [-48.4941345, -1.4709331], [-48.4938947, -1.4711051], [-48.4930841, -1.4717084], [-48.4930561, -1.4717332], [-48.4930317, -1.4717509], [-48.493001, -1.4717752], [-48.4918915, -1.4726705]]}}, {"type": "Feature", "properties": {"highway": "residential"}, "geometry": {"type": "LineString", "coordinates": [[-48.4925244, -1.4667469], [-48.4929417, -1.4672675], [-48.4933646, -1.4677969], [-48.4936854, -1.4682071], [-48.4940159, -1.4686331], [-48.4944931, -1.469244], [-48.4948124, -1.4696425], [-48.4951411, -1.4700862], [-48.4971295, -1.4726169], [-48.4971543, -1.4726484]]}}, {"type": "Feature", "properties": {"highway": "tertiary"}, "geometry": {"type": "LineString", "coordinates": [[-48.486196, -1.4677644], [-48.4868503, -1.4672206], [-48.4872796, -1.4668584], [-48.4877266, -1.4665109], [-48.4883625, -1.4660095], [-48.4889148, -1.465569], [-48.4894503, -1.4651144], [-48.4898889, -1.4647418], [-48.4899766, -1.4646673], [-48.4901045, -1.4645584], [-48.4904922, -1.4642354], [-48.491526, -1.463388], [-48.4915783, -1.4633455], [-48.4926063, -1.4625705], [-48.4927111, -1.4624915]]}}, {"type": "Feature", "properties": {"highway": "residential"}, "geometry": {"type": "LineString", "coordinates": [[-48.4923562, -1.4745235], [-48.4923858, -1.4738521], [-48.4924209, -1.4735101], [-48.4924867, -1.4734196]]}}, {"type": "Feature", "properties": {"highway": "residential"}, "geometry": {"type": "LineString", "coordinates": [[-48.4958619, -1.46879], [-48.4948124, -1.4696425]]}}, {"type": "Feature", "properties": {"highway": "tertiary"}, "geometry": {"type": "LineString", "coordinates": [[-48.4995123, -1.4709355], [-48.4993741, -1.4707632], [-48.4993153, -1.470692], [-48.4990403, -1.4703666], [-48.4981795, -1.469343], [-48.4979938, -1.4691148], [-48.4979328, -1.4690424], [-48.4979015, -1.4690073], [-48.4974726, -1.4684763], [-48.4973211, -1.4682915], [-48.4970382, -1.4679395], [-48.496949, -1.4678284], [-48.4967129, -1.4675347], [-48.4963934, -1.4671385], [-48.4961894, -1.4668758], [-48.4958585, -1.4664501], [-48.495594, -1.4661059]]}}, {"type": "Feature", "properties": {"highway": "residential"}, "geometry": {"type": "LineString", "coordinates": [[-48.4903063, -1.4730956], [-48.4903083, -1.4730739], [-48.4903297, -1.4730391], [-48.4904445, -1.4729555], [-48.490528, -1.4728645], [-48.4906534, -1.4726574]]}}, {"type": "Feature", "properties": {"highway": "residential"}, "geometry": {"type": "LineString", "coordinates": [[-48.4906491, -1.473457], [-48.4906483, -1.4734215], [-48.490467, -1.4732804], [-48.4903661, -1.4732037], [-48.4903117, -1.4731141], [-48.4903063, -1.4730956]]}}, {"type": "Feature", "properties": {"highway": "residential"}, "geometry": {"type": "LineString", "coordinates": [[-48.4912073, -1.4704182], [-48.4907811, -1.469905], [-48.4903613, -1.4693703], [-48.4899209, -1.468817], [-48.4898068, -1.4686565], [-48.489629, -1.4684238], [-48.4894259, -1.4681799]]}}, {"type": "Feature", "properties": {"highway": "tertiary"}, "geometry": {"type": "LineString", "coordinates": [[-48.501721, -1.4680705], [-48.5015821, -1.4684312], [-48.5015251, -1.4685813], [-48.5014336, -1.4688205], [-48.5013343, -1.4690922], [-48.5012669, -1.4692776], [-48.5011673, -1.4694482], [-48.5010597, -1.4695941], [-48.5008653, -1.4697837], [-48.5003482, -1.4702058]]}}, {"type": "Feature", "properties": {"highway": "tertiary"}, "geometry": {"type": "LineString", "coordinates": [[-48.4998167, -1.4738038], [-48.4995727, -1.4734995], [-48.4995277, -1.4734375], [-48.4993386, -1.4731764], [-48.4992508, -1.4730504], [-48.4991978, -1.4729827], [-48.4990865, -1.4728205], [-48.4987955, -1.4724491], [-48.4983887, -1.4718979]]}}, {"type": "Feature", "properties": {"highway": "tertiary"}, "geometry": {"type": "LineString", "coordinates": [[-48.502133, -1.4727088], [-48.5021556, -1.4726623], [-48.5021783, -1.4726008], [-48.5021846, -1.4725547], [-48.5021819, -1.4725441], [-48.5021733, -1.4725112], [-48.501685, -1.4719621], [-48.5016409, -1.4719037], [-48.5014409, -1.4716469], [-48.5011788, -1.4713391], [-48.5009371, -1.4710554], [-48.5009047, -1.471016], [-48.5008759, -1.4709809], [-48.5008247, -1.4709149], [-48.5005814, -1.470622], [-48.5002906, -1.4702506]]}}, {"type": "Feature", "properties": {"highway": "tertiary"}, "geometry": {"type": "LineString", "coordinates": [[-48.5002202, -1.470048], [-48.5003482, -1.4702058]]}}, {"type": "Feature", "properties": {"highway": "tertiary"}, "geometry": {"type": "LineString", "coordinates": [[-48.5002202, -1.470048], [-48.5007161, -1.4696456], [-48.5009487, -1.4693897], [-48.501058, -1.4692228], [-48.5011493, -1.4690166], [-48.5012536, -1.468756], [-48.5013092, -1.4686073], [-48.5013678, -1.4684722], [-48.5014094, -1.4683629], [-48.5015738, -1.4679537]]}}, {"type": "Feature", "properties": {"highway": "tertiary_link"}, "geometry": {"type": "LineString", "coordinates": [[-48.5006721, -1.4740785], [-48.5005443, -1.4740559], [-48.5004752, -1.4739969], [-48.5004504, -1.4739473], [-48.5004437, -1.4738843], [-48.5004578, -1.4737911]]}}, {"type": "Feature", "properties": {"highway": "residential"}, "geometry": {"type": "LineString", "coordinates": [[-48.4925244, -1.4667469], [-48.4914252, -1.4676125], [-48.4903608, -1.4684632], [-48.4899209, -1.468817], [-48.4897132, -1.4689758], [-48.48969, -1.4689936], [-48.4892589, -1.4693649]]}}, {"type": "Feature", "properties": {"highway": "residential"}, "geometry": {"type": "LineString", "coordinates": [[-48.4962112, -1.4734705], [-48.4961449, -1.4733935], [-48.4958628, -1.4730581], [-48.4957316, -1.4728998], [-48.4955552, -1.4726788], [-48.4952631, -1.472343], [-48.4950555, -1.4720918], [-48.4948568, -1.4718433], [-48.4946072, -1.4715335], [-48.4943233, -1.4711864], [-48.4941345, -1.4709331]]}}, {"type": "Feature", "properties": {"highway": "residential"}, "geometry": {"type": "LineString", "coordinates": [[-48.494221, -1.4708617], [-48.4955059, -1.4724065], [-48.4957475, -1.4726705], [-48.4958611, -1.4728009], [-48.4959284, -1.4728788], [-48.4960156, -1.4729718], [-48.4962783, -1.4732619], [-48.496352, -1.4733478]]}}, {"type": "Feature", "properties": {"highway": "residential"}, "geometry": {"type": "LineString", "coordinates": [[-48.4893648, -1.4716655], [-48.4893595, -1.471638], [-48.4893675, -1.4716239], [-48.4898758, -1.4712003], [-48.4903791, -1.4707661]]}}, {"type": "Feature", "properties": {"highway": "residential"}, "geometry": {"type": "LineString", "coordinates": [[-48.4909871, -1.4741886], [-48.4908736, -1.4740586], [-48.4908347, -1.4740411], [-48.4907904, -1.4740545], [-48.4906939, -1.4741363], [-48.4905791, -1.4742769], [-48.4904527, -1.4744634], [-48.4904006, -1.4745322], [-48.4901723, -1.4747404], [-48.4901547, -1.4747564], [-48.4901386, -1.4747701], [-48.4901299, -1.4747788], [-48.4901316, -1.4747906], [-48.4901651, -1.4748345]]}}, {"type": "Feature", "properties": {"highway": "residential"}, "geometry": {"type": "LineString", "coordinates": [[-48.4913528, -1.473843], [-48.4910519, -1.4741015], [-48.4909871, -1.4741886], [-48.4908997, -1.4742784], [-48.4909071, -1.4743032], [-48.490883, -1.4743495], [-48.4908326, -1.4744177], [-48.4907551, -1.4745175], [-48.4907321, -1.4745854], [-48.4907015, -1.4746184], [-48.4906577, -1.4746498], [-48.4906268, -1.4746772], [-48.4905799, -1.4747001], [-48.4905629, -1.4747127]]}}, {"type": "Feature", "properties": {"highway": "residential"}, "geometry": {"type": "LineString", "coordinates": [[-48.4906483, -1.4734215], [-48.4907249, -1.4733357], [-48.4908331, -1.4732359], [-48.4908789, -1.4731891], [-48.4909198, -1.4731482], [-48.4909384, -1.4731154], [-48.4909917, -1.4730016], [-48.4910346, -1.4729023]]}}, {"type": "Feature", "properties": {"highway": "residential"}, "geometry": {"type": "LineString", "coordinates": [[-48.4916775, -1.4745441], [-48.4916273, -1.4743964], [-48.4915656, -1.474261], [-48.4913528, -1.473843]]}}, {"type": "Feature", "properties": {"highway": "residential"}, "geometry": {"type": "LineString", "coordinates": [[-48.4912668, -1.4718838], [-48.4923379, -1.470976], [-48.4924048, -1.4709187], [-48.4924219, -1.4709052], [-48.4927949, -1.4706161], [-48.4934475, -1.4700861], [-48.4938031, -1.4697894], [-48.4944931, -1.469244], [-48.4949073, -1.4689182], [-48.4955655, -1.4684029], [-48.4967129, -1.4675347], [-48.4976418, -1.4668046], [-48.4984643, -1.4661468], [-48.4991171, -1.4656399], [-48.4995666, -1.4650882], [-48.5000028, -1.4644883], [-48.5004947, -1.4638172], [-48.5009204, -1.4632449], [-48.5012013, -1.4628483], [-48.5016274, -1.4622824], [-48.5023884, -1.4612513], [-48.5025918, -1.4609652]]}}, {"type": "Feature", "properties": {"highway": "residential"}, "geometry": {"type": "LineString", "coordinates": [[-48.490368, -1.4728962], [-48.490099, -1.472727]]}}, {"type": "Feature", "properties": {"highway": "residential"}, "geometry": {"type": "LineString", "coordinates": [[-48.4905043, -1.4725594], [-48.4904419, -1.4727334], [-48.490368, -1.4728962], [-48.4903297, -1.4730391]]}}, {"type": "Feature", "properties": {"highway": "residential"}, "geometry": {"type": "LineString", "coordinates": [[-48.5000119, -1.4715412], [-48.4997188, -1.4717553], [-48.4997128, -1.471766], [-48.4997115, -1.4717828], [-48.4999327, -1.4720623], [-48.500081, -1.4722239], [-48.5001574, -1.472313], [-48.5002363, -1.4724002], [-48.5004115, -1.4725825], [-48.5006177, -1.4728046], [-48.50089, -1.4731051], [-48.5009329, -1.4731483], [-48.5010037, -1.4732251]]}}, {"type": "Feature", "properties": {"highway": "living_street"}, "geometry": {"type": "LineString", "coordinates": [[-48.5000119, -1.4715412], [-48.5005584, -1.4711218]]}}, {"type": "Feature", "properties": {"highway": "residential"}, "geometry": {"type": "LineString", "coordinates": [[-48.4922817, -1.4686731], [-48.4912597, -1.469507], [-48.4912471, -1.4695179], [-48.4911945, -1.469561], [-48.4907811, -1.469905], [-48.4901358, -1.4704501], [-48.4892099, -1.471214]]}}, {"type": "Feature", "properties": {"highway": "tertiary"}, "geometry": {"type": "LineString", "coordinates": [[-48.496794, -1.4635448], [-48.4969724, -1.4637069], [-48.4977852, -1.4644279], [-48.4979963, -1.4646282], [-48.4984764, -1.4650587], [-48.4991171, -1.4656399], [-48.4992381, -1.4657519], [-48.4998033, -1.4663341], [-48.5002926, -1.4667821], [-48.5010163, -1.4674584], [-48.5015738, -1.4679537]]}}, {"type": "Feature", "properties": {"highway": "residential"}, "geometry": {"type": "LineString", "coordinates": [[-48.4973689, -1.4740788], [-48.4975094, -1.4739339], [-48.4976096, -1.4738448], [-48.4977322, -1.4737365], [-48.4978755, -1.4735653], [-48.4981461, -1.4733527], [-48.498454, -1.4731071]]}}, {"type": "Feature", "properties": {"highway": "residential"}, "geometry": {"type": "LineString", "coordinates": [[-48.4981461, -1.4733527], [-48.4979698, -1.473089], [-48.4978763, -1.4729426], [-48.4975915, -1.4725897]]}}, {"type": "Feature", "properties": {"highway": "residential"}, "geometry": {"type": "LineString", "coordinates": [[-48.4977509, -1.4721283], [-48.4976384, -1.4720069], [-48.4973961, -1.4717319], [-48.4972988, -1.4716107], [-48.497226, -1.4715015], [-48.4971338, -1.4713654], [-48.4970187, -1.4711941], [-48.4969219, -1.471086], [-48.4964753, -1.4706116], [-48.4961351, -1.4702847], [-48.4959566, -1.4701117]]}}, {"type": "Feature", "properties": {"highway": "residential"}, "geometry": {"type": "LineString", "coordinates": [[-48.4951241, -1.4747395], [-48.4952907, -1.4750257], [-48.495513, -1.4754036]]}}, {"type": "Feature", "properties": {"highway": "residential"}, "geometry": {"type": "LineString", "coordinates": [[-48.4952523, -1.4746276], [-48.4953489, -1.4747389], [-48.4954179, -1.4748201], [-48.4954246, -1.4748415], [-48.4954568, -1.474875], [-48.4955413, -1.4749776], [-48.4956818, -1.4751411]]}}, {"type": "Feature", "properties": {"highway": "residential"}, "geometry": {"type": "LineString", "coordinates": [[-48.493744, -1.4749811], [-48.4940674, -1.4747282], [-48.4943128, -1.4745466], [-48.4948943, -1.474129]]}}, {"type": "Feature", "properties": {"highway": "residential"}, "geometry": {"type": "LineString", "coordinates": [[-48.4933988, -1.4745446], [-48.4940024, -1.4740652], [-48.4945277, -1.4736479]]}}, {"type": "Feature", "properties": {"highway": "residential"}, "geometry": {"type": "LineString", "coordinates": [[-48.4960075, -1.4739642], [-48.496485, -1.4745223], [-48.4968335, -1.4748838]]}}, {"type": "Feature", "properties": {"highway": "residential"}, "geometry": {"type": "LineString", "coordinates": [[-48.4965538, -1.4696532], [-48.49709, -1.4692608]]}}, {"type": "Feature", "properties": {"highway": "residential"}, "geometry": {"type": "LineString", "coordinates": [[-48.4971626, -1.4694373], [-48.4972608, -1.469547], [-48.4976151, -1.4699443], [-48.4980082, -1.4704222], [-48.4980203, -1.4704292], [-48.4980397, -1.4704289], [-48.4980766, -1.4704048], [-48.4980934, -1.4704021], [-48.4981135, -1.4703987]]}}, {"type": "Feature", "properties": {"highway": "residential"}, "geometry": {"type": "LineString", "coordinates": [[-48.4972608, -1.469547], [-48.4979015, -1.4690073]]}}, {"type": "Feature", "properties": {"highway": "residential"}, "geometry": {"type": "LineString", "coordinates": [[-48.4979328, -1.4690424], [-48.498354, -1.4686491]]}}, {"type": "Feature", "properties": {"highway": "residential"}, "geometry": {"type": "LineString", "coordinates": [[-48.4986738, -1.46723], [-48.4987018, -1.4672645], [-48.4991063, -1.4677628]]}}, {"type": "Feature", "properties": {"highway": "residential"}, "geometry": {"type": "LineString", "coordinates": [[-48.499349, -1.4675865], [-48.4997242, -1.4672655], [-48.4997674, -1.4673], [-48.4997296, -1.4673234], [-48.4998228, -1.4674595], [-48.499903, -1.4674541], [-48.4999276, -1.4674792], [-48.4999974, -1.4674741], [-48.5001795, -1.4676453], [-48.5005039, -1.4679428]]}}, {"type": "Feature", "properties": {"highway": "residential"}, "geometry": {"type": "LineString", "coordinates": [[-48.5010163, -1.4674584], [-48.5007076, -1.4677391], [-48.500601, -1.4678444], [-48.5005039, -1.4679428], [-48.5002026, -1.4683223], [-48.4999125, -1.468687]]}}, {"type": "Feature", "properties": {"highway": "residential"}, "geometry": {"type": "LineString", "coordinates": [[-48.5002026, -1.4683223], [-48.4998885, -1.4681007], [-48.4998757, -1.468098], [-48.4998603, -1.4680993], [-48.4997341, -1.4682317]]}}, {"type": "Feature", "properties": {"highway": "residential"}, "geometry": {"type": "LineString", "coordinates": [[-48.5013678, -1.4684722], [-48.5011538, -1.4683474], [-48.5011456, -1.468344], [-48.5011384, -1.4683427], [-48.50113, -1.468345], [-48.501125, -1.4683487], [-48.5008454, -1.4689842], [-48.5005785, -1.4695432], [-48.5005765, -1.469554], [-48.5005792, -1.4695647], [-48.5007161, -1.4696456]]}}, {"type": "Feature", "properties": {"highway": "residential"}, "geometry": {"type": "LineString", "coordinates": [[-48.5002926, -1.4667821], [-48.5005443, -1.4664838], [-48.5006037, -1.4664314], [-48.5008246, -1.4662653], [-48.5008601, -1.4662432], [-48.5008963, -1.4662452], [-48.5009298, -1.4662579], [-48.5010913, -1.4664915], [-48.5012383, -1.4666866], [-48.5012544, -1.466702], [-48.5012705, -1.4667124], [-48.5012926, -1.4667144], [-48.5014254, -1.4666413], [-48.5014375, -1.4666357], [-48.5014502, -1.466635], [-48.501466, -1.4666336], [-48.5014874, -1.46663], [-48.5015032, -1.4666413], [-48.5015125, -1.4666548], [-48.5015185, -1.4666634], [-48.5015313, -1.4666651], [-48.5015451, -1.4666541], [-48.5016467, -1.4665669], [-48.5017419, -1.4664792], [-48.5017751, -1.4664544], [-48.5018103, -1.4664269], [-48.5018201, -1.4664272], [-48.5018331, -1.4664463], [-48.5018659, -1.4664782], [-48.5020545, -1.4667032]]}}, {"type": "Feature", "properties": {"highway": "residential"}, "geometry": {"type": "LineString", "coordinates": [[-48.4938031, -1.4697894], [-48.4940385, -1.4700789]]}}, {"type": "Feature", "properties": {"highway": "residential"}, "geometry": {"type": "LineString", "coordinates": [[-48.4953052, -1.468053], [-48.4963934, -1.4671385]]}}, {"type": "Feature", "properties": {"highway": "residential"}, "geometry": {"type": "LineString", "coordinates": [[-48.4951986, -1.4656282], [-48.4961321, -1.4649037]]}}, {"type": "Feature", "properties": {"highway": "residential"}, "geometry": {"type": "LineString", "coordinates": [[-48.4947764, -1.4673935], [-48.4948457, -1.4673298]]}}, {"type": "Feature", "properties": {"highway": "residential"}, "geometry": {"type": "LineString", "coordinates": [[-48.4939034, -1.4662468], [-48.4943532, -1.4663842], [-48.4944905, -1.4664159], [-48.4951052, -1.4664811]]}}, {"type": "Feature", "properties": {"highway": "residential"}, "geometry": {"type": "LineString", "coordinates": [[-48.4958585, -1.4664501], [-48.4963451, -1.4660729]]}}, {"type": "Feature", "properties": {"highway": "residential"}, "geometry": {"type": "LineString", "coordinates": [[-48.4940518, -1.4672803], [-48.4936342, -1.4667484], [-48.4932443, -1.4662064]]}}, {"type": "Feature", "properties": {"highway": "residential"}, "geometry": {"type": "LineString", "coordinates": [[-48.4936342, -1.4667484], [-48.4929417, -1.4672675]]}}, {"type": "Feature", "properties": {"highway": "residential"}, "geometry": {"type": "LineString", "coordinates": [[-48.4947764, -1.4673935], [-48.4936854, -1.4682071]]}}, {"type": "Feature", "properties": {"highway": "living_street"}, "geometry": {"type": "LineString", "coordinates": [[-48.4910782, -1.4671726], [-48.4915755, -1.4667768]]}}, {"type": "Feature", "properties": {"highway": "living_street"}, "geometry": {"type": "LineString", "coordinates": [[-48.4907382, -1.4658458], [-48.4907703, -1.4658899]]}}, {"type": "Feature", "properties": {"highway": "residential"}, "geometry": {"type": "LineString", "coordinates": [[-48.4910749, -1.4655714], [-48.490839, -1.4652604], [-48.4906829, -1.4650781]]}}, {"type": "Feature", "properties": {"highway": "residential"}, "geometry": {"type": "LineString", "coordinates": [[-48.490839, -1.4652604], [-48.4911389, -1.4650219]]}}, {"type": "Feature", "properties": {"highway": "residential"}, "geometry": {"type": "LineString", "coordinates": [[-48.4899766, -1.4646673], [-48.4900367, -1.4647544]]}}, {"type": "Feature", "properties": {"highway": "tertiary"}, "geometry": {"type": "LineString", "coordinates": [[-48.4983887, -1.4718979], [-48.498153, -1.4721025], [-48.4980502, -1.4721917], [-48.497783, -1.4724235], [-48.4977264, -1.4724726], [-48.4975915, -1.4725897], [-48.4973061, -1.4728373], [-48.4969248, -1.4731687], [-48.4966848, -1.4733773], [-48.4966033, -1.4734439], [-48.4965079, -1.4735282], [-48.4963864, -1.4736355], [-48.496285, -1.4737275], [-48.4960075, -1.4739642], [-48.4959147, -1.4740447], [-48.4957714, -1.474169], [-48.4956895, -1.4742401], [-48.495571, -1.4743429], [-48.4953499, -1.4745348], [-48.4952523, -1.4746276], [-48.4951241, -1.4747395], [-48.4948218, -1.4750007], [-48.4941865, -1.4755443]]}}, {"type": "Feature", "properties": {"highway": "tertiary"}, "geometry": {"type": "LineString", "coordinates": [[-48.4995123, -1.4709355], [-48.499389, -1.4710436], [-48.4993161, -1.4711074], [-48.4988418, -1.4715151], [-48.4985033, -1.4718011], [-48.4983887, -1.4718979]]}}, {"type": "Feature", "properties": {"highway": "tertiary"}, "geometry": {"type": "LineString", "coordinates": [[-48.4896245, -1.4631313], [-48.489938, -1.4635303], [-48.4902582, -1.4639377], [-48.4904922, -1.4642354], [-48.4907689, -1.4645719], [-48.4909172, -1.4647436], [-48.4911389, -1.4650219], [-48.4913821, -1.4653423]]}}, {"type": "Feature", "properties": {"highway": "residential"}, "geometry": {"type": "LineString", "coordinates": [[-48.4936353, -1.4659196], [-48.492486, -1.4644505]]}}, {"type": "Feature", "properties": {"highway": "residential"}, "geometry": {"type": "LineString", "coordinates": [[-48.4892314, -1.4670563], [-48.4897486, -1.4677008], [-48.4903608, -1.4684632], [-48.490941, -1.4691867], [-48.4911717, -1.4694681]]}}, {"type": "Feature", "properties": {"highway": "tertiary"}, "geometry": {"type": "LineString", "coordinates": [[-48.4982331, -1.471708], [-48.4983668, -1.471596], [-48.4986709, -1.4713398], [-48.4992452, -1.4708689], [-48.4993741, -1.4707632], [-48.499548, -1.4706192], [-48.4999288, -1.4702988], [-48.500165, -1.4700999], [-48.5002202, -1.470048]]}}, {"type": "Feature", "properties": {"highway": "residential"}, "geometry": {"type": "LineString", "coordinates": [[-48.4958409, -1.4644826], [-48.4961321, -1.4649037], [-48.4965322, -1.4653966], [-48.4971284, -1.4661607], [-48.4974273, -1.466538], [-48.4976418, -1.4668046], [-48.4982441, -1.4675593], [-48.4988004, -1.4682215], [-48.5002202, -1.470048]]}}, {"type": "Feature", "properties": {"highway": "residential"}, "geometry": {"type": "LineString", "coordinates": [[-48.4998116, -1.4712989], [-48.4994636, -1.4715819], [-48.4994334, -1.4716815], [-48.4994763, -1.4717936], [-48.4996991, -1.472101]]}}, {"type": "Feature", "properties": {"highway": "residential"}, "geometry": {"type": "LineString", "coordinates": [[-48.4907717, -1.472406], [-48.4906098, -1.4723039]]}}, {"type": "Feature", "properties": {"highway": "residential"}, "geometry": {"type": "LineString", "coordinates": [[-48.4947559, -1.4650783], [-48.4951758, -1.4647651], [-48.4955775, -1.4644608], [-48.4956872, -1.4644325], [-48.4957467, -1.4644297], [-48.4957822, -1.4644401]]}}, {"type": "Feature", "properties": {"highway": "residential"}, "geometry": {"type": "LineString", "coordinates": [[-48.4961351, -1.4702847], [-48.4966313, -1.4697491]]}}, {"type": "Feature", "properties": {"highway": "tertiary_link"}, "geometry": {"type": "LineString", "coordinates": [[-48.5009552, -1.470916], [-48.5008759, -1.4709809]]}}, {"type": "Feature", "properties": {"highway": "residential"}, "geometry": {"type": "LineString", "coordinates": [[-48.4965079, -1.4735282], [-48.4968488, -1.4739303], [-48.4971768, -1.4742757]]}}, {"type": "Feature", "properties": {"highway": "residential"}, "geometry": {"type": "LineString", "coordinates": [[-48.4948218, -1.4750007], [-48.4949519, -1.4752357]]}}, {"type": "Feature", "properties": {"highway": "residential"}, "geometry": {"type": "LineString", "coordinates": [[-48.495571, -1.4743429], [-48.4960353, -1.4749401]]}}, {"type": "Feature", "properties": {"highway": "residential"}, "geometry": {"type": "LineString", "coordinates": [[-48.4908576, -1.4737963], [-48.491009, -1.4736457], [-48.4910707, -1.4735652], [-48.491241, -1.4733695], [-48.491406, -1.4731469], [-48.4915106, -1.4729297], [-48.4915414, -1.4728855], [-48.4918196, -1.47258]]}}, {"type": "Feature", "properties": {"highway": "residential"}, "geometry": {"type": "LineString", "coordinates": [[-48.4932554, -1.4732341], [-48.4926499, -1.4736255]]}}, {"type": "Feature", "properties": {"highway": "residential"}, "geometry": {"type": "LineString", "coordinates": [[-48.4925697, -1.4735245], [-48.4927954, -1.4733527], [-48.492904, -1.4733078], [-48.4931528, -1.4731161], [-48.4937155, -1.4726622]]}}, {"type": "Feature", "properties": {"highway": "residential"}, "geometry": {"type": "LineString", "coordinates": [[-48.4923858, -1.4738521], [-48.4921348, -1.473836]]}}, {"type": "Feature", "properties": {"highway": "residential"}, "geometry": {"type": "LineString", "coordinates": [[-48.490467, -1.4732804], [-48.4903713, -1.4733949]]}}, {"type": "Feature", "properties": {"highway": "residential"}, "geometry": {"type": "LineString", "coordinates": [[-48.4902316, -1.4740322], [-48.4901708, -1.473952], [-48.4900937, -1.4738521]]}}, {"type": "Feature", "properties": {"highway": "residential"}, "geometry": {"type": "LineString", "coordinates": [[-48.4896491, -1.4722353], [-48.4898181, -1.4723653]]}}, {"type": "Feature", "properties": {"highway": "tertiary"}, "geometry": {"type": "LineString", "coordinates": [[-48.4941865, -1.4755443], [-48.4940422, -1.4753613], [-48.4938227, -1.4750833], [-48.493744, -1.4749811], [-48.4936153, -1.4748183], [-48.4933988, -1.4745446], [-48.492862, -1.4739032]]}}, {"type": "Feature", "properties": {"highway": "residential"}, "geometry": {"type": "LineString", "coordinates": [[-48.4905629, -1.4747127], [-48.4906295, -1.4748951], [-48.4906061, -1.4749179], [-48.4905818, -1.4749394], [-48.4905294, -1.4749823], [-48.4905334, -1.4750029]]}}, {"type": "Feature", "properties": {"highway": "residential"}, "geometry": {"type": "LineString", "coordinates": [[-48.4901651, -1.4748345], [-48.4902131, -1.4748831], [-48.4902312, -1.4749085], [-48.4902339, -1.474926], [-48.4902252, -1.4749434], [-48.4900914, -1.475072], [-48.4900301, -1.4751236], [-48.4899324, -1.4752036], [-48.4897429, -1.4753498]]}}, {"type": "Feature", "properties": {"highway": "residential"}, "geometry": {"type": "LineString", "coordinates": [[-48.4906534, -1.4726574], [-48.4907717, -1.472406]]}}, {"type": "Feature", "properties": {"highway": "residential"}, "geometry": {"type": "LineString", "coordinates": [[-48.4907717, -1.472406], [-48.4908242, -1.4723276], [-48.4910542, -1.4720728], [-48.4912668, -1.4718838]]}}, {"type": "Feature", "properties": {"highway": "residential"}, "geometry": {"type": "LineString", "coordinates": [[-48.4906098, -1.4723039], [-48.4905043, -1.4725594]]}}, {"type": "Feature", "properties": {"highway": "residential"}, "geometry": {"type": "LineString", "coordinates": [[-48.4907878, -1.4719758], [-48.4907012, -1.47213], [-48.4906098, -1.4723039]]}}, {"type": "Feature", "properties": {"highway": "residential"}, "geometry": {"type": "LineString", "coordinates": [[-48.4898999, -1.4730752], [-48.4897359, -1.4733267], [-48.4895548, -1.4736131]]}}, {"type": "Feature", "properties": {"highway": "tertiary"}, "geometry": {"type": "LineString", "coordinates": [[-48.492862, -1.4739032], [-48.4926499, -1.4736255], [-48.4925697, -1.4735245], [-48.4924867, -1.4734196], [-48.4923476, -1.4732448], [-48.4922542, -1.4731272], [-48.4918915, -1.4726705], [-48.4918196, -1.47258], [-48.4912668, -1.4718838], [-48.4907272, -1.4712045], [-48.4903791, -1.4707661], [-48.4901358, -1.4704501], [-48.4892589, -1.4693649]]}}, {"type": "Feature", "properties": {"highway": "residential"}, "geometry": {"type": "LineString", "coordinates": [[-48.4947559, -1.4650783], [-48.4937018, -1.4658697], [-48.4936353, -1.4659196], [-48.4932443, -1.4662064], [-48.492871, -1.4664862], [-48.4925244, -1.4667469]]}}, {"type": "Feature", "properties": {"highway": "residential"}, "geometry": {"type": "LineString", "coordinates": [[-48.4944642, -1.4669714], [-48.4940518, -1.4672803], [-48.4933646, -1.4677969], [-48.4922817, -1.4686731]]}}, {"type": "Feature", "properties": {"highway": "residential"}, "geometry": {"type": "LineString", "coordinates": [[-48.4951052, -1.4664811], [-48.4944642, -1.4669714]]}}, {"type": "Feature", "properties": {"highway": "residential"}, "geometry": {"type": "LineString", "coordinates": [[-48.495594, -1.4661059], [-48.4951052, -1.4664811]]}}, {"type": "Feature", "properties": {"highway": "residential"}, "geometry": {"type": "LineString", "coordinates": [[-48.4965322, -1.4653966], [-48.495594, -1.4661059]]}}, {"type": "Feature", "properties": {"highway": "residential"}, "geometry": {"type": "LineString", "coordinates": [[-48.5009148, -1.4601525], [-48.5001814, -1.4612177], [-48.4998595, -1.46163], [-48.4997592, -1.4617687], [-48.4994839, -1.4621493], [-48.4985561, -1.4633745], [-48.4981832, -1.4638776], [-48.4980501, -1.4640638], [-48.4977852, -1.4644279], [-48.497252, -1.4648448], [-48.4965322, -1.4653966]]}}, {"type": "Feature", "properties": {"highway": "residential"}, "geometry": {"type": "LineString", "coordinates": [[-48.4948124, -1.4696425], [-48.4946272, -1.469745], [-48.4942792, -1.4699826]]}}, {"type": "Feature", "properties": {"highway": "tertiary"}, "geometry": {"type": "LineString", "coordinates": [[-48.5003482, -1.4702058], [-48.5002906, -1.4702506], [-48.5000546, -1.4704501], [-48.4995123, -1.4709355]]}}, {"type": "Feature", "properties": {"highway": "tertiary"}, "geometry": {"type": "LineString", "coordinates": [[-48.495594, -1.4661059], [-48.4951986, -1.4656282], [-48.4947559, -1.4650783], [-48.4945703, -1.4648491], [-48.4943411, -1.4645303], [-48.4935639, -1.4636049]]}}, {"type": "Feature", "properties": {"highway": "residential"}, "geometry": {"type": "LineString", "coordinates": [[-48.4913821, -1.4653423], [-48.4925244, -1.4667469]]}}, {"type": "Feature", "properties": {"highway": "residential"}, "geometry": {"type": "LineString", "coordinates": [[-48.4911717, -1.4694681], [-48.4912597, -1.469507]]}}, {"type": "Feature", "properties": {"highway": "residential"}, "geometry": {"type": "LineString", "coordinates": [[-48.4911945, -1.469561], [-48.4911717, -1.4694681]]}}, {"type": "Feature", "properties": {"highway": "residential"}, "geometry": {"type": "LineString", "coordinates": [[-48.4940654, -1.4707689], [-48.494221, -1.4708617]]}}, {"type": "Feature", "properties": {"highway": "residential"}, "geometry": {"type": "LineString", "coordinates": [[-48.4941345, -1.4709331], [-48.4940654, -1.4707689]]}}, {"type": "Feature", "properties": {"highway": "service"}, "geometry": {"type": "LineString", "coordinates": [[-48.4949073, -1.4689182], [-48.4946508, -1.4685918]]}}, {"type": "Feature", "properties": {"highway": "service"}, "geometry": {"type": "LineString", "coordinates": [[-48.4965009, -1.4749984], [-48.4957714, -1.474169]]}}, {"type": "Feature", "properties": {"highway": "service"}, "geometry": {"type": "LineString", "coordinates": [[-48.4938227, -1.4750833], [-48.4937445, -1.4751484], [-48.4937082, -1.4751763], [-48.4936728, -1.4752048], [-48.4935942, -1.4752691], [-48.4935427, -1.4753094], [-48.4934946, -1.4753459], [-48.4934414, -1.475389], [-48.493354, -1.4754581], [-48.4933285, -1.4754767], [-48.4932923, -1.4755016], [-48.4932872, -1.4754471], [-48.493279, -1.4753332], [-48.4932684, -1.4751851], [-48.4932563, -1.4750175], [-48.4932293, -1.4746759], [-48.49326, -1.4746521], [-48.4933988, -1.4745446]]}}, {"type": "Feature", "properties": {"highway": "residential"}, "geometry": {"type": "LineString", "coordinates": [[-48.4982331, -1.471708], [-48.4966393, -1.4697594], [-48.4966313, -1.4697491], [-48.4965538, -1.4696532], [-48.4961934, -1.4692052], [-48.4958619, -1.46879], [-48.4955655, -1.4684029], [-48.4953052, -1.468053], [-48.4950998, -1.4677787], [-48.4947764, -1.4673935], [-48.4944642, -1.4669714], [-48.4939034, -1.4662468], [-48.4936353, -1.4659196]]}}, {"type": "Feature", "properties": {"highway": "residential"}, "geometry": {"type": "LineString", "coordinates": [[-48.4914252, -1.4676125], [-48.4922817, -1.4686731], [-48.4929447, -1.4694886], [-48.4934475, -1.4700861], [-48.4940654, -1.4707689]]}}, {"type": "Feature", "properties": {"highway": "residential"}, "geometry": {"type": "LineString", "coordinates": [[-48.4902896, -1.4662015], [-48.4897689, -1.465527], [-48.4894503, -1.4651144], [-48.4885297, -1.4639636], [-48.4877168, -1.4629517], [-48.4876871, -1.4629136], [-48.4876404, -1.4628611]]}}, {"type": "Feature", "properties": {"highway": "residential"}, "geometry": {"type": "LineString", "coordinates": [[-48.4977322, -1.4737365], [-48.4981759, -1.4743133]]}}, {"type": "Feature", "properties": {"highway": "residential"}, "geometry": {"type": "LineString", "coordinates": [[-48.5008086, -1.4735808], [-48.5005148, -1.4731932]]}}, {"type": "Feature", "properties": {"highway": "service"}, "geometry": {"type": "LineString", "coordinates": [[-48.4976313, -1.4649477], [-48.4977947, -1.4651357]]}}, {"type": "Feature", "properties": {"highway": "service"}, "geometry": {"type": "LineString", "coordinates": [[-48.4978965, -1.4647209], [-48.4976313, -1.4649477], [-48.497383, -1.4651507], [-48.4975585, -1.4653603]]}}, {"type": "Feature", "properties": {"highway": "service"}, "geometry": {"type": "LineString", "coordinates": [[-48.5009047, -1.471016], [-48.5007012, -1.4712164], [-48.5006569, -1.4713055], [-48.5006603, -1.4714007], [-48.5007079, -1.4714959], [-48.5010586, -1.4718921], [-48.501308, -1.472179]]}}, {"type": "Feature", "properties": {"highway": "service"}, "geometry": {"type": "LineString", "coordinates": [[-48.492871, -1.4664862], [-48.4928088, -1.4664128], [-48.4926593, -1.466219], [-48.4926499, -1.4661889], [-48.4926512, -1.4661473], [-48.492668, -1.4660917]]}}, {"type": "Feature", "properties": {"highway": "living_street"}, "geometry": {"type": "LineString", "coordinates": [[-48.4907703, -1.4658899], [-48.491029, -1.4662365]]}}, {"type": "Feature", "properties": {"highway": "residential"}, "geometry": {"type": "LineString", "coordinates": [[-48.4914252, -1.4676125], [-48.4910782, -1.4671726], [-48.4902896, -1.4662015]]}}, {"type": "Feature", "properties": {"highway": "residential"}, "geometry": {"type": "LineString", "coordinates": [[-48.493001, -1.4717752], [-48.4923379, -1.470976], [-48.4918448, -1.4703722], [-48.4911945, -1.469561]]}}, {"type": "Feature", "properties": {"highway": "residential"}, "geometry": {"type": "LineString", "coordinates": [[-48.4900367, -1.4647544], [-48.4903477, -1.4651587]]}}, {"type": "Feature", "properties": {"highway": "tertiary"}, "geometry": {"type": "LineString", "coordinates": [[-48.5001286, -1.4740669], [-48.5000249, -1.4739935]]}}, {"type": "Feature", "properties": {"highway": "tertiary"}, "geometry": {"type": "LineString", "coordinates": [[-48.5000519, -1.4739016], [-48.5000733, -1.4739059], [-48.5000977, -1.4739081], [-48.5001535, -1.473905]]}}, {"type": "Feature", "properties": {"highway": "tertiary"}, "geometry": {"type": "LineString", "coordinates": [[-48.5000249, -1.4739935], [-48.4999123, -1.473897], [-48.4998167, -1.4738038]]}}, {"type": "Feature", "properties": {"highway": "tertiary"}, "geometry": {"type": "LineString", "coordinates": [[-48.4998167, -1.4738038], [-48.4999327, -1.4738642], [-48.5000519, -1.4739016]]}}, {"type": "Feature", "properties": {"highway": "tertiary"}, "geometry": {"type": "LineString", "coordinates": [[-48.5001535, -1.473905], [-48.5002043, -1.4738997], [-48.5003036, -1.4738682], [-48.5004578, -1.4737911], [-48.5007776, -1.4735954], [-48.5008086, -1.4735808], [-48.5011644, -1.4734148]]}}, {"type": "Feature", "properties": {"highway": "tertiary"}, "geometry": {"type": "LineString", "coordinates": [[-48.5002906, -1.4702506], [-48.500165, -1.4700999]]}}, {"type": "Feature", "properties": {"highway": "residential"}, "geometry": {"type": "LineString", "coordinates": [[-48.4948457, -1.4673298], [-48.4950773, -1.4671153], [-48.4953088, -1.4669175]]}}, {"type": "Feature", "properties": {"highway": "service"}, "geometry": {"type": "LineString", "coordinates": [[-48.4945517, -1.4735567], [-48.4947697, -1.4733597], [-48.4949918, -1.4731643], [-48.495013, -1.4731788]]}}, {"type": "Feature", "properties": {"highway": "residential"}, "geometry": {"type": "LineString", "coordinates": [[-48.4940024, -1.4740652], [-48.4937083, -1.4737408]]}}, {"type": "Feature", "properties": {"highway": "residential"}, "geometry": {"type": "LineString", "coordinates": [[-48.489952, -1.4719135], [-48.4901039, -1.4720142], [-48.4902487, -1.4720898]]}}, {"type": "Feature", "properties": {"highway": "residential"}, "geometry": {"type": "LineString", "coordinates": [[-48.4866338, -1.4767668], [-48.4867312, -1.4766168], [-48.4869881, -1.4762023], [-48.4870522, -1.4760965], [-48.4872226, -1.4758174], [-48.4874485, -1.4754335], [-48.4875188, -1.4753069], [-48.4876833, -1.4750343], [-48.4877501, -1.4749085], [-48.4877948, -1.4748031], [-48.4878601, -1.4746873], [-48.4880558, -1.4743889], [-48.488167, -1.474199], [-48.4882381, -1.4740652], [-48.4884836, -1.4737219], [-48.4888901, -1.4731492], [-48.4889525, -1.4730666], [-48.4891383, -1.4728176], [-48.4895646, -1.4723216], [-48.4896491, -1.4722353], [-48.4896788, -1.4722049], [-48.4897511, -1.4721192], [-48.489952, -1.4719135], [-48.4902278, -1.4716237], [-48.4904793, -1.4714027], [-48.4907272, -1.4712045], [-48.4910613, -1.4709335], [-48.4918448, -1.4703722], [-48.4918532, -1.470365]]}}, {"type": "Feature", "properties": {"highway": "residential"}, "geometry": {"type": "LineString", "coordinates": [[-48.4918532, -1.470365], [-48.4918756, -1.4703467]]}}, {"type": "Feature", "properties": {"highway": "residential"}, "geometry": {"type": "LineString", "coordinates": [[-48.490941, -1.4691867], [-48.4913492, -1.468817]]}}, {"type": "Feature", "properties": {"highway": "residential"}, "geometry": {"type": "LineString", "coordinates": [[-48.4897689, -1.465527], [-48.4898012, -1.4654984], [-48.489857, -1.4654502], [-48.489891, -1.4654204], [-48.4899107, -1.4654046], [-48.4899482, -1.4653778]]}}, {"type": "Feature", "properties": {"highway": "residential"}, "geometry": {"type": "LineString", "coordinates": [[-48.4900287, -1.4693166], [-48.4899053, -1.4692174], [-48.4898758, -1.4691826], [-48.4897132, -1.4689758]]}}, {"type": "Feature", "properties": {"highway": "service"}, "geometry": {"type": "LineString", "coordinates": [[-48.4980316, -1.4649133], [-48.4977947, -1.4651357], [-48.4975585, -1.4653603], [-48.4973842, -1.4655163], [-48.4971905, -1.46567]]}}, {"type": "Feature", "properties": {"highway": "service"}, "geometry": {"type": "LineString", "coordinates": [[-48.497199, -1.4653012], [-48.4973842, -1.4655163]]}}, {"type": "Feature", "properties": {"highway": "service"}, "geometry": {"type": "LineString", "coordinates": [[-48.497383, -1.4651507], [-48.497199, -1.4653012], [-48.4970077, -1.4654534]]}}, {"type": "Feature", "properties": {"highway": "service"}, "geometry": {"type": "LineString", "coordinates": [[-48.4971905, -1.46567], [-48.4970077, -1.4654534]]}}, {"type": "Feature", "properties": {"highway": "residential"}, "geometry": {"type": "LineString", "coordinates": [[-48.4952631, -1.472343], [-48.4951597, -1.472424], [-48.4950531, -1.4725171], [-48.4948711, -1.4726418], [-48.4945807, -1.4728841], [-48.4944355, -1.4730045], [-48.4942865, -1.4731204], [-48.4942314, -1.4731534]]}}, {"type": "Feature", "properties": {"highway": "residential"}, "geometry": {"type": "LineString", "coordinates": [[-48.4950555, -1.4720918], [-48.4949791, -1.4721666], [-48.494566, -1.4725714], [-48.4941143, -1.4729346], [-48.4940716, -1.472952]]}}, {"type": "Feature", "properties": {"highway": "residential"}, "geometry": {"type": "LineString", "coordinates": [[-48.4948568, -1.4718433], [-48.4946666, -1.4720077], [-48.4944822, -1.4721823], [-48.4943946, -1.472254], [-48.4943014, -1.4723184], [-48.4942652, -1.4723254], [-48.4941057, -1.4724604]]}}, {"type": "Feature", "properties": {"highway": "residential"}, "geometry": {"type": "LineString", "coordinates": [[-48.4955552, -1.4726788], [-48.4953453, -1.4728501], [-48.4953715, -1.4728806], [-48.4952293, -1.4729947], [-48.4952464, -1.4730177], [-48.4952174, -1.4730417], [-48.4951514, -1.4730826], [-48.495013, -1.4731788]]}}, {"type": "Feature", "properties": {"highway": "residential"}, "geometry": {"type": "LineString", "coordinates": [[-48.4957316, -1.4728998], [-48.4951775, -1.4733483], [-48.4951272, -1.4733775], [-48.4950377, -1.47346], [-48.4947805, -1.4736852], [-48.494707, -1.4737368]]}}, {"type": "Feature", "properties": {"highway": "service"}, "geometry": {"type": "LineString", "coordinates": [[-48.4981461, -1.4733527], [-48.4985369, -1.4739079]]}}, {"type": "Feature", "properties": {"highway": "residential"}, "geometry": {"type": "LineString", "coordinates": [[-48.4898889, -1.4647418], [-48.4894639, -1.4641923]]}}, {"type": "Feature", "properties": {"highway": "tertiary"}, "geometry": {"type": "LineString", "coordinates": [[-48.5006721, -1.4740785], [-48.5005349, -1.4741222], [-48.5003666, -1.4741356], [-48.5002157, -1.4741015], [-48.5001286, -1.4740669]]}}, {"type": "Feature", "properties": {"highway": "residential"}, "geometry": {"type": "LineString", "coordinates": [[-48.4979963, -1.4646282], [-48.4978965, -1.4647209]]}}, {"type": "Feature", "properties": {"highway": "residential"}, "geometry": {"type": "LineString", "coordinates": [[-48.4898329, -1.4665704], [-48.4896461, -1.4663418]]}}, {"type": "Feature", "properties": {"highway": "residential"}, "geometry": {"type": "LineString", "coordinates": [[-48.4966033, -1.4734439], [-48.4970598, -1.4739119]]}}, {"type": "Feature", "properties": {"highway": "residential"}, "geometry": {"type": "LineString", "coordinates": [[-48.4909658, -1.4647029], [-48.4909172, -1.4647436]]}}, {"type": "Feature", "properties": {"highway": "residential"}, "geometry": {"type": "LineString", "coordinates": [[-48.4908268, -1.4645277], [-48.4910405, -1.4643622], [-48.4910948, -1.464316], [-48.4911585, -1.4642584], [-48.4911921, -1.4642992], [-48.4912316, -1.4643528], [-48.4912725, -1.4644051], [-48.4912873, -1.4644299], [-48.4913074, -1.4644521], [-48.4909658, -1.4647029]]}}, {"type": "Feature", "properties": {"highway": "service"}, "geometry": {"type": "LineString", "coordinates": [[-48.4935167, -1.4749957], [-48.4932684, -1.4751851]]}}, {"type": "Feature", "properties": {"highway": "service"}, "geometry": {"type": "LineString", "coordinates": [[-48.4934325, -1.4748831], [-48.4932563, -1.4750175]]}}, {"type": "Feature", "properties": {"highway": "service"}, "geometry": {"type": "LineString", "coordinates": [[-48.4934707, -1.4749342], [-48.4936153, -1.4748183]]}}, {"type": "Feature", "properties": {"highway": "service"}, "geometry": {"type": "LineString", "coordinates": [[-48.4936728, -1.4752048], [-48.4935904, -1.4750945], [-48.4935167, -1.4749957], [-48.4934707, -1.4749342], [-48.4934325, -1.4748831], [-48.49326, -1.4746521]]}}, {"type": "Feature", "properties": {"highway": "tertiary_link"}, "geometry": {"type": "LineString", "coordinates": [[-48.4969248, -1.4731687], [-48.4968346, -1.4731474], [-48.4967755, -1.4730815], [-48.4967776, -1.4729748]]}}, {"type": "Feature", "properties": {"highway": "tertiary_link"}, "geometry": {"type": "LineString", "coordinates": [[-48.4979993, -1.4719118], [-48.4980847, -1.4719457], [-48.4981424, -1.4720181], [-48.498153, -1.4721025]]}}, {"type": "Feature", "properties": {"highway": "residential"}, "geometry": {"type": "LineString", "coordinates": [[-48.4973061, -1.4728373], [-48.4974125, -1.4729771], [-48.4975562, -1.4731599], [-48.4978755, -1.4735653]]}}, {"type": "Feature", "properties": {"highway": "tertiary"}, "geometry": {"type": "LineString", "coordinates": [[-48.4940422, -1.4753613], [-48.4951163, -1.474425], [-48.4952016, -1.474348], [-48.4962112, -1.4734705], [-48.496352, -1.4733478], [-48.4967776, -1.4729748], [-48.4971543, -1.4726484], [-48.4977509, -1.4721283], [-48.4979993, -1.4719118], [-48.4982331, -1.471708]]}}]}