{"type": "FeatureCollection", "features": [{"type": "Feature", "properties": {"highway": "unclassified"}, "geometry": {"type": "LineString", "coordinates": [[-16.0210081, 18.1036186], [-16.0210275, 18.1034363], [-16.0210576, 18.1033393], [-16.0211132, 18.1032354], [-16.0211883, 18.1031472], [-16.0212866, 18.1030618], [-16.0214238, 18.1029774], [-16.0216033, 18.1028777]]}}, {"type": "Feature", "properties": {"highway": "service"}, "geometry": {"type": "LineString", "coordinates": [[-16.0263114, 18.1036485], [-16.0257104, 18.1036449]]}}, {"type": "Feature", "properties": {"highway": "secondary"}, "geometry": {"type": "LineString", "coordinates": [[-16.019066, 18.0973669], [-16.0192246, 18.097606], [-16.0193477, 18.0978154], [-16.0193996, 18.0979266], [-16.0194658, 18.0980945], [-16.0195166, 18.0982551], [-16.0196678, 18.0987997], [-16.0199748, 18.0998753]]}}, {"type": "Feature", "properties": {"highway": "primary"}, "geometry": {"type": "LineString", "coordinates": [[-16.0210081, 18.1036186], [-16.0211697, 18.1041463], [-16.0213025, 18.1046696], [-16.0213548, 18.1048531], [-16.0215315, 18.1054863], [-16.0217319, 18.1062042], [-16.0217485, 18.1062626], [-16.0218406, 18.1065872], [-16.0218706, 18.1066927], [-16.0219555, 18.1069916], [-16.0225275, 18.1090031], [-16.0226878, 18.1096206], [-16.0228245, 18.1101656], [-16.0228582, 18.1103789]]}}, {"type": "Feature", "properties": {"highway": "unclassified"}, "geometry": {"type": "LineString", "coordinates": [[-16.0213548, 18.1048531], [-16.021048, 18.1048483], [-16.0207472, 18.1048416], [-16.0205072, 18.1048412], [-16.0201932, 18.1048407], [-16.0198398, 18.1048381], [-16.0194761, 18.1048174], [-16.0187684, 18.1047793], [-16.0180765, 18.104742], [-16.0174903, 18.1047104], [-16.0173381, 18.1047022], [-16.0172376, 18.1046984], [-16.0166036, 18.1046744], [-16.0158491, 18.1046498]]}}, {"type": "Feature", "properties": {"highway": "residential"}, "geometry": {"type": "LineString", "coordinates": [[-16.0193477, 18.0978154], [-16.0190306, 18.0983286], [-16.0188402, 18.0986366], [-16.0186389, 18.0989625], [-16.0182413, 18.0996059], [-16.0179007, 18.1001571], [-16.0178206, 18.1002867], [-16.0172704, 18.1011771], [-16.0170382, 18.1015361], [-16.0168759, 18.1018221], [-16.0166527, 18.1021767], [-16.0164338, 18.1025311], [-16.0156208, 18.1038468], [-16.0151507, 18.1046075]]}}, {"type": "Feature", "properties": {"highway": "residential"}, "geometry": {"type": "LineString", "coordinates": [[-16.0179891, 18.102437], [-16.0175352, 18.1031685], [-16.0166036, 18.1046744]]}}, {"type": "Feature", "properties": {"highway": "residential"}, "geometry": {"type": "LineString", "coordinates": [[-16.0185613, 18.1027624], [-16.0180869, 18.1034878], [-16.0173381, 18.1047022]]}}, {"type": "Feature", "properties": {"highway": "residential"}, "geometry": {"type": "LineString", "coordinates": [[-16.0196758, 18.1033962], [-16.0187684, 18.1047793]]}}, {"type": "Feature", "properties": {"highway": "residential"}, "geometry": {"type": "LineString", "coordinates": [[-16.0201969, 18.1036926], [-16.0194761, 18.1048174]]}}, {"type": "Feature", "properties": {"highway": "residential"}, "geometry": {"type": "LineString", "coordinates": [[-16.0207616, 18.1039548], [-16.0201932, 18.1048407]]}}, {"type": "Feature", "properties": {"highway": "residential"}, "geometry": {"type": "LineString", "coordinates": [[-16.0194304, 18.1025364], [-16.0188024, 18.102178], [-16.018399, 18.1019478], [-16.0177638, 18.1015853]]}}, {"type": "Feature", "properties": {"highway": "residential"}, "geometry": {"type": "LineString", "coordinates": [[-16.0186389, 18.0989625], [-16.0184299, 18.0988458], [-16.0182752, 18.0987623], [-16.0179574, 18.0985875], [-16.0175854, 18.0983828], [-16.0172773, 18.0982133], [-16.0169429, 18.0980294], [-16.0166282, 18.0978563], [-16.016289, 18.0976697], [-16.0159555, 18.0974862], [-16.0151908, 18.0970656]]}}, {"type": "Feature", "properties": {"highway": "residential"}, "geometry": {"type": "LineString", "coordinates": [[-16.0178206, 18.1002867], [-16.0174803, 18.1000948], [-16.0171509, 18.0999078], [-16.016795, 18.0997066], [-16.0164764, 18.0995257], [-16.0161452, 18.0993381], [-16.0158318, 18.0991655], [-16.0155089, 18.0989877], [-16.0151655, 18.0987986], [-16.0147776, 18.098585], [-16.0143861, 18.0983692]]}}, {"type": "Feature", "properties": {"highway": "residential"}, "geometry": {"type": "LineString", "coordinates": [[-16.0182413, 18.0996059], [-16.0178889, 18.0994098], [-16.0175722, 18.0992333], [-16.0171979, 18.0990248], [-16.0168876, 18.0988519], [-16.0165546, 18.0986665], [-16.0162414, 18.0984921], [-16.0159111, 18.0983082], [-16.0155737, 18.0981205], [-16.015204, 18.0979144], [-16.0148043, 18.0976917]]}}, {"type": "Feature", "properties": {"highway": "residential"}, "geometry": {"type": "LineString", "coordinates": [[-16.0172108, 18.1066216], [-16.0174763, 18.106509], [-16.0175768, 18.1064828], [-16.0185707, 18.1062234], [-16.0188063, 18.1061826], [-16.0193902, 18.1060368], [-16.0194799, 18.1060144], [-16.020121, 18.1058793], [-16.0207218, 18.1057582], [-16.0210396, 18.1056561], [-16.0213188, 18.1055386], [-16.0215315, 18.1054863]]}}, {"type": "Feature", "properties": {"highway": "track"}, "geometry": {"type": "LineString", "coordinates": [[-16.019392, 18.1083364], [-16.019437, 18.1084567], [-16.0197082, 18.1087372], [-16.0198313, 18.1088646], [-16.0206896, 18.109558], [-16.0214299, 18.110231], [-16.0220421, 18.1107992], [-16.0221341, 18.1108204], [-16.022886, 18.1108131]]}}, {"type": "Feature", "properties": {"highway": "residential"}, "geometry": {"type": "LineString", "coordinates": [[-16.0190159, 18.1070214], [-16.0191295, 18.1074169], [-16.019209, 18.1076537], [-16.0192385, 18.1077811], [-16.019392, 18.1083364]]}}, {"type": "Feature", "properties": {"highway": "service"}, "geometry": {"type": "LineString", "coordinates": [[-16.0260662, 18.1008241], [-16.025469, 18.1008353], [-16.0235323, 18.1007697], [-16.0218783, 18.1007108], [-16.0215502, 18.100703], [-16.0210429, 18.1006909], [-16.0202022, 18.1007374]]}}, {"type": "Feature", "properties": {"highway": "service"}, "geometry": {"type": "LineString", "coordinates": [[-16.0257104, 18.1036449], [-16.0257052, 18.1034956], [-16.0257052, 18.1034267], [-16.0257106, 18.1029971]]}}, {"type": "Feature", "properties": {"highway": "unclassified"}, "geometry": {"type": "LineString", "coordinates": [[-16.0216033, 18.1028777], [-16.0214011, 18.1028541], [-16.0212623, 18.1028307], [-16.0211097, 18.1027854], [-16.0210047, 18.1027296], [-16.0208892, 18.102647], [-16.0207694, 18.1025277], [-16.0206521, 18.1023865]]}}, {"type": "Feature", "properties": {"highway": "service"}, "geometry": {"type": "LineString", "coordinates": [[-16.0257104, 18.1036449], [-16.0256195, 18.1036332], [-16.0255791, 18.1036188]]}}, {"type": "Feature", "properties": {"highway": "service"}, "geometry": {"type": "LineString", "coordinates": [[-16.02579, 18.1044705], [-16.0257627, 18.1040543], [-16.0257104, 18.1036449]]}}, {"type": "Feature", "properties": {"highway": "service"}, "geometry": {"type": "LineString", "coordinates": [[-16.0255791, 18.1036188], [-16.0255659, 18.1035669], [-16.0255801, 18.1029933]]}}, {"type": "Feature", "properties": {"highway": "residential"}, "geometry": {"type": "LineString", "coordinates": [[-16.0207616, 18.1039548], [-16.0210081, 18.1036186]]}}, {"type": "Feature", "properties": {"highway": "unclassified"}, "geometry": {"type": "LineString", "coordinates": [[-16.0257106, 18.1029971], [-16.0255801, 18.1029933], [-16.0253498, 18.1029866], [-16.0249046, 18.1029737], [-16.0242803, 18.1029555], [-16.0234131, 18.1029303], [-16.0232853, 18.1029266], [-16.0224209, 18.1029015], [-16.0221653, 18.102894], [-16.0216033, 18.1028777]]}}, {"type": "Feature", "properties": {"highway": "primary"}, "geometry": {"type": "LineString", "coordinates": [[-16.0199748, 18.0998753], [-16.0202022, 18.1007374], [-16.0202738, 18.1009965], [-16.0203651, 18.1013553]]}}, {"type": "Feature", "properties": {"highway": "primary"}, "geometry": {"type": "LineString", "coordinates": [[-16.0203651, 18.1013553], [-16.0204133, 18.1015044], [-16.0206521, 18.1023865]]}}, {"type": "Feature", "properties": {"highway": "primary"}, "geometry": {"type": "LineString", "coordinates": [[-16.0206521, 18.1023865], [-16.0210081, 18.1036186]]}}, {"type": "Feature", "properties": {"highway": "service"}, "geometry": {"type": "LineString", "coordinates": [[-16.0217485, 18.1062626], [-16.0232216, 18.1059112], [-16.0233086, 18.1058904], [-16.0244407, 18.1056123], [-16.025014, 18.1055413], [-16.0254702, 18.1054687], [-16.0260508, 18.1053754]]}}, {"type": "Feature", "properties": {"highway": "service"}, "geometry": {"type": "LineString", "coordinates": [[-16.0233086, 18.1058904], [-16.0233168, 18.1056622], [-16.0233281, 18.1054383], [-16.0233303, 18.1052906], [-16.023336, 18.1051331], [-16.0233779, 18.1039748], [-16.0234084, 18.1030673], [-16.0234131, 18.1029303]]}}, {"type": "Feature", "properties": {"highway": "service"}, "geometry": {"type": "LineString", "coordinates": [[-16.0224209, 18.1029015], [-16.0224514, 18.1030197], [-16.0226921, 18.103952], [-16.0230346, 18.1051216], [-16.023086, 18.1052969], [-16.0231363, 18.1054686], [-16.0231903, 18.1056531], [-16.0233168, 18.1056622]]}}, {"type": "Feature", "properties": {"highway": "service"}, "geometry": {"type": "LineString", "coordinates": [[-16.0257627, 18.1040543], [-16.025618, 18.1040495], [-16.0252837, 18.1040383], [-16.025054, 18.1040307], [-16.0233779, 18.1039748], [-16.0226921, 18.103952]]}}, {"type": "Feature", "properties": {"highway": "track"}, "geometry": {"type": "LineString", "coordinates": [[-16.0262056, 18.1068494], [-16.025881, 18.1068378]]}}, {"type": "Feature", "properties": {"highway": "track"}, "geometry": {"type": "LineString", "coordinates": [[-16.0257697, 18.1074012], [-16.0258421, 18.1071093], [-16.0258676, 18.1069627], [-16.025881, 18.1068378], [-16.0258931, 18.106588], [-16.0258869, 18.1064091], [-16.0258682, 18.1058715], [-16.0258705, 18.1058117], [-16.0258978, 18.1057577], [-16.0259455, 18.1057187], [-16.0260057, 18.1057011], [-16.0260652, 18.1056863]]}}, {"type": "Feature", "properties": {"highway": "track"}, "geometry": {"type": "LineString", "coordinates": [[-16.025869, 18.1084924], [-16.0259682, 18.1083623], [-16.0260387, 18.108193], [-16.0260614, 18.1080031], [-16.026073, 18.1069831], [-16.0260741, 18.1069423], [-16.0260902, 18.1069079], [-16.0261221, 18.1068875], [-16.0262056, 18.1068494], [-16.0262563, 18.1068285], [-16.026297, 18.1067931], [-16.0262816, 18.1067365], [-16.026267, 18.106693], [-16.0262611, 18.1066115], [-16.0262548, 18.1065486], [-16.0262517, 18.106527], [-16.0262526, 18.1065056], [-16.0262524, 18.1064766], [-16.02621, 18.1064462], [-16.0261613, 18.1064083], [-16.0261309, 18.1063642], [-16.0261057, 18.1063023], [-16.0260967, 18.1062396], [-16.0260926, 18.1059554], [-16.0260848, 18.1058308], [-16.0260747, 18.1057512], [-16.0260652, 18.1056863], [-16.0260634, 18.1056358], [-16.0260508, 18.1053754], [-16.0261587, 18.1049427], [-16.02617, 18.1048759], [-16.0261503, 18.1046009], [-16.0261644, 18.1044567], [-16.0262488, 18.1040741], [-16.026302, 18.103816]]}}, {"type": "Feature", "properties": {"highway": "track"}, "geometry": {"type": "LineString", "coordinates": [[-16.0261309, 18.1063642], [-16.0258869, 18.1064091]]}}, {"type": "Feature", "properties": {"highway": "service"}, "geometry": {"type": "LineString", "coordinates": [[-16.025054, 18.1040307], [-16.0249634, 18.1051954]]}}, {"type": "Feature", "properties": {"highway": "service"}, "geometry": {"type": "LineString", "coordinates": [[-16.0250886, 18.1052066], [-16.0249634, 18.1051954], [-16.023336, 18.1051331], [-16.0230346, 18.1051216]]}}, {"type": "Feature", "properties": {"highway": "primary"}, "geometry": {"type": "LineString", "coordinates": [[-16.0215906, 18.0427811], [-16.0215918, 18.0440083], [-16.0216014, 18.0454826], [-16.0216074, 18.0464078], [-16.0214652, 18.0559506], [-16.0214191, 18.0610503], [-16.0214175, 18.0618914], [-16.02146, 18.0636431], [-16.0218806, 18.070532], [-16.0221689, 18.0757034], [-16.0222884, 18.0777695], [-16.0225065, 18.0813809], [-16.0227027, 18.0849702], [-16.0230609, 18.0911775], [-16.0231153, 18.092039], [-16.0231001, 18.0925452], [-16.0230478, 18.09309], [-16.0229615, 18.0936786], [-16.0228838, 18.0940094], [-16.0221661, 18.0965651], [-16.0220389, 18.0968533], [-16.0218949, 18.0970796], [-16.0215449, 18.097446], [-16.0205277, 18.0984943], [-16.0203173, 18.0987407], [-16.0201804, 18.0989639], [-16.0200787, 18.0992528], [-16.0200282, 18.0994984], [-16.0199748, 18.0998753]]}}, {"type": "Feature", "properties": {"highway": "service"}, "geometry": {"type": "LineString", "coordinates": [[-16.0254697, 18.1016004], [-16.0248767, 18.1015805], [-16.0243347, 18.1015623], [-16.0235142, 18.1015477], [-16.0233015, 18.101544], [-16.0221231, 18.1015226], [-16.0215759, 18.1015123], [-16.0208104, 18.1014794], [-16.0206366, 18.1014694], [-16.0204133, 18.1015044]]}}, {"type": "Feature", "properties": {"highway": "service"}, "geometry": {"type": "LineString", "coordinates": [[-16.0215759, 18.1015123], [-16.0215502, 18.100703]]}}, {"type": "Feature", "properties": {"highway": "service"}, "geometry": {"type": "LineString", "coordinates": [[-16.0221231, 18.1015226], [-16.0221607, 18.1027474], [-16.0221653, 18.102894]]}}, {"type": "Feature", "properties": {"highway": "service"}, "geometry": {"type": "LineString", "coordinates": [[-16.0232853, 18.1029266], [-16.0232872, 18.1027695], [-16.0233015, 18.101544]]}}, {"type": "Feature", "properties": {"highway": "service"}, "geometry": {"type": "LineString", "coordinates": [[-16.0235142, 18.1015477], [-16.0235323, 18.1007697], [-16.0235518, 18.1001302], [-16.0235631, 18.099759], [-16.0235991, 18.0984967], [-16.0236339, 18.097706], [-16.0236652, 18.0969947], [-16.0239382, 18.0959755], [-16.0241451, 18.0952161], [-16.0243614, 18.0942909]]}}, {"type": "Feature", "properties": {"highway": "service"}, "geometry": {"type": "LineString", "coordinates": [[-16.0242803, 18.1029555], [-16.0242857, 18.1028004], [-16.0243248, 18.1019948], [-16.0243347, 18.1015623]]}}, {"type": "Feature", "properties": {"highway": "service"}, "geometry": {"type": "LineString", "coordinates": [[-16.0243248, 18.1019948], [-16.0248725, 18.1019937], [-16.0254714, 18.1019926], [-16.0255531, 18.1020148], [-16.0261322, 18.1020303]]}}, {"type": "Feature", "properties": {"highway": "service"}, "geometry": {"type": "LineString", "coordinates": [[-16.0254714, 18.1019926], [-16.0254697, 18.1016004], [-16.025469, 18.1008353], [-16.025459, 18.0989489], [-16.0254552, 18.0982425], [-16.0254403, 18.0968667]]}}, {"type": "Feature", "properties": {"highway": "service"}, "geometry": {"type": "LineString", "coordinates": [[-16.0242857, 18.1028004], [-16.0232872, 18.1027695], [-16.0221607, 18.1027474]]}}, {"type": "Feature", "properties": {"highway": "service"}, "geometry": {"type": "LineString", "coordinates": [[-16.0221653, 18.102894], [-16.0221775, 18.1029602], [-16.0222027, 18.1029934], [-16.0222299, 18.1030118], [-16.0224514, 18.1030197], [-16.0234084, 18.1030673], [-16.0248385, 18.1031207], [-16.0248657, 18.1031115], [-16.0248812, 18.1030949], [-16.0249046, 18.1029737]]}}, {"type": "Feature", "properties": {"highway": "service"}, "geometry": {"type": "LineString", "coordinates": [[-16.025618, 18.1040495], [-16.0255739, 18.1043305], [-16.0255551, 18.104449], [-16.0255216, 18.1045217], [-16.0254505, 18.1045638], [-16.0252815, 18.1045905], [-16.0252427, 18.104616], [-16.0252212, 18.1046887], [-16.0250886, 18.1052066], [-16.025014, 18.1055413]]}}, {"type": "Feature", "properties": {"highway": "service"}, "geometry": {"type": "LineString", "coordinates": [[-16.021773, 18.1000478], [-16.0235518, 18.1001302], [-16.0250174, 18.1001947]]}}, {"type": "Feature", "properties": {"highway": "service"}, "geometry": {"type": "LineString", "coordinates": [[-16.0259887, 18.0990655], [-16.025459, 18.0989489], [-16.0244529, 18.0987043], [-16.0235991, 18.0984967], [-16.0215153, 18.0979901]]}}, {"type": "Feature", "properties": {"highway": "service"}, "geometry": {"type": "LineString", "coordinates": [[-16.0249204, 18.0969041], [-16.0246356, 18.0980006], [-16.0244529, 18.0987043]]}}, {"type": "Feature", "properties": {"highway": "unclassified"}, "geometry": {"type": "LineString", "coordinates": [[-16.0257106, 18.1029971], [-16.0261107, 18.1030062]]}}, {"type": "Feature", "properties": {"highway": "service"}, "geometry": {"type": "LineString", "coordinates": [[-16.0246553, 18.1026542], [-16.0247599, 18.1026083], [-16.0248055, 18.1025612], [-16.0248229, 18.1024732], [-16.0248725, 18.1019937]]}}, {"type": "Feature", "properties": {"highway": "service"}, "geometry": {"type": "LineString", "coordinates": [[-16.0248767, 18.1015805], [-16.0248725, 18.1019937]]}}, {"type": "Feature", "properties": {"highway": "service"}, "geometry": {"type": "LineString", "coordinates": [[-16.0244407, 18.1056123], [-16.0243119, 18.1055351], [-16.0241121, 18.1054777], [-16.0237661, 18.1054471], [-16.0233281, 18.1054383], [-16.0231363, 18.1054686]]}}, {"type": "Feature", "properties": {"highway": "service"}, "geometry": {"type": "LineString", "coordinates": [[-16.0262488, 18.1040741], [-16.0257627, 18.1040543]]}}, {"type": "Feature", "properties": {"highway": "service"}, "geometry": {"type": "LineString", "coordinates": [[-16.0261503, 18.1046009], [-16.0260849, 18.1045599], [-16.0259937, 18.1045446], [-16.0258998, 18.1045242], [-16.0258327, 18.1045064], [-16.02579, 18.1044705]]}}, {"type": "Feature", "properties": {"highway": "service"}, "geometry": {"type": "LineString", "coordinates": [[-16.0255216, 18.1045217], [-16.0254702, 18.1054687]]}}, {"type": "Feature", "properties": {"highway": "service"}, "geometry": {"type": "LineString", "coordinates": [[-16.0258327, 18.1045064], [-16.0255216, 18.1045217]]}}, {"type": "Feature", "properties": {"highway": "residential"}, "geometry": {"type": "LineString", "coordinates": [[-16.0174903, 18.1047104], [-16.0176171, 18.1049079], [-16.0179336, 18.1050354], [-16.0181737, 18.1051858], [-16.0186699, 18.1056562], [-16.0187151, 18.1057826], [-16.0187665, 18.1059264], [-16.0188063, 18.1061826], [-16.018886, 18.1065016], [-16.0190159, 18.1070214]]}}, {"type": "Feature", "properties": {"highway": "service"}, "geometry": {"type": "LineString", "coordinates": [[-16.0205325, 18.1073341], [-16.0203248, 18.1067078]]}}, {"type": "Feature", "properties": {"highway": "residential"}, "geometry": {"type": "LineString", "coordinates": [[-16.0201666, 18.1065039], [-16.0205475, 18.1064962], [-16.0217485, 18.1062626]]}}, {"type": "Feature", "properties": {"highway": "residential"}, "geometry": {"type": "LineString", "coordinates": [[-16.0187151, 18.1057826], [-16.0193874, 18.1055988]]}}, {"type": "Feature", "properties": {"highway": "residential"}, "geometry": {"type": "LineString", "coordinates": [[-16.0205072, 18.1048412], [-16.0207218, 18.1057582]]}}, {"type": "Feature", "properties": {"highway": "residential"}, "geometry": {"type": "LineString", "coordinates": [[-16.0207218, 18.1057582], [-16.0204616, 18.1060399], [-16.0203838, 18.1061724], [-16.0202605, 18.106435], [-16.0201666, 18.1065039], [-16.0199761, 18.1065421], [-16.0192922, 18.10682], [-16.0190159, 18.1070214], [-16.0185823, 18.1074679], [-16.0182134, 18.1078353]]}}, {"type": "Feature", "properties": {"highway": "residential"}, "geometry": {"type": "LineString", "coordinates": [[-16.0175768, 18.1064828], [-16.0177633, 18.1071514], [-16.0179487, 18.1079096]]}}, {"type": "Feature", "properties": {"highway": "track"}, "geometry": {"type": "LineString", "coordinates": [[-16.0199735, 18.1081456], [-16.02035, 18.1082873], [-16.0215318, 18.108732], [-16.0225275, 18.1090031]]}}, {"type": "Feature", "properties": {"highway": "residential"}, "geometry": {"type": "LineString", "coordinates": [[-16.0193902, 18.1060368], [-16.0194464, 18.1063216], [-16.0194317, 18.1063534], [-16.0193981, 18.1063713], [-16.018886, 18.1065016]]}}, {"type": "Feature", "properties": {"highway": "residential"}, "geometry": {"type": "LineString", "coordinates": [[-16.020121, 18.1058793], [-16.0199037, 18.105247]]}}, {"type": "Feature", "properties": {"highway": "service"}, "geometry": {"type": "LineString", "coordinates": [[-16.021048, 18.1048483], [-16.0209545, 18.1047327], [-16.0209102, 18.1046989], [-16.02087, 18.1046912], [-16.0208291, 18.1046976], [-16.0207828, 18.1047422], [-16.0207634, 18.104783], [-16.0207472, 18.1048416]]}}, {"type": "Feature", "properties": {"highway": "residential"}, "geometry": {"type": "LineString", "coordinates": [[-16.0216569, 18.1070635], [-16.0215881, 18.107131], [-16.0215399, 18.1072304], [-16.021505, 18.1073706], [-16.0213347, 18.1075988], [-16.0208425, 18.1079787], [-16.02035, 18.1082873], [-16.0201062, 18.1085293], [-16.0198823, 18.1086644], [-16.0197082, 18.1087372], [-16.0192627, 18.1089207], [-16.0190333, 18.1090022], [-16.0188027, 18.1090392], [-16.0184634, 18.109043], [-16.0179826, 18.10906], [-16.0178867, 18.1090634], [-16.0174857, 18.1090889]]}}, {"type": "Feature", "properties": {"highway": "service"}, "geometry": {"type": "LineString", "coordinates": [[-16.0233303, 18.1052906], [-16.023086, 18.1052969]]}}, {"type": "Feature", "properties": {"highway": "service"}, "geometry": {"type": "LineString", "coordinates": [[-16.0232216, 18.1059112], [-16.0233624, 18.1065115]]}}, {"type": "Feature", "properties": {"highway": "residential"}, "geometry": {"type": "LineString", "coordinates": [[-16.0211697, 18.1041463], [-16.0207616, 18.1039548]]}}, {"type": "Feature", "properties": {"highway": "service"}, "geometry": {"type": "LineString", "coordinates": [[-16.0218406, 18.1065872], [-16.0214902, 18.1066747]]}}, {"type": "Feature", "properties": {"highway": "residential"}, "geometry": {"type": "LineString", "coordinates": [[-16.0187494, 18.1149164], [-16.0186753, 18.114858], [-16.0185505, 18.1147662], [-16.0184848, 18.1146235], [-16.0183936, 18.114533], [-16.0181683, 18.1143061], [-16.0178947, 18.1139058], [-16.0178317, 18.1138077], [-16.0177016, 18.1133437], [-16.017597, 18.1128441], [-16.0175729, 18.112607], [-16.0174951, 18.1121175], [-16.0174522, 18.1119595], [-16.01742, 18.1114904], [-16.0174522, 18.1111144], [-16.0174696, 18.1109359], [-16.0175246, 18.1108492], [-16.0176681, 18.1107332], [-16.0178196, 18.1106427], [-16.01788, 18.1105637], [-16.0179028, 18.110463], [-16.0178491, 18.1101839], [-16.0178491, 18.1099659], [-16.0178545, 18.1097798], [-16.0178974, 18.1095115], [-16.0179558, 18.1092228], [-16.0179826, 18.10906], [-16.0180201, 18.1088053], [-16.0180275, 18.1085988], [-16.0180141, 18.1084509], [-16.0180295, 18.1083279], [-16.0180443, 18.1082585], [-16.0180235, 18.1081941], [-16.0179487, 18.1079096]]}}]}