{"type": "FeatureCollection", "features": [{"type": "Feature", "properties": {"name": "AOI"}, "geometry": {"type": "Polygon", "coordinates": [[[-6.226142461772823, 53.41060075382279], [-6.18838656689516, 53.40600945746761], [-6.151401200484388, 53.40784597600968], [-6.149089615083715, 53.40004077220588], [-6.156794899752626, 53.390399049859994], [-6.142925387348586, 53.384889494233775], [-6.183763396093814, 53.359637364280275], [-6.195321323097179, 53.3578008457382], [-6.221519290971476, 53.362392142093384], [-6.233077217974842, 53.35825997537372], [-6.20996136396811, 53.356882586467165], [-6.2107318924350015, 53.35366867901853], [-6.1891570953620505, 53.35045477156991], [-6.1891570953620505, 53.345404345579205], [-6.191468680762724, 53.348159123392314], [-6.195321323097179, 53.34494521594369], [-6.199173965431635, 53.348159123392314], [-6.200715022365417, 53.34494521594369], [-6.212272949368783, 53.345404345579205], [-6.2238308763721495, 53.34953651229887], [-6.2238308763721495, 53.34678173448576], [-6.21689612017013, 53.34586347521473], [-6.227683518706605, 53.34494521594369], [-6.177599168358685, 53.340813049224025], [-6.194550794630288, 53.33484436396229], [-6.213043477835674, 53.33484436396229], [-6.199944493898526, 53.311887882186376], [-6.218437177103912, 53.310051363644305], [-6.229224575640387, 53.31418353036397], [-6.242323559577535, 53.313724400728454], [-6.250028844246446, 53.30775571546671], [-6.266209942051159, 53.30683745619568], [-6.268521527451831, 53.30362354874705], [-6.2847026252565446, 53.3050009376536], [-6.292407909925455, 53.29903225239187], [-6.301654251528148, 53.30683745619568], [-6.299342666127474, 53.3123470118219], [-6.342492260273375, 53.31877482671915], [-6.34557437414094, 53.32061134526123], [-6.342492260273375, 53.32152960453226], [-6.344803845674048, 53.32749828979399], [-6.3509680734091765, 53.33163045651366], [-6.377936569750364, 53.32887567870055], [-6.386412382886166, 53.3375991417754], [-6.387182911353057, 53.34310869740162], [-6.362526000412543, 53.345404345579205], [-6.360214415011869, 53.35320954938302], [-6.351738601876068, 53.35366867901853], [-6.355591244210523, 53.359637364280275], [-6.349427016475395, 53.36973821626167], [-6.332475390203791, 53.37111560516823], [-6.334016447137573, 53.377543420065486], [-6.321687991667316, 53.37983906824307], [-6.318605877799752, 53.40004077220588], [-6.307818479263276, 53.402795550018986], [-6.290866852991673, 53.39774512402828], [-6.292407909925455, 53.40646858710313], [-6.285473153723435, 53.40646858710313], [-6.2369298603092975, 53.396826864757244], [-6.226142461772823, 53.41060075382279]]]}}]}