{"type": "FeatureCollection", "crs": {"type": "name", "properties": {"name": "urn:ogc:def:crs:OGC:1.3:CRS84"}}, "features": [{"type": "Feature", "properties": {}, "geometry": {"type": "Polygon", "coordinates": [[[-6.15957652624909, 53.3410313785927], [-6.17916386774506, 53.3405471541224], [-6.17978042435211, 53.3391480974348], [-6.18175404653193, 53.3390064741808], [-6.18263441150041, 53.3375737180556], [-6.19246654532566, 53.3374361661717], [-6.19326961216443, 53.3371672157676], [-6.19447833172032, 53.3350889955474], [-6.20810949198915, 53.3365368311124], [-6.20958060621594, 53.3372528529297], [-6.21244915958583, 53.3353985703854], [-6.2129753325606, 53.3343892775545], [-6.21078064363644, 53.332688512062], [-6.21384692482348, 53.3347638181972], [-6.21770387377512, 53.3364819740104], [-6.22040884174617, 53.3358397844718], [-6.22212655557717, 53.3361790029086], [-6.22447809828703, 53.3348841072857], [-6.2250397166648, 53.3341004535179], [-6.22554944401464, 53.3343532252086], [-6.22504009139138, 53.3350778516369], [-6.22895186313523, 53.3415077476896], [-6.23003103648111, 53.3461174496036], [-6.22738152138284, 53.3455637034431], [-6.22705631421065, 53.3449143301448], [-6.21730349954867, 53.3433449763316], [-6.21514965854009, 53.3435227460373], [-6.21499075641819, 53.3438743501826], [-6.19794017758768, 53.3423651125405], [-6.19890527116688, 53.3406885554528], [-6.20353717289294, 53.3415946474047], [-6.20347496613629, 53.3411445613342], [-6.19969231174708, 53.3405894575948], [-6.19867227698477, 53.3406558439636], [-6.19748915651022, 53.3419188565568], [-6.19527737119128, 53.3419124369586], [-6.19502394312509, 53.3412000352935], [-6.19319269158721, 53.341165376056], [-6.1937229061411, 53.3410109969675], [-6.19372461946121, 53.3398090109559], [-6.19338397685165, 53.3397747400315], [-6.1925219362862, 53.3411989162462], [-6.19128862361393, 53.3408013350219], [-6.18808164890327, 53.3411056471342], [-6.18568297038609, 53.3406928190605], [-6.15974289138246, 53.3411466488243], [-6.15110656806871, 53.3421071589308], [-6.15957652624909, 53.3410313785927]]]}}]}