{"type": "FeatureCollection", "features": [{"type": "Feature", "properties": {}, "geometry": {"type": "Polygon", "coordinates": [[[3.683294861315071, 51.03568315220549], [3.6789272889590854, 51.037772665145184], [3.6761450880599047, 51.03974414140391], [3.6747618675077116, 51.04139571514005], [3.6737298472999838, 51.044067742066034], [3.673739083314078, 51.04594294288073], [3.674309714069891, 51.04766862893641], [3.6761342613926242, 51.05004368312882], [3.6781919988003096, 51.0515704780526], [3.678444236080266, 51.054121063572246], [3.6792807774381995, 51.05580314475176], [3.6814664944864828, 51.05805393397335], [3.685715664983131, 51.06022225929175], [3.68780988033717, 51.06235322457502], [3.689806372489387, 51.06358797990539], [3.6976873160137944, 51.06683123664348], [3.7021786185659162, 51.06774329935091], [3.702506788551455, 51.071566154003314], [3.702185153645348, 51.07461182298074], [3.703363309897229, 51.07780452763363], [3.7044588621597003, 51.07942658495861], [3.7069865523036243, 51.081530953016085], [3.7091668529705646, 51.082636082330595], [3.7118655705886234, 51.08353591486915], [3.716246343368736, 51.08420225477692], [3.7204287095268023, 51.084047069119265], [3.7230987846113464, 51.083518858559515], [3.7259947712905426, 51.0824624080556], [3.7305817095468687, 51.082036355952965], [3.7353584577286454, 51.080845596443886], [3.738845652899045, 51.07920150348916], [3.7427398092319657, 51.0762495937386], [3.744033880662679, 51.07468667269848], [3.745010510848794, 51.07212057792799], [3.7448581837777075, 51.06986549128277], [3.7486619734175357, 51.067916776320295], [3.752309689067678, 51.06774737555305], [3.756378915315317, 51.06678207660384], [3.7586889367635585, 51.06578771892491], [3.761469159989937, 51.06381429510062], [3.7642264146816524, 51.06013585905254], [3.764767351145838, 51.05655830594134], [3.765887737503166, 51.0548399728314], [3.7664392186537294, 51.0528804896224], [3.768148171759138, 51.05199034670091], [3.7693850136329043, 51.051788769725334], [3.7718752790403767, 51.05258133391926], [3.775104620591253, 51.05314033560052], [3.7789780369925277, 51.054550749809074], [3.7837087443333597, 51.05526889883212], [3.789320223678796, 51.05545583823749], [3.794396928425221, 51.05472214686814], [3.7980965673226157, 51.05330522836221], [3.802874683043164, 51.049823671568355], [3.8054308131084644, 51.04660824976665], [3.8069884879088267, 51.04243457927792], [3.806945840536025, 51.03862463247083], [3.8062994188165895, 51.03659082257675], [3.805142121972147, 51.0348541261823], [3.8026125721788797, 51.03275187290341], [3.7992243478738352, 51.03120305198477], [3.794197335015299, 51.02981239247015], [3.789391433683354, 51.02913220699617], [3.7845203448428193, 51.027576446432256], [3.7804571990003195, 51.02705815242661], [3.7755012316062464, 51.02724434385176], [3.7718362487638037, 51.027953291467426], [3.767388038339789, 51.02968473395776], [3.764800229183847, 51.03136070553551], [3.759602050346408, 51.031450692688864], [3.756053193107123, 51.03149419688656], [3.750884634275536, 51.03011470910281], [3.747467443810502, 51.02886988286251], [3.7426188264354865, 51.02817852801105], [3.7379918991830783, 51.02815443193873], [3.7350508007465093, 51.0285506880326], [3.7308729213470038, 51.0295635591189], [3.7278709827935326, 51.03092368982874], [3.7231892788500836, 51.028600184500405], [3.719069244821248, 51.02770234320281], [3.714887961187175, 51.02759850881742], [3.711414350899746, 51.02813060773469], [3.708130742597746, 51.02811141571009], [3.702633824057808, 51.029090379371034], [3.6988680737647113, 51.0302412679746], [3.695794040282193, 51.03203183796151], [3.6933379560541004, 51.03482186616762], [3.6886045703397032, 51.034633455694184], [3.683294861315071, 51.03568315220549]]]}}]}