{"type": "FeatureCollection", "features": [{"type": "Feature", "properties": {"highway": "residential"}, "geometry": {"type": "LineString", "coordinates": [[-15.9839411, 18.0803243], [-15.9838489, 18.080833], [-15.9838147, 18.0810212], [-15.9836951, 18.0816808], [-15.9836759, 18.0817867], [-15.9836626, 18.0818605], [-15.9835324, 18.0825785], [-15.9834404, 18.0830855], [-15.9833784, 18.0834276], [-15.9833232, 18.0837319], [-15.9833178, 18.0837594], [-15.9832375, 18.0842047], [-15.9832339, 18.0842245], [-15.9831467, 18.0847054], [-15.9829552, 18.0857618], [-15.9829197, 18.0859575], [-15.9828506, 18.0863384], [-15.9827829, 18.0867063], [-15.9826161, 18.0875551]]}}, {"type": "Feature", "properties": {"highway": "residential"}, "geometry": {"type": "LineString", "coordinates": [[-15.9863742, 18.0866573], [-15.9862664, 18.086178], [-15.9861013, 18.0853885], [-15.9860947, 18.0853516], [-15.9860546, 18.0851289], [-15.9859762, 18.0846937], [-15.9859016, 18.0843173], [-15.9858712, 18.0841617], [-15.98582, 18.0839534], [-15.9856621, 18.0834527], [-15.9854611, 18.0829051]]}}, {"type": "Feature", "properties": {"highway": "residential"}, "geometry": {"type": "LineString", "coordinates": [[-15.9849561, 18.0828212], [-15.9844976, 18.0827432], [-15.9842961, 18.0827053], [-15.9840718, 18.0826625], [-15.9835324, 18.0825785], [-15.9830624, 18.0825004], [-15.9829582, 18.0824831], [-15.9825706, 18.0824187], [-15.982491, 18.0824026], [-15.9820306, 18.0823259], [-15.9813778, 18.0822206]]}}, {"type": "Feature", "properties": {"highway": "tertiary"}, "geometry": {"type": "LineString", "coordinates": [[-15.9813778, 18.0822206], [-15.9813194, 18.082531], [-15.9812638, 18.0828019], [-15.9812312, 18.0829995], [-15.98122, 18.0830593], [-15.9811823, 18.0832594], [-15.9811202, 18.0835895], [-15.981068, 18.0838665], [-15.9810306, 18.0840653], [-15.9810089, 18.0841789], [-15.9809803, 18.0843328], [-15.9807957, 18.0853135], [-15.9807437, 18.0855899], [-15.9806743, 18.0859587], [-15.9804778, 18.0870028], [-15.9803932, 18.0874521], [-15.9803316, 18.0877796]]}}, {"type": "Feature", "properties": {"highway": "residential"}, "geometry": {"type": "LineString", "coordinates": [[-15.9830592, 18.0784924], [-15.9831448, 18.0784127], [-15.9832534, 18.078333], [-15.9837349, 18.0780219], [-15.9844202, 18.0775779], [-15.985021, 18.0771942], [-15.9856106, 18.0768419]]}}, {"type": "Feature", "properties": {"highway": "residential"}, "geometry": {"type": "LineString", "coordinates": [[-15.9817671, 18.0801048], [-15.9809962, 18.0799784], [-15.9808853, 18.0799613]]}}, {"type": "Feature", "properties": {"highway": "tertiary"}, "geometry": {"type": "LineString", "coordinates": [[-15.9841512, 18.0747529], [-15.9832246, 18.0754581], [-15.982943, 18.0757896], [-15.9828035, 18.0759757], [-15.9826529, 18.0762097], [-15.9825026, 18.0765121], [-15.9824168, 18.076749], [-15.9823388, 18.0769999], [-15.9823058, 18.0771486], [-15.9822659, 18.0773283], [-15.9821438, 18.078016], [-15.9820863, 18.07837], [-15.9820119, 18.0787743], [-15.9819633, 18.079023], [-15.9819484, 18.0791198], [-15.9818863, 18.0794574], [-15.9818264, 18.0797826], [-15.9818036, 18.0799065], [-15.9817671, 18.0801048], [-15.9817063, 18.0804353], [-15.9816667, 18.0806506], [-15.9816458, 18.0807644], [-15.9815855, 18.0810925], [-15.981527, 18.08141], [-15.9815225, 18.0814345], [-15.9813778, 18.0822206]]}}, {"type": "Feature", "properties": {"highway": "residential"}, "geometry": {"type": "LineString", "coordinates": [[-15.9829744, 18.0785116], [-15.9829315, 18.0785216], [-15.9828958, 18.0785324], [-15.9828516, 18.0785582]]}}, {"type": "Feature", "properties": {"highway": "residential"}, "geometry": {"type": "LineString", "coordinates": [[-15.9810089, 18.0841789], [-15.9804505, 18.0840899], [-15.9801619, 18.0840439], [-15.9799398, 18.0840085], [-15.979658, 18.0839636], [-15.9793184, 18.0839095], [-15.979262, 18.0839005], [-15.9787845, 18.0838248], [-15.9781779, 18.0837277], [-15.9776385, 18.0836417], [-15.9773044, 18.0835884], [-15.9768507, 18.0835161], [-15.9766203, 18.0834794], [-15.9761832, 18.0834097], [-15.975962, 18.0833745], [-15.9756846, 18.0833303], [-15.975137, 18.083243], [-15.9745528, 18.0831499], [-15.9740787, 18.0830743], [-15.9736156, 18.0830005]]}}, {"type": "Feature", "properties": {"highway": "residential"}, "geometry": {"type": "LineString", "coordinates": [[-15.9807437, 18.0855899], [-15.9809776, 18.0856295], [-15.9815386, 18.0857243], [-15.9819458, 18.0857931], [-15.9821838, 18.0858333], [-15.9824068, 18.085871], [-15.9826132, 18.0859058], [-15.9829197, 18.0859575]]}}, {"type": "Feature", "properties": {"highway": "residential"}, "geometry": {"type": "LineString", "coordinates": [[-15.9809803, 18.0843328], [-15.9814091, 18.0844066], [-15.9817678, 18.0844683], [-15.9819376, 18.0844975], [-15.9820653, 18.0845232], [-15.9821751, 18.084542], [-15.9826542, 18.0846209], [-15.9828421, 18.0846532], [-15.9831467, 18.0847054]]}}, {"type": "Feature", "properties": {"highway": "residential"}, "geometry": {"type": "LineString", "coordinates": [[-15.9829552, 18.0857618], [-15.9837127, 18.0858873], [-15.9854898, 18.0862151], [-15.9856212, 18.0862379], [-15.9857435, 18.0862464], [-15.9859042, 18.0862409], [-15.9860331, 18.0862286], [-15.9862664, 18.086178]]}}, {"type": "Feature", "properties": {"highway": "tertiary"}, "geometry": {"type": "LineString", "coordinates": [[-15.9863912, 18.0867267], [-15.9864815, 18.0872621], [-15.9864875, 18.0872978], [-15.9865486, 18.0876605]]}}, {"type": "Feature", "properties": {"highway": "service"}, "geometry": {"type": "LineString", "coordinates": [[-15.9873971, 18.0875342], [-15.9873068, 18.0869107], [-15.9872565, 18.0866258]]}}, {"type": "Feature", "properties": {"highway": "service"}, "geometry": {"type": "LineString", "coordinates": [[-15.9872565, 18.0866258], [-15.9872606, 18.0866099], [-15.9872693, 18.0865875], [-15.987286, 18.086571], [-15.9885222, 18.0863486], [-15.9886109, 18.086337], [-15.988715, 18.0863315], [-15.9887925, 18.0863447], [-15.9888468, 18.0863834], [-15.9888904, 18.0864337], [-15.988916, 18.086511], [-15.988981, 18.0870251]]}}, {"type": "Feature", "properties": {"highway": "service"}, "geometry": {"type": "LineString", "coordinates": [[-15.9885955, 18.0872876], [-15.9887001, 18.0878095]]}}, {"type": "Feature", "properties": {"highway": "service"}, "geometry": {"type": "LineString", "coordinates": [[-15.9872069, 18.0876526], [-15.9874321, 18.0876191], [-15.9875456, 18.0876106], [-15.9875606, 18.0876055], [-15.9875691, 18.0875917], [-15.9875657, 18.0875456], [-15.9875571, 18.0875337], [-15.9875382, 18.0875271], [-15.9873971, 18.0875342], [-15.9871913, 18.0875679]]}}, {"type": "Feature", "properties": {"highway": "service"}, "geometry": {"type": "LineString", "coordinates": [[-15.988981, 18.0870251], [-15.9889712, 18.0872007], [-15.9889725, 18.0872653], [-15.989056, 18.0876581], [-15.9890608, 18.087719], [-15.9890402, 18.0877674], [-15.9890029, 18.0877942], [-15.9889364, 18.0878094], [-15.9887001, 18.0878095], [-15.9886251, 18.0878142], [-15.9885677, 18.0878208], [-15.9885408, 18.0878239], [-15.9878474, 18.087946], [-15.9873632, 18.0880313], [-15.9873122, 18.0880275], [-15.987284, 18.0880134], [-15.9872679, 18.0879816], [-15.9872069, 18.0876526]]}}, {"type": "Feature", "properties": {"highway": "trunk_link"}, "geometry": {"type": "LineString", "coordinates": [[-15.9858295, 18.0868525], [-15.9858486, 18.0869059], [-15.9859707, 18.0869419], [-15.9860388, 18.0869618], [-15.9861139, 18.0869914], [-15.9862364, 18.0870461], [-15.9863684, 18.0871442], [-15.9864318, 18.0872103], [-15.9864815, 18.0872621]]}}, {"type": "Feature", "properties": {"highway": "residential"}, "geometry": {"type": "LineString", "coordinates": [[-15.9828516, 18.0785582], [-15.9828857, 18.0785806], [-15.9829144, 18.0785934], [-15.9829753, 18.0786164]]}}, {"type": "Feature", "properties": {"highway": "residential"}, "geometry": {"type": "LineString", "coordinates": [[-15.9831006, 18.0786019], [-15.9831883, 18.0786711], [-15.9832406, 18.0787223], [-15.9832788, 18.0787685], [-15.9836554, 18.079283], [-15.983794, 18.0794674], [-15.9838868, 18.0796015], [-15.9839338, 18.0796909], [-15.9839555, 18.0797482], [-15.98397, 18.0798329], [-15.9839763, 18.0799485], [-15.9839724, 18.0800804], [-15.9839651, 18.0801629], [-15.9839411, 18.0803243]]}}, {"type": "Feature", "properties": {"highway": "tertiary"}, "geometry": {"type": "LineString", "coordinates": [[-15.9899917, 18.0831787], [-15.9903891, 18.0829255], [-15.9911046, 18.0824717], [-15.992202, 18.0817879], [-15.9929112, 18.0813228], [-15.9932776, 18.0810826], [-15.9943939, 18.0803734], [-15.9950693, 18.0799445], [-15.9954473, 18.0797052], [-15.9958213, 18.0794666], [-15.9964367, 18.079078], [-15.9965199, 18.07902], [-15.9967107, 18.0788969], [-15.9972473, 18.0785384], [-15.9976285, 18.0783015], [-15.9980035, 18.0780554], [-15.9983996, 18.077805], [-15.9990501, 18.0773981], [-15.9997966, 18.0769233]]}}, {"type": "Feature", "properties": {"highway": "residential"}, "geometry": {"type": "LineString", "coordinates": [[-15.9863432, 18.0778906], [-15.9870779, 18.0774174], [-15.9874243, 18.0771943], [-15.9878228, 18.076937], [-15.9881482, 18.0767269], [-15.9885339, 18.0764778], [-15.9892605, 18.0760215], [-15.9895996, 18.0758085], [-15.9900037, 18.0755406], [-15.9903502, 18.0753195], [-15.9908145, 18.0752191]]}}, {"type": "Feature", "properties": {"highway": "residential"}, "geometry": {"type": "LineString", "coordinates": [[-15.9849714, 18.0815777], [-15.9850243, 18.0816468], [-15.9850949, 18.0817524]]}}, {"type": "Feature", "properties": {"highway": "residential"}, "geometry": {"type": "LineString", "coordinates": [[-15.9849714, 18.0815777], [-15.9848447, 18.0815114], [-15.9848016, 18.0812552], [-15.9847842, 18.08117], [-15.9847584, 18.0810857], [-15.9847225, 18.0810272], [-15.9846603, 18.0809459], [-15.9844502, 18.0806675], [-15.9843349, 18.0804778], [-15.9843054, 18.0804434], [-15.9842793, 18.0804242], [-15.9842541, 18.080411], [-15.9839411, 18.0803243]]}}, {"type": "Feature", "properties": {"highway": "residential"}, "geometry": {"type": "LineString", "coordinates": [[-15.9818036, 18.0799065], [-15.9824377, 18.0800103], [-15.9829075, 18.080076], [-15.983387, 18.0801599], [-15.9835809, 18.0802173], [-15.9839411, 18.0803243]]}}, {"type": "Feature", "properties": {"highway": "residential"}, "geometry": {"type": "LineString", "coordinates": [[-15.9816667, 18.0806506], [-15.9822954, 18.0807583], [-15.982774, 18.0808381], [-15.9832447, 18.0809247], [-15.9838147, 18.0810212]]}}, {"type": "Feature", "properties": {"highway": "residential"}, "geometry": {"type": "LineString", "coordinates": [[-15.9832339, 18.0842245], [-15.9839874, 18.0843591], [-15.984721, 18.084486], [-15.9859762, 18.0846937]]}}, {"type": "Feature", "properties": {"highway": "residential"}, "geometry": {"type": "LineString", "coordinates": [[-15.9838709, 18.0850922], [-15.9858369, 18.085391], [-15.9858932, 18.085391], [-15.9859495, 18.0853808], [-15.9860947, 18.0853516]]}}, {"type": "Feature", "properties": {"highway": "residential"}, "geometry": {"type": "LineString", "coordinates": [[-15.9833232, 18.0837319], [-15.9834196, 18.0837485], [-15.9839413, 18.0838383], [-15.9840755, 18.0838614], [-15.9842426, 18.0838902], [-15.9847706, 18.083981], [-15.9848205, 18.0839892], [-15.9852235, 18.0840553], [-15.9855941, 18.0841321], [-15.9858712, 18.0841617]]}}, {"type": "Feature", "properties": {"highway": "residential"}, "geometry": {"type": "LineString", "coordinates": [[-15.9805531, 18.0820831], [-15.9806259, 18.0815977], [-15.9806688, 18.0813025], [-15.9807221, 18.0809531], [-15.9807715, 18.080624], [-15.9808198, 18.080305], [-15.9808853, 18.0799613]]}}, {"type": "Feature", "properties": {"highway": "residential"}, "geometry": {"type": "LineString", "coordinates": [[-15.9796061, 18.0792252], [-15.9791407, 18.0791452], [-15.9789247, 18.0791109], [-15.9785449, 18.0790399], [-15.9782674, 18.0789925], [-15.977803, 18.0789127], [-15.9773824, 18.0788401], [-15.9769489, 18.0787652]]}}, {"type": "Feature", "properties": {"highway": "residential"}, "geometry": {"type": "LineString", "coordinates": [[-15.9813194, 18.082531], [-15.9796294, 18.0822407], [-15.9790831, 18.082154]]}}, {"type": "Feature", "properties": {"highway": "residential"}, "geometry": {"type": "LineString", "coordinates": [[-15.9795484, 18.0826864], [-15.9795843, 18.0825288], [-15.9795982, 18.0824621], [-15.9796127, 18.0823723], [-15.9796248, 18.0822793], [-15.9796294, 18.0822407], [-15.9796642, 18.0819358]]}}, {"type": "Feature", "properties": {"highway": "residential"}, "geometry": {"type": "LineString", "coordinates": [[-15.9830815, 18.0786227], [-15.9831006, 18.0786019], [-15.9831103, 18.0785772], [-15.9831105, 18.0785508], [-15.9831011, 18.0785259], [-15.9830833, 18.0785057], [-15.9830592, 18.0784924], [-15.9830367, 18.078488], [-15.9830138, 18.0784899], [-15.9829924, 18.078498], [-15.9829744, 18.0785116], [-15.9829606, 18.0785305], [-15.9829535, 18.0785526], [-15.9829537, 18.0785757], [-15.9829612, 18.0785976], [-15.9829753, 18.0786164], [-15.982999, 18.0786322], [-15.9830272, 18.0786389], [-15.9830559, 18.0786356], [-15.9830815, 18.0786227]]}}, {"type": "Feature", "properties": {"highway": "residential"}, "geometry": {"type": "LineString", "coordinates": [[-15.9790089, 18.0825786], [-15.9795484, 18.0826864], [-15.9799982, 18.0827618], [-15.980129, 18.0827877], [-15.9804094, 18.0828418], [-15.9806691, 18.082895], [-15.9812312, 18.0829995]]}}, {"type": "Feature", "properties": {"highway": "residential"}, "geometry": {"type": "LineString", "coordinates": [[-15.984517, 18.0871951], [-15.9845385, 18.087253], [-15.9847943, 18.0881171], [-15.9848268, 18.0884688], [-15.9848641, 18.0889345], [-15.9848853, 18.0892027], [-15.9848811, 18.089409], [-15.9849151, 18.0899543], [-15.9849327, 18.0902214], [-15.9849514, 18.0905483], [-15.9850075, 18.0912311], [-15.9850109, 18.0912617], [-15.9850182, 18.0912872]]}}, {"type": "Feature", "properties": {"highway": "residential"}, "geometry": {"type": "LineString", "coordinates": [[-15.9817416, 18.0868241], [-15.9816952, 18.087101], [-15.9816416, 18.0874019], [-15.981629, 18.0874902], [-15.9816015, 18.087682], [-15.9816032, 18.0877424]]}}, {"type": "Feature", "properties": {"highway": "secondary"}, "geometry": {"type": "LineString", "coordinates": [[-15.9910834, 18.0848337], [-15.990882, 18.0845283], [-15.990752, 18.0843313], [-15.9907103, 18.0842681], [-15.9899917, 18.0831787]]}}, {"type": "Feature", "properties": {"highway": "residential"}, "geometry": {"type": "LineString", "coordinates": [[-15.9814699, 18.0882977], [-15.9814394, 18.0877628]]}}, {"type": "Feature", "properties": {"highway": "residential"}, "geometry": {"type": "LineString", "coordinates": [[-15.9804778, 18.0870028], [-15.978685, 18.0867174], [-15.9780027, 18.0866057], [-15.9779108, 18.0865896]]}}, {"type": "Feature", "properties": {"highway": "residential"}, "geometry": {"type": "LineString", "coordinates": [[-15.9856322, 18.0891974], [-15.9856294, 18.0891058], [-15.9856095, 18.0882201], [-15.985595, 18.0880895], [-15.9855492, 18.0879028], [-15.9854875, 18.0876797], [-15.9854527, 18.0875538], [-15.9853535, 18.0871952], [-15.9853137, 18.0870583], [-15.9852913, 18.0870018]]}}, {"type": "Feature", "properties": {"highway": "residential"}, "geometry": {"type": "LineString", "coordinates": [[-15.9798578, 18.0819672], [-15.9799382, 18.0814969], [-15.9799887, 18.0811992]]}}, {"type": "Feature", "properties": {"highway": "residential"}, "geometry": {"type": "LineString", "coordinates": [[-15.9806259, 18.0815977], [-15.9799382, 18.0814969], [-15.9792174, 18.0813897], [-15.9791397, 18.0813984], [-15.9785667, 18.0813014]]}}, {"type": "Feature", "properties": {"highway": "residential"}, "geometry": {"type": "LineString", "coordinates": [[-15.9762982, 18.0798915], [-15.9769697, 18.0799989], [-15.9776086, 18.0801011], [-15.978113, 18.0801886], [-15.978726, 18.0802949], [-15.9793891, 18.0804027]]}}, {"type": "Feature", "properties": {"highway": "residential"}, "geometry": {"type": "LineString", "coordinates": [[-15.9811727, 18.087784], [-15.9811824, 18.0877203], [-15.9812228, 18.0875042], [-15.981414, 18.086481], [-15.9814751, 18.0861373], [-15.9815386, 18.0857243], [-15.9817678, 18.0844683]]}}, {"type": "Feature", "properties": {"highway": "residential"}, "geometry": {"type": "LineString", "coordinates": [[-15.9761744, 18.0805908], [-15.9768472, 18.0806981], [-15.9775089, 18.0808036], [-15.9779797, 18.0808788], [-15.9786173, 18.0809805], [-15.97927, 18.0810846], [-15.9799887, 18.0811992]]}}, {"type": "Feature", "properties": {"highway": "residential"}, "geometry": {"type": "LineString", "coordinates": [[-15.9762415, 18.08023], [-15.9769103, 18.0803379], [-15.9775434, 18.0804401], [-15.9780424, 18.0805334], [-15.9786779, 18.0806513], [-15.9789298, 18.0806812], [-15.9793321, 18.0807289], [-15.9800489, 18.0808445], [-15.9807221, 18.0809531], [-15.9815855, 18.0810925]]}}, {"type": "Feature", "properties": {"highway": "residential"}, "geometry": {"type": "LineString", "coordinates": [[-15.9827829, 18.0867063], [-15.9821767, 18.0866135], [-15.9817887, 18.0865435], [-15.981414, 18.086481]]}}, {"type": "Feature", "properties": {"highway": "residential"}, "geometry": {"type": "LineString", "coordinates": [[-15.9840718, 18.0826625], [-15.984119, 18.0823913], [-15.9841784, 18.0820818], [-15.9842129, 18.0818628], [-15.9842622, 18.0815861], [-15.9842946, 18.0814175], [-15.9843784, 18.0809578], [-15.9843877, 18.080917]]}}, {"type": "Feature", "properties": {"highway": "residential"}, "geometry": {"type": "LineString", "coordinates": [[-15.981068, 18.0838665], [-15.9804991, 18.0837782], [-15.9798829, 18.0836779], [-15.979382, 18.0835964], [-15.9792102, 18.0835675], [-15.9788463, 18.0835092]]}}, {"type": "Feature", "properties": {"highway": "residential"}, "geometry": {"type": "LineString", "coordinates": [[-15.9778387, 18.0784517], [-15.9784854, 18.0785385], [-15.9786334, 18.0785584], [-15.9792465, 18.078646], [-15.9797155, 18.0787223]]}}, {"type": "Feature", "properties": {"highway": "residential"}, "geometry": {"type": "LineString", "coordinates": [[-15.9836626, 18.0818605], [-15.9830895, 18.0817691]]}}, {"type": "Feature", "properties": {"highway": "residential"}, "geometry": {"type": "LineString", "coordinates": [[-15.9856621, 18.0834527], [-15.9853288, 18.0833964], [-15.9848793, 18.083313]]}}, {"type": "Feature", "properties": {"highway": "residential"}, "geometry": {"type": "LineString", "coordinates": [[-15.9848793, 18.083313], [-15.9848225, 18.0836533], [-15.98478, 18.0839287], [-15.9847706, 18.083981]]}}, {"type": "Feature", "properties": {"highway": "residential"}, "geometry": {"type": "LineString", "coordinates": [[-15.9828125, 18.0785489], [-15.9827062, 18.0792047]]}}, {"type": "Feature", "properties": {"highway": "residential"}, "geometry": {"type": "LineString", "coordinates": [[-15.9825706, 18.0824187], [-15.9825168, 18.0826924], [-15.9824697, 18.0829318], [-15.9824494, 18.0830237], [-15.9824232, 18.0831519], [-15.9823976, 18.0832666], [-15.98238, 18.0833636], [-15.9823622, 18.0834532], [-15.982329, 18.0836083], [-15.9822947, 18.083818], [-15.9822586, 18.0840388], [-15.9822169, 18.0842652], [-15.9821751, 18.084542]]}}, {"type": "Feature", "properties": {"highway": "residential"}, "geometry": {"type": "LineString", "coordinates": [[-15.9844976, 18.0827432], [-15.9846194, 18.0820485], [-15.9846349, 18.0819431], [-15.9847282, 18.0814975]]}}, {"type": "Feature", "properties": {"highway": "residential"}, "geometry": {"type": "LineString", "coordinates": [[-15.9839413, 18.0838383], [-15.9840023, 18.0835251]]}}, {"type": "Feature", "properties": {"highway": "residential"}, "geometry": {"type": "LineString", "coordinates": [[-15.9848225, 18.0836533], [-15.9842929, 18.0835705], [-15.9840023, 18.0835251], [-15.9833784, 18.0834276], [-15.9829064, 18.0833502]]}}, {"type": "Feature", "properties": {"highway": "residential"}, "geometry": {"type": "LineString", "coordinates": [[-15.9848447, 18.0815114], [-15.9847282, 18.0814975], [-15.9842946, 18.0814175]]}}, {"type": "Feature", "properties": {"highway": "residential"}, "geometry": {"type": "LineString", "coordinates": [[-15.9846349, 18.0819431], [-15.9842129, 18.0818628], [-15.9836759, 18.0817867]]}}, {"type": "Feature", "properties": {"highway": "residential"}, "geometry": {"type": "LineString", "coordinates": [[-15.9846194, 18.0820485], [-15.9849302, 18.0820916], [-15.9850487, 18.0820998]]}}, {"type": "Feature", "properties": {"highway": "residential"}, "geometry": {"type": "LineString", "coordinates": [[-15.9846603, 18.0809459], [-15.9843877, 18.080917], [-15.9838489, 18.080833]]}}, {"type": "Feature", "properties": {"highway": "residential"}, "geometry": {"type": "LineString", "coordinates": [[-15.9831041, 18.0816894], [-15.9826191, 18.081608], [-15.9821658, 18.0815298]]}}, {"type": "Feature", "properties": {"highway": "residential"}, "geometry": {"type": "LineString", "coordinates": [[-15.9821658, 18.0815298], [-15.981527, 18.08141]]}}, {"type": "Feature", "properties": {"highway": "residential"}, "geometry": {"type": "LineString", "coordinates": [[-15.982616, 18.079172], [-15.9824377, 18.0800103], [-15.9823598, 18.0803869], [-15.9823427, 18.0804918], [-15.982326, 18.0805932], [-15.9822954, 18.0807583], [-15.9821658, 18.0815298], [-15.982094, 18.0818999], [-15.9820671, 18.0820663], [-15.9820306, 18.0823259]]}}, {"type": "Feature", "properties": {"highway": "residential"}, "geometry": {"type": "LineString", "coordinates": [[-15.9848793, 18.083313], [-15.984373, 18.0832279], [-15.9843473, 18.083224], [-15.9842206, 18.0832047], [-15.9840603, 18.0831803], [-15.9834404, 18.0830855], [-15.9829777, 18.0830141], [-15.9824697, 18.0829318]]}}, {"type": "Feature", "properties": {"highway": "residential"}, "geometry": {"type": "LineString", "coordinates": [[-15.9840023, 18.0835251], [-15.9840603, 18.0831803]]}}, {"type": "Feature", "properties": {"highway": "residential"}, "geometry": {"type": "LineString", "coordinates": [[-15.9807957, 18.0853135], [-15.9790605, 18.0850152], [-15.9786034, 18.0849367], [-15.9783267, 18.0848906], [-15.9782126, 18.0848695], [-15.9779963, 18.0848323], [-15.9766577, 18.0846022], [-15.9764251, 18.0845623], [-15.9763548, 18.0845502], [-15.9761471, 18.0845142], [-15.9754886, 18.0844013], [-15.9749495, 18.0843086], [-15.9743677, 18.0842086], [-15.9738866, 18.0841259], [-15.9734123, 18.0840444]]}}, {"type": "Feature", "properties": {"highway": "residential"}, "geometry": {"type": "LineString", "coordinates": [[-15.9828506, 18.0863384], [-15.9820983, 18.0862284], [-15.9814751, 18.0861373]]}}, {"type": "Feature", "properties": {"highway": "residential"}, "geometry": {"type": "LineString", "coordinates": [[-15.9830624, 18.0825004], [-15.9830173, 18.0827827], [-15.9829777, 18.0830141], [-15.9829289, 18.0832281], [-15.9829064, 18.0833502], [-15.9828823, 18.0834468], [-15.9828276, 18.0836898], [-15.9827883, 18.0838922], [-15.9827422, 18.0841294], [-15.9827061, 18.0843515], [-15.9826542, 18.0846209]]}}, {"type": "Feature", "properties": {"highway": "residential"}, "geometry": {"type": "LineString", "coordinates": [[-15.9834277, 18.0799296], [-15.9829575, 18.0798377]]}}, {"type": "Feature", "properties": {"highway": "residential"}, "geometry": {"type": "LineString", "coordinates": [[-15.979262, 18.0839005], [-15.9790605, 18.0850152]]}}, {"type": "Feature", "properties": {"highway": "unclassified"}, "geometry": {"type": "LineString", "coordinates": [[-15.9820863, 18.07837], [-15.981183, 18.0782108], [-15.9807666, 18.078132], [-15.9805422, 18.0781024], [-15.9798467, 18.0779898], [-15.9793755, 18.0779407], [-15.978775, 18.0778817], [-15.9786731, 18.0778722]]}}, {"type": "Feature", "properties": {"highway": "residential"}, "geometry": {"type": "LineString", "coordinates": [[-15.9830519, 18.0792996], [-15.9829575, 18.0798377], [-15.9829075, 18.080076], [-15.9828879, 18.0801514], [-15.9828705, 18.0802403], [-15.9828416, 18.080417], [-15.982774, 18.0808381], [-15.9826191, 18.081608], [-15.982491, 18.0824026]]}}, {"type": "Feature", "properties": {"highway": "service"}, "geometry": {"type": "LineString", "coordinates": [[-15.9864875, 18.0872978], [-15.9854527, 18.0875538]]}}, {"type": "Feature", "properties": {"highway": "residential"}, "geometry": {"type": "LineString", "coordinates": [[-15.9829582, 18.0824831], [-15.9830895, 18.0817691], [-15.9831041, 18.0816894], [-15.983123, 18.0815868], [-15.9832447, 18.0809247], [-15.983387, 18.0801599], [-15.9834277, 18.0799296], [-15.9835171, 18.0794688], [-15.9835162, 18.0794512], [-15.9835115, 18.0794321], [-15.9835021, 18.0794158], [-15.9834594, 18.0793948]]}}, {"type": "Feature", "properties": {"highway": "residential"}, "geometry": {"type": "LineString", "coordinates": [[-15.9791407, 18.0791452], [-15.9792465, 18.078646], [-15.9793755, 18.0779407]]}}, {"type": "Feature", "properties": {"highway": "residential"}, "geometry": {"type": "LineString", "coordinates": [[-15.9849561, 18.0828212], [-15.9850219, 18.0822821], [-15.9850487, 18.0820998]]}}, {"type": "Feature", "properties": {"highway": "residential"}, "geometry": {"type": "LineString", "coordinates": [[-15.9823622, 18.0834532], [-15.9821427, 18.0834172], [-15.9817685, 18.0833558], [-15.9811823, 18.0832594]]}}, {"type": "Feature", "properties": {"highway": "residential"}, "geometry": {"type": "LineString", "coordinates": [[-15.9821906, 18.0870845], [-15.9821668, 18.0872483], [-15.9821363, 18.0874634], [-15.9821145, 18.0876152], [-15.9821194, 18.0876782]]}}, {"type": "Feature", "properties": {"highway": "residential"}, "geometry": {"type": "LineString", "coordinates": [[-15.9810306, 18.0840653], [-15.9814775, 18.0841295], [-15.9819883, 18.0842303], [-15.9822169, 18.0842652], [-15.9827061, 18.0843515]]}}, {"type": "Feature", "properties": {"highway": "residential"}, "geometry": {"type": "LineString", "coordinates": [[-15.9814091, 18.0844066], [-15.9814775, 18.0841295], [-15.9814861, 18.0841041], [-15.9814935, 18.0840822], [-15.9815092, 18.0840206], [-15.9815415, 18.0837953], [-15.9815624, 18.0836694]]}}, {"type": "Feature", "properties": {"highway": "residential"}, "geometry": {"type": "LineString", "coordinates": [[-15.9805502, 18.0835], [-15.9802937, 18.0834582], [-15.9800098, 18.0834101], [-15.9798807, 18.0833868], [-15.9794336, 18.0833125], [-15.9788965, 18.0832217]]}}, {"type": "Feature", "properties": {"highway": "residential"}, "geometry": {"type": "LineString", "coordinates": [[-15.9794336, 18.0833125], [-15.9795484, 18.0826864]]}}, {"type": "Feature", "properties": {"highway": "residential"}, "geometry": {"type": "LineString", "coordinates": [[-15.9804505, 18.0840899], [-15.9804991, 18.0837782], [-15.9805502, 18.0835], [-15.9806691, 18.082895]]}}, {"type": "Feature", "properties": {"highway": "residential"}, "geometry": {"type": "LineString", "coordinates": [[-15.9834594, 18.0793948], [-15.9830519, 18.0792996], [-15.9827062, 18.0792047], [-15.9826686, 18.0791943], [-15.9826431, 18.0791841], [-15.982616, 18.079172], [-15.9825902, 18.0791589], [-15.9825318, 18.0791418], [-15.9819633, 18.079023]]}}, {"type": "Feature", "properties": {"highway": "residential"}, "geometry": {"type": "LineString", "coordinates": [[-15.9817063, 18.0804353], [-15.9808198, 18.080305], [-15.9801673, 18.0802094]]}}, {"type": "Feature", "properties": {"highway": "residential"}, "geometry": {"type": "LineString", "coordinates": [[-15.9840755, 18.0838614], [-15.9839874, 18.0843591], [-15.9838709, 18.0850922], [-15.9837127, 18.0858873]]}}, {"type": "Feature", "properties": {"highway": "residential"}, "geometry": {"type": "LineString", "coordinates": [[-15.9807666, 18.078132], [-15.9808475, 18.0777328], [-15.980984, 18.0769558], [-15.9810688, 18.0764771], [-15.9811403, 18.0760729]]}}, {"type": "Feature", "properties": {"highway": "residential"}, "geometry": {"type": "LineString", "coordinates": [[-15.9888697, 18.0793315], [-15.9886133, 18.0789552], [-15.9880132, 18.0780651], [-15.9874243, 18.0771943]]}}, {"type": "Feature", "properties": {"highway": "residential"}, "geometry": {"type": "LineString", "coordinates": [[-15.9798467, 18.0779898], [-15.9797517, 18.0785278], [-15.9797155, 18.0787223], [-15.9796061, 18.0792252], [-15.9795011, 18.0797617], [-15.9793891, 18.0804027], [-15.9793321, 18.0807289], [-15.97927, 18.0810846], [-15.9792174, 18.0813897], [-15.9791367, 18.0818469], [-15.9790831, 18.082154], [-15.9790167, 18.082534], [-15.9790089, 18.0825786], [-15.9789658, 18.0828254], [-15.9789107, 18.0831409], [-15.9788965, 18.0832217], [-15.9788645, 18.0834049], [-15.9788551, 18.0834589], [-15.9788463, 18.0835092], [-15.978827, 18.0836078], [-15.9787845, 18.0838248], [-15.9787036, 18.0843457], [-15.9786034, 18.0849367]]}}, {"type": "Feature", "properties": {"highway": "residential"}, "geometry": {"type": "LineString", "coordinates": [[-15.9798807, 18.0833868], [-15.9799982, 18.0827618]]}}, {"type": "Feature", "properties": {"highway": "residential"}, "geometry": {"type": "LineString", "coordinates": [[-15.9810484, 18.0789721], [-15.9819484, 18.0791198]]}}, {"type": "Feature", "properties": {"highway": "residential"}, "geometry": {"type": "LineString", "coordinates": [[-15.9818863, 18.0794574], [-15.9809923, 18.0793123]]}}, {"type": "Feature", "properties": {"highway": "residential"}, "geometry": {"type": "LineString", "coordinates": [[-15.9818264, 18.0797826], [-15.9809379, 18.0796421]]}}, {"type": "Feature", "properties": {"highway": "residential"}, "geometry": {"type": "LineString", "coordinates": [[-15.9810998, 18.07866], [-15.9820119, 18.0787743]]}}, {"type": "Feature", "properties": {"highway": "residential"}, "geometry": {"type": "LineString", "coordinates": [[-15.9793891, 18.0804027], [-15.9801098, 18.080518], [-15.9807715, 18.080624], [-15.9812525, 18.080701], [-15.9816458, 18.0807644]]}}, {"type": "Feature", "properties": {"highway": "residential"}, "geometry": {"type": "LineString", "coordinates": [[-15.9801673, 18.0802094], [-15.9802354, 18.0798627], [-15.9802825, 18.0795926], [-15.9803592, 18.0791524], [-15.9804373, 18.0787041], [-15.9805422, 18.0781024]]}}, {"type": "Feature", "properties": {"highway": "residential"}, "geometry": {"type": "LineString", "coordinates": [[-15.9808853, 18.0799613], [-15.9803287, 18.0798755], [-15.9802354, 18.0798627], [-15.9795011, 18.0797617]]}}, {"type": "Feature", "properties": {"highway": "residential"}, "geometry": {"type": "LineString", "coordinates": [[-15.9808853, 18.0799613], [-15.9809379, 18.0796421], [-15.9809923, 18.0793123], [-15.9810447, 18.0789944], [-15.9810484, 18.0789721], [-15.9810998, 18.07866], [-15.981183, 18.0782108]]}}, {"type": "Feature", "properties": {"highway": "residential"}, "geometry": {"type": "LineString", "coordinates": [[-15.9799887, 18.0811992], [-15.9800489, 18.0808445], [-15.9801098, 18.080518], [-15.9801673, 18.0802094]]}}, {"type": "Feature", "properties": {"highway": "residential"}, "geometry": {"type": "LineString", "coordinates": [[-15.9799887, 18.0811992], [-15.9806688, 18.0813025], [-15.9815225, 18.0814345]]}}, {"type": "Feature", "properties": {"highway": "trunk"}, "geometry": {"type": "LineString", "coordinates": [[-15.9909733, 18.0852622], [-15.9909415, 18.0852712], [-15.9907178, 18.0853461], [-15.9904417, 18.0854303], [-15.9897947, 18.0856277], [-15.989491, 18.0857203], [-15.9894541, 18.0857317], [-15.9890378, 18.0858604], [-15.9884076, 18.0860552]]}}, {"type": "Feature", "properties": {"highway": "residential"}, "geometry": {"type": "LineString", "coordinates": [[-15.9828516, 18.0785582], [-15.9828125, 18.0785489], [-15.9820863, 18.07837]]}}, {"type": "Feature", "properties": {"highway": "tertiary"}, "geometry": {"type": "LineString", "coordinates": [[-15.9855492, 18.0879028], [-15.9865486, 18.0876605]]}}, {"type": "Feature", "properties": {"highway": "service"}, "geometry": {"type": "LineString", "coordinates": [[-15.9806535, 18.0878145], [-15.9806614, 18.0877565], [-15.9806976, 18.0874591]]}}, {"type": "Feature", "properties": {"highway": "service"}, "geometry": {"type": "LineString", "coordinates": [[-15.9806976, 18.0874591], [-15.9803932, 18.0874521]]}}, {"type": "Feature", "properties": {"highway": "service"}, "geometry": {"type": "LineString", "coordinates": [[-15.9866631, 18.0877039], [-15.9865587, 18.0877204]]}}, {"type": "Feature", "properties": {"highway": "service"}, "geometry": {"type": "LineString", "coordinates": [[-15.9872069, 18.0876526], [-15.9871913, 18.0875679]]}}, {"type": "Feature", "properties": {"highway": "service"}, "geometry": {"type": "LineString", "coordinates": [[-15.9871913, 18.0875679], [-15.986793, 18.0876438], [-15.9866631, 18.0877039], [-15.9868145, 18.0877211], [-15.9872069, 18.0876526]]}}, {"type": "Feature", "properties": {"highway": "service"}, "geometry": {"type": "LineString", "coordinates": [[-15.9871913, 18.0875679], [-15.9870856, 18.0869885], [-15.9870829, 18.086963], [-15.987099, 18.0869477], [-15.9873068, 18.0869107]]}}, {"type": "Feature", "properties": {"highway": "service"}, "geometry": {"type": "LineString", "coordinates": [[-15.9806976, 18.0874591], [-15.9807035, 18.0874209], [-15.9809641, 18.085718], [-15.9809776, 18.0856295]]}}, {"type": "Feature", "properties": {"highway": "residential"}, "geometry": {"type": "LineString", "coordinates": [[-15.9866358, 18.0881204], [-15.9865587, 18.0877204], [-15.9865486, 18.0876605]]}}, {"type": "Feature", "properties": {"highway": "tertiary"}, "geometry": {"type": "LineString", "coordinates": [[-15.9826161, 18.0875551], [-15.9826041, 18.0876202], [-15.9825388, 18.0880247]]}}, {"type": "Feature", "properties": {"highway": "residential"}, "geometry": {"type": "LineString", "coordinates": [[-15.9805939, 18.0741216], [-15.9804726, 18.0746183], [-15.9802117, 18.0759375], [-15.9801384, 18.0763062], [-15.9800412, 18.0768183], [-15.9799697, 18.0771832], [-15.9798467, 18.0779898]]}}, {"type": "Feature", "properties": {"highway": "tertiary"}, "geometry": {"type": "LineString", "coordinates": [[-15.9803316, 18.0877796], [-15.9803217, 18.0878406]]}}, {"type": "Feature", "properties": {"highway": "service"}, "geometry": {"type": "LineString", "coordinates": [[-15.9886424, 18.0882186], [-15.9885677, 18.0878208]]}}, {"type": "Feature", "properties": {"highway": "service"}, "geometry": {"type": "LineString", "coordinates": [[-15.9885222, 18.0863486], [-15.9884376, 18.0861309], [-15.988421, 18.0860871], [-15.9884076, 18.0860552]]}}, {"type": "Feature", "properties": {"highway": "service"}, "geometry": {"type": "LineString", "coordinates": [[-15.9887925, 18.0863447], [-15.9894311, 18.086128], [-15.9895009, 18.0861356], [-15.9896457, 18.0867832], [-15.9896457, 18.0868699], [-15.9895948, 18.0869184], [-15.988981, 18.0870251], [-15.9886867, 18.0870254]]}}, {"type": "Feature", "properties": {"highway": "residential"}, "geometry": {"type": "LineString", "coordinates": [[-15.9802937, 18.0834582], [-15.9804094, 18.0828418]]}}, {"type": "Feature", "properties": {"highway": "residential"}, "geometry": {"type": "LineString", "coordinates": [[-15.9800098, 18.0834101], [-15.980129, 18.0827877]]}}, {"type": "Feature", "properties": {"highway": "residential"}, "geometry": {"type": "LineString", "coordinates": [[-15.9820185, 18.0831961], [-15.9823976, 18.0832666]]}}, {"type": "Feature", "properties": {"highway": "residential"}, "geometry": {"type": "LineString", "coordinates": [[-15.9820185, 18.0831961], [-15.9816282, 18.0831247], [-15.98122, 18.0830593]]}}, {"type": "Feature", "properties": {"highway": "residential"}, "geometry": {"type": "LineString", "coordinates": [[-15.9817106, 18.0836932], [-15.9815624, 18.0836694], [-15.9811202, 18.0835895]]}}, {"type": "Feature", "properties": {"highway": "residential"}, "geometry": {"type": "LineString", "coordinates": [[-15.9817012, 18.0837802], [-15.9817106, 18.0836932], [-15.9817685, 18.0833558]]}}, {"type": "Feature", "properties": {"highway": "residential"}, "geometry": {"type": "LineString", "coordinates": [[-15.9819376, 18.0844975], [-15.9819883, 18.0842303], [-15.9820538, 18.0838759], [-15.9821427, 18.0834172]]}}, {"type": "Feature", "properties": {"highway": "residential"}, "geometry": {"type": "LineString", "coordinates": [[-15.9820538, 18.0838759], [-15.9818058, 18.0838414], [-15.9817207, 18.0838331], [-15.9817057, 18.0838249], [-15.9817003, 18.0838097], [-15.9817012, 18.0837802]]}}, {"type": "Feature", "properties": {"highway": "residential"}, "geometry": {"type": "LineString", "coordinates": [[-15.9824494, 18.0830237], [-15.9819733, 18.0829294], [-15.9812638, 18.0828019]]}}, {"type": "Feature", "properties": {"highway": "residential"}, "geometry": {"type": "LineString", "coordinates": [[-15.9830173, 18.0827827], [-15.9825168, 18.0826924]]}}, {"type": "Feature", "properties": {"highway": "residential"}, "geometry": {"type": "LineString", "coordinates": [[-15.98238, 18.0833636], [-15.9828823, 18.0834468]]}}, {"type": "Feature", "properties": {"highway": "residential"}, "geometry": {"type": "LineString", "coordinates": [[-15.9832339, 18.0842245], [-15.9829677, 18.0841774], [-15.9827422, 18.0841294], [-15.9822586, 18.0840388]]}}, {"type": "Feature", "properties": {"highway": "residential"}, "geometry": {"type": "LineString", "coordinates": [[-15.9829289, 18.0832281], [-15.9824232, 18.0831519]]}}, {"type": "Feature", "properties": {"highway": "residential"}, "geometry": {"type": "LineString", "coordinates": [[-15.9842206, 18.0832047], [-15.9842961, 18.0827053]]}}, {"type": "Feature", "properties": {"highway": "residential"}, "geometry": {"type": "LineString", "coordinates": [[-15.9833178, 18.0837594], [-15.9828276, 18.0836898], [-15.982329, 18.0836083]]}}, {"type": "Feature", "properties": {"highway": "residential"}, "geometry": {"type": "LineString", "coordinates": [[-15.9842426, 18.0838902], [-15.9842929, 18.0835705], [-15.9843473, 18.083224]]}}, {"type": "Feature", "properties": {"highway": "residential"}, "geometry": {"type": "LineString", "coordinates": [[-15.9852235, 18.0840553], [-15.9853288, 18.0833964]]}}, {"type": "Feature", "properties": {"highway": "trunk"}, "geometry": {"type": "LineString", "coordinates": [[-15.9863912, 18.0867267], [-15.9867793, 18.0865858], [-15.9869362, 18.0865099]]}}, {"type": "Feature", "properties": {"highway": "residential"}, "geometry": {"type": "LineString", "coordinates": [[-15.9867864, 18.0852304], [-15.9860947, 18.0853516]]}}, {"type": "Feature", "properties": {"highway": "residential"}, "geometry": {"type": "LineString", "coordinates": [[-15.9867398, 18.0850084], [-15.9860546, 18.0851289]]}}, {"type": "Feature", "properties": {"highway": "residential"}, "geometry": {"type": "LineString", "coordinates": [[-15.9899917, 18.0831787], [-15.9894955, 18.0833029], [-15.9890771, 18.0834355], [-15.9872693, 18.0838587], [-15.9871227, 18.0839138], [-15.9868003, 18.084094], [-15.9864782, 18.0843342], [-15.9859762, 18.0846937]]}}, {"type": "Feature", "properties": {"highway": "service"}, "geometry": {"type": "LineString", "coordinates": [[-15.9847629, 18.0785963], [-15.9848944, 18.0785147], [-15.9854844, 18.0781476], [-15.9861658, 18.0776367]]}}, {"type": "Feature", "properties": {"highway": "residential"}, "geometry": {"type": "LineString", "coordinates": [[-15.9900668, 18.0795173], [-15.989525, 18.079876], [-15.9890047, 18.0801871], [-15.9887418, 18.0803401], [-15.9886922, 18.0803554], [-15.98866, 18.0803554], [-15.9886238, 18.0803452], [-15.9884387, 18.0801017], [-15.9881752, 18.079764]]}}, {"type": "Feature", "properties": {"highway": "residential"}, "geometry": {"type": "LineString", "coordinates": [[-15.988816, 18.0768861], [-15.9888942, 18.0768365], [-15.9889862, 18.0767781], [-15.989218, 18.0766311], [-15.9893748, 18.0765434], [-15.9894902, 18.0764797], [-15.9895304, 18.0764873], [-15.9895894, 18.0765638], [-15.9898388, 18.0768813], [-15.9898863, 18.076948], [-15.9899703, 18.0770662], [-15.9904709, 18.0777881]]}}, {"type": "Feature", "properties": {"highway": "residential"}, "geometry": {"type": "LineString", "coordinates": [[-15.989218, 18.0766311], [-15.9893775, 18.0768801], [-15.9895599, 18.0771911], [-15.989989, 18.0777827], [-15.9901124, 18.0779229], [-15.9901822, 18.0779509], [-15.9902492, 18.0779254], [-15.9903618, 18.0778557], [-15.9904709, 18.0777881], [-15.9908488, 18.077554]]}}, {"type": "Feature", "properties": {"highway": "residential"}, "geometry": {"type": "LineString", "coordinates": [[-15.9850949, 18.0817524], [-15.9851141, 18.0814747]]}}, {"type": "Feature", "properties": {"highway": "residential"}, "geometry": {"type": "LineString", "coordinates": [[-15.9875469, 18.0796136], [-15.9863763, 18.0805039], [-15.9857136, 18.0810079], [-15.9851141, 18.0814747]]}}, {"type": "Feature", "properties": {"highway": "residential"}, "geometry": {"type": "LineString", "coordinates": [[-15.9808475, 18.0777328], [-15.9805141, 18.0776584], [-15.9805037, 18.0776501], [-15.980496, 18.0776405], [-15.980494, 18.0776287], [-15.980545, 18.0772973], [-15.9806059, 18.0769007]]}}, {"type": "Feature", "properties": {"highway": "residential"}, "geometry": {"type": "LineString", "coordinates": [[-15.9836951, 18.0816808], [-15.983123, 18.0815868]]}}, {"type": "Feature", "properties": {"highway": "residential"}, "geometry": {"type": "LineString", "coordinates": [[-15.9848205, 18.0839892], [-15.9847666, 18.0842563], [-15.984721, 18.084486]]}}, {"type": "Feature", "properties": {"highway": "residential"}, "geometry": {"type": "LineString", "coordinates": [[-15.9891991, 18.0796129], [-15.9889708, 18.0792667]]}}, {"type": "Feature", "properties": {"highway": "residential"}, "geometry": {"type": "LineString", "coordinates": [[-15.9876685, 18.0783028], [-15.9880132, 18.0780651]]}}, {"type": "Feature", "properties": {"highway": "residential"}, "geometry": {"type": "LineString", "coordinates": [[-15.9882474, 18.0791703], [-15.9876685, 18.0783028], [-15.9873471, 18.0778158], [-15.9870779, 18.0774174]]}}, {"type": "Feature", "properties": {"highway": "residential"}, "geometry": {"type": "LineString", "coordinates": [[-15.986993, 18.078044], [-15.9873471, 18.0778158]]}}, {"type": "Feature", "properties": {"highway": "residential"}, "geometry": {"type": "LineString", "coordinates": [[-15.9886133, 18.0789552], [-15.9882474, 18.0791703], [-15.9880297, 18.0793189], [-15.987976, 18.0793457], [-15.9879519, 18.0793514], [-15.9879264, 18.0793419], [-15.9878795, 18.0792947], [-15.9873095, 18.0784686], [-15.986993, 18.078044]]}}, {"type": "Feature", "properties": {"highway": "residential"}, "geometry": {"type": "LineString", "coordinates": [[-15.9884284, 18.077808], [-15.9880132, 18.0780651]]}}, {"type": "Feature", "properties": {"highway": "residential"}, "geometry": {"type": "LineString", "coordinates": [[-15.9881075, 18.0773454], [-15.9881399, 18.0773921], [-15.9884087, 18.0777796], [-15.9884284, 18.077808], [-15.9886372, 18.078109], [-15.9890325, 18.0786866]]}}, {"type": "Feature", "properties": {"highway": "residential"}, "geometry": {"type": "LineString", "coordinates": [[-15.988424, 18.0771414], [-15.9890623, 18.0780338], [-15.9893104, 18.0784316], [-15.9893078, 18.0784711], [-15.9892944, 18.0785004], [-15.9892648, 18.0785246], [-15.9890325, 18.0786866], [-15.9886133, 18.0789552]]}}, {"type": "Feature", "properties": {"highway": "residential"}, "geometry": {"type": "LineString", "coordinates": [[-15.9904417, 18.0854303], [-15.9901741, 18.0846823], [-15.9901285, 18.0845446], [-15.9901312, 18.0845089], [-15.99015, 18.0844681], [-15.9901983, 18.0844464], [-15.9907103, 18.0842681]]}}, {"type": "Feature", "properties": {"highway": "residential"}, "geometry": {"type": "LineString", "coordinates": [[-15.9820983, 18.0862284], [-15.9821838, 18.0858333]]}}, {"type": "Feature", "properties": {"highway": "tertiary"}, "geometry": {"type": "LineString", "coordinates": [[-15.9863912, 18.0867267], [-15.9863742, 18.0866573]]}}, {"type": "Feature", "properties": {"highway": "secondary"}, "geometry": {"type": "LineString", "coordinates": [[-15.9875469, 18.0796136], [-15.9865998, 18.078258], [-15.9865183, 18.0781413], [-15.9864862, 18.0780953], [-15.9863432, 18.0778906], [-15.9861658, 18.0776367], [-15.9856106, 18.0768419], [-15.9849298, 18.0758674], [-15.9844181, 18.075135], [-15.9841512, 18.0747529]]}}, {"type": "Feature", "properties": {"highway": "tertiary"}, "geometry": {"type": "LineString", "coordinates": [[-15.9885309, 18.0810189], [-15.9896297, 18.080327], [-15.9903435, 18.07989], [-15.9907285, 18.0796548], [-15.9918011, 18.078969], [-15.9920015, 18.0788392], [-15.9929157, 18.0782624], [-15.9929395, 18.0782474], [-15.993149, 18.0781152], [-15.9936126, 18.0778227], [-15.994015, 18.077571], [-15.994093, 18.0775196], [-15.9947151, 18.0771261], [-15.9950996, 18.076883], [-15.9954826, 18.0766447], [-15.9956035, 18.0765667], [-15.9961731, 18.076213], [-15.9965612, 18.075968], [-15.9972446, 18.0755321], [-15.9976507, 18.0752761], [-15.9983488, 18.0748121]]}}, {"type": "Feature", "properties": {"highway": "trunk"}, "geometry": {"type": "LineString", "coordinates": [[-15.9816032, 18.0877424], [-15.9821194, 18.0876782], [-15.9826041, 18.0876202], [-15.9833124, 18.0875004], [-15.9840631, 18.0873572], [-15.9845385, 18.087253], [-15.9853137, 18.0870583], [-15.985532, 18.0869986], [-15.9858486, 18.0869059], [-15.9859165, 18.0868847], [-15.9863912, 18.0867267]]}}, {"type": "Feature", "properties": {"highway": "trunk"}, "geometry": {"type": "LineString", "coordinates": [[-15.9826161, 18.0875551], [-15.9821145, 18.0876152], [-15.9816015, 18.087682], [-15.98144, 18.0876968], [-15.9811824, 18.0877203], [-15.9806614, 18.0877565], [-15.9803316, 18.0877796]]}}, {"type": "Feature", "properties": {"highway": "trunk"}, "geometry": {"type": "LineString", "coordinates": [[-15.9863742, 18.0866573], [-15.9858883, 18.0868353], [-15.9858295, 18.0868525], [-15.9856625, 18.0869014], [-15.9853762, 18.08698], [-15.9852913, 18.0870018], [-15.9849991, 18.087077], [-15.984517, 18.0871951], [-15.9839507, 18.0873163], [-15.9838712, 18.0873333], [-15.9832911, 18.0874369], [-15.9826161, 18.0875551]]}}, {"type": "Feature", "properties": {"highway": "tertiary"}, "geometry": {"type": "LineString", "coordinates": [[-15.9812881, 18.0822056], [-15.9805531, 18.0820831], [-15.9802057, 18.0820252]]}}, {"type": "Feature", "properties": {"highway": "tertiary"}, "geometry": {"type": "LineString", "coordinates": [[-15.9802021, 18.0885138], [-15.9803217, 18.0878406]]}}, {"type": "Feature", "properties": {"highway": "trunk"}, "geometry": {"type": "LineString", "coordinates": [[-15.9884076, 18.0860552], [-15.9881795, 18.0861256], [-15.9878497, 18.0862276], [-15.9876287, 18.0862959], [-15.9871434, 18.0864459], [-15.9869362, 18.0865099]]}}, {"type": "Feature", "properties": {"highway": "trunk"}, "geometry": {"type": "LineString", "coordinates": [[-15.9728433, 18.0871832], [-15.9738029, 18.0873451], [-15.9741063, 18.0874003], [-15.9744523, 18.0874643], [-15.9749043, 18.0875379], [-15.9752525, 18.0875884], [-15.9758822, 18.0876756], [-15.9761302, 18.0877027], [-15.9763373, 18.0877253], [-15.9764586, 18.0877351], [-15.97678, 18.0877609], [-15.9769467, 18.0877794], [-15.9772254, 18.087805], [-15.9774571, 18.0878216], [-15.9777137, 18.0878388], [-15.9777782, 18.0878429], [-15.9780048, 18.0878526], [-15.9782994, 18.0878634], [-15.9785513, 18.0878694], [-15.9787198, 18.0878755], [-15.9790641, 18.087878], [-15.9793301, 18.0878787], [-15.979628, 18.0878711], [-15.9799415, 18.087857]]}}, {"type": "Feature", "properties": {"highway": "trunk"}, "geometry": {"type": "LineString", "coordinates": [[-15.9799388, 18.0878032], [-15.979625, 18.087821], [-15.9793273, 18.0878285], [-15.9790564, 18.087826], [-15.9787935, 18.087826], [-15.9785387, 18.0878183], [-15.9782785, 18.0878133], [-15.9780104, 18.0878049], [-15.9777885, 18.0877905], [-15.9777228, 18.0877863], [-15.9772227, 18.0877477], [-15.9767798, 18.0877019], [-15.9763554, 18.0876629], [-15.9759013, 18.0876117], [-15.9749158, 18.0874591], [-15.9744591, 18.0873875], [-15.9738124, 18.0872668], [-15.9728563, 18.0870977]]}}, {"type": "Feature", "properties": {"highway": "tertiary"}, "geometry": {"type": "LineString", "coordinates": [[-15.9813778, 18.0822206], [-15.9812881, 18.0822056]]}}, {"type": "Feature", "properties": {"highway": "secondary"}, "geometry": {"type": "LineString", "coordinates": [[-15.9899917, 18.0831787], [-15.9893951, 18.0822866], [-15.9892868, 18.0821276], [-15.988785, 18.0813915], [-15.9885309, 18.0810189]]}}, {"type": "Feature", "properties": {"highway": "secondary"}, "geometry": {"type": "LineString", "coordinates": [[-15.9885309, 18.0810189], [-15.9884716, 18.0809342], [-15.9878111, 18.0799908], [-15.9875469, 18.0796136]]}}, {"type": "Feature", "properties": {"highway": "residential"}, "geometry": {"type": "LineString", "coordinates": [[-15.9851141, 18.0814747], [-15.9849714, 18.0815777]]}}, {"type": "Feature", "properties": {"highway": "residential"}, "geometry": {"type": "LineString", "coordinates": [[-15.9850949, 18.0817524], [-15.9851606, 18.0819237], [-15.9852014, 18.0820442]]}}, {"type": "Feature", "properties": {"highway": "residential"}, "geometry": {"type": "LineString", "coordinates": [[-15.9852014, 18.0820442], [-15.9854611, 18.0829051]]}}, {"type": "Feature", "properties": {"highway": "residential"}, "geometry": {"type": "LineString", "coordinates": [[-15.9850487, 18.0820998], [-15.9852014, 18.0820442]]}}, {"type": "Feature", "properties": {"highway": "residential"}, "geometry": {"type": "LineString", "coordinates": [[-15.9854611, 18.0829051], [-15.9849561, 18.0828212]]}}, {"type": "Feature", "properties": {"highway": "trunk"}, "geometry": {"type": "LineString", "coordinates": [[-15.9869362, 18.0865099], [-15.9867685, 18.0865475], [-15.9863742, 18.0866573]]}}, {"type": "Feature", "properties": {"highway": "tertiary"}, "geometry": {"type": "LineString", "coordinates": [[-15.9793483, 18.0818826], [-15.9791367, 18.0818469], [-15.9786466, 18.0817642], [-15.9784825, 18.0817378], [-15.9782813, 18.081703], [-15.9782346, 18.0816954]]}}, {"type": "Feature", "properties": {"highway": "tertiary"}, "geometry": {"type": "LineString", "coordinates": [[-15.9802057, 18.0820252], [-15.9798578, 18.0819672], [-15.9797311, 18.0819467]]}}, {"type": "Feature", "properties": {"highway": "tertiary"}, "geometry": {"type": "LineString", "coordinates": [[-15.9797311, 18.0819467], [-15.9796642, 18.0819358], [-15.9793483, 18.0818826]]}}, {"type": "Feature", "properties": {"highway": "trunk"}, "geometry": {"type": "LineString", "coordinates": [[-15.9803316, 18.0877796], [-15.9799388, 18.0878032]]}}, {"type": "Feature", "properties": {"highway": "trunk"}, "geometry": {"type": "LineString", "coordinates": [[-15.9799415, 18.087857], [-15.980239, 18.0878442], [-15.9803217, 18.0878406]]}}, {"type": "Feature", "properties": {"highway": "residential"}, "geometry": {"type": "LineString", "coordinates": [[-15.9814394, 18.0877628], [-15.98144, 18.0876968]]}}, {"type": "Feature", "properties": {"highway": "trunk"}, "geometry": {"type": "LineString", "coordinates": [[-15.9803217, 18.0878406], [-15.9806535, 18.0878145], [-15.98106, 18.0877929], [-15.9811727, 18.087784], [-15.9814394, 18.0877628]]}}, {"type": "Feature", "properties": {"highway": "residential"}, "geometry": {"type": "LineString", "coordinates": [[-15.9817887, 18.0865435], [-15.9817416, 18.0868241]]}}, {"type": "Feature", "properties": {"highway": "trunk"}, "geometry": {"type": "LineString", "coordinates": [[-15.9814394, 18.0877628], [-15.9816032, 18.0877424]]}}, {"type": "Feature", "properties": {"highway": "residential"}, "geometry": {"type": "LineString", "coordinates": [[-15.9781988, 18.0855258], [-15.9789017, 18.0856527], [-15.9806743, 18.0859587]]}}, {"type": "Feature", "properties": {"highway": "residential"}, "geometry": {"type": "LineString", "coordinates": [[-15.9838562, 18.0867616], [-15.9839507, 18.0873163]]}}, {"type": "Feature", "properties": {"highway": "residential"}, "geometry": {"type": "LineString", "coordinates": [[-15.9890378, 18.0858604], [-15.9888223, 18.0852968]]}}, {"type": "Feature", "properties": {"highway": "service"}, "geometry": {"type": "LineString", "coordinates": [[-15.986124, 18.0875328], [-15.9854875, 18.0876797]]}}, {"type": "Feature", "properties": {"highway": "service"}, "geometry": {"type": "LineString", "coordinates": [[-15.9875804, 18.0853121], [-15.9871164, 18.0853866], [-15.98704, 18.0854421], [-15.9870071, 18.0854956], [-15.9870017, 18.0857034], [-15.9870708, 18.0860948], [-15.9871434, 18.0864459]]}}, {"type": "Feature", "properties": {"highway": "residential"}, "geometry": {"type": "LineString", "coordinates": [[-15.9804373, 18.0787041], [-15.980144, 18.0786579]]}}, {"type": "Feature", "properties": {"highway": "residential"}, "geometry": {"type": "LineString", "coordinates": [[-15.9803592, 18.0791524], [-15.9799676, 18.079085]]}}, {"type": "Feature", "properties": {"highway": "residential"}, "geometry": {"type": "LineString", "coordinates": [[-15.9802825, 18.0795926], [-15.9798892, 18.0795203]]}}, {"type": "Feature", "properties": {"highway": "residential"}, "geometry": {"type": "LineString", "coordinates": [[-15.9827883, 18.0838922], [-15.9822947, 18.083818]]}}, {"type": "Feature", "properties": {"highway": "service"}, "geometry": {"type": "LineString", "coordinates": [[-15.9799398, 18.0840085], [-15.9799536, 18.0839339], [-15.9799629, 18.0839174], [-15.9799857, 18.0839059], [-15.9800099, 18.0839008], [-15.9803438, 18.0839085]]}}, {"type": "Feature", "properties": {"highway": "service"}, "geometry": {"type": "LineString", "coordinates": [[-15.978827, 18.0836078], [-15.9789974, 18.0836446], [-15.9790242, 18.0836892], [-15.979161, 18.0837083], [-15.9791932, 18.0836726], [-15.9792102, 18.0835675], [-15.9792414, 18.0834087]]}}, {"type": "Feature", "properties": {"highway": "service"}, "geometry": {"type": "LineString", "coordinates": [[-15.9793184, 18.0839095], [-15.9793521, 18.0837421], [-15.979382, 18.0835964], [-15.9794024, 18.0834928], [-15.9794278, 18.0834788], [-15.979452, 18.083475], [-15.9798262, 18.0835298], [-15.9798503, 18.0835528], [-15.9798624, 18.0835808], [-15.9798829, 18.0836779], [-15.9798986, 18.0837631], [-15.9798932, 18.0837924], [-15.9798718, 18.0838141], [-15.9798436, 18.0838116], [-15.9793521, 18.0837421]]}}, {"type": "Feature", "properties": {"highway": "service"}, "geometry": {"type": "LineString", "coordinates": [[-15.9865183, 18.0781413], [-15.9864291, 18.0782072]]}}, {"type": "Feature", "properties": {"highway": "service"}, "geometry": {"type": "LineString", "coordinates": [[-15.9864862, 18.0780953], [-15.986594, 18.07803], [-15.9866135, 18.0780293], [-15.9866396, 18.0780485], [-15.9867316, 18.0781863]]}}, {"type": "Feature", "properties": {"highway": "service"}, "geometry": {"type": "LineString", "coordinates": [[-15.980239, 18.0878442], [-15.9801535, 18.0885142]]}}, {"type": "Feature", "properties": {"highway": "residential"}, "geometry": {"type": "LineString", "coordinates": [[-15.9821363, 18.0874634], [-15.981629, 18.0874902], [-15.9812228, 18.0875042], [-15.9807649, 18.087543]]}}, {"type": "Feature", "properties": {"highway": "service"}, "geometry": {"type": "LineString", "coordinates": [[-15.9785387, 18.0878183], [-15.9785414, 18.0876935], [-15.9785602, 18.0876578], [-15.9786138, 18.0876399], [-15.979625, 18.0876884]]}}, {"type": "Feature", "properties": {"highway": "residential"}, "geometry": {"type": "LineString", "coordinates": [[-15.986993, 18.078044], [-15.9867316, 18.0781863], [-15.9865998, 18.078258]]}}, {"type": "Feature", "properties": {"highway": "residential"}, "geometry": {"type": "LineString", "coordinates": [[-15.9898946, 18.089157], [-15.989911, 18.0885836], [-15.9899113, 18.0880351], [-15.9899099, 18.0877534], [-15.9898951, 18.087571], [-15.9898764, 18.0873926], [-15.9898405, 18.0871427], [-15.9898046, 18.0869761], [-15.9897342, 18.0867574], [-15.9895827, 18.0862032], [-15.9894541, 18.0857317]]}}, {"type": "Feature", "properties": {"highway": "residential"}, "geometry": {"type": "LineString", "coordinates": [[-15.9893989, 18.0794974], [-15.98915, 18.0791557]]}}, {"type": "Feature", "properties": {"highway": "residential"}, "geometry": {"type": "LineString", "coordinates": [[-15.9906576, 18.0787076], [-15.9905161, 18.0785304], [-15.9903777, 18.0783601]]}}, {"type": "Feature", "properties": {"highway": "residential"}, "geometry": {"type": "LineString", "coordinates": [[-15.9850949, 18.0817524], [-15.9850435, 18.0820204], [-15.9850487, 18.0820998]]}}, {"type": "Feature", "properties": {"highway": "service"}, "geometry": {"type": "LineString", "coordinates": [[-15.9897947, 18.0856277], [-15.9898438, 18.0857703], [-15.9898784, 18.0858285], [-15.9899598, 18.0858865], [-15.9900777, 18.0859174], [-15.9901976, 18.0859619], [-15.9902382, 18.0859947], [-15.9902606, 18.0860681], [-15.990285, 18.08613], [-15.9903175, 18.0861551], [-15.9903785, 18.086159], [-15.9910066, 18.0859677]]}}, {"type": "Feature", "properties": {"highway": "service"}, "geometry": {"type": "LineString", "coordinates": [[-15.9881812, 18.0853274], [-15.9884076, 18.0860552]]}}]}