{"type": "FeatureCollection", "features": [{"type": "Feature", "properties": {"highway": "secondary"}, "geometry": {"type": "LineString", "coordinates": [[-48.4649509, -1.4673194], [-48.4649061, -1.467351], [-48.4644828, -1.4673461], [-48.4642709, -1.4673371], [-48.4638315, -1.4673237], [-48.4632832, -1.467312], [-48.4627452, -1.4672988], [-48.4624081, -1.4672881], [-48.4622843, -1.4672892], [-48.4618006, -1.4672796], [-48.4617167, -1.4672802], [-48.4614293, -1.4672785], [-48.4610246, -1.4672674], [-48.4608449, -1.4672654], [-48.4604018, -1.4672554], [-48.4600988, -1.4672466], [-48.4600556, -1.4672446], [-48.4600061, -1.4672423], [-48.4595914, -1.4672286], [-48.4593002, -1.4672332], [-48.4590519, -1.4672815], [-48.4587917, -1.4673673], [-48.4583829, -1.4675248], [-48.4583301, -1.4675451]]}}, {"type": "Feature", "properties": {"highway": "residential"}, "geometry": {"type": "LineString", "coordinates": [[-48.4655645, -1.4629803], [-48.4655097, -1.4629784], [-48.4652643, -1.4629702], [-48.4651852, -1.4629635], [-48.4651289, -1.4629554], [-48.4650665, -1.4629353], [-48.4648231, -1.4628107], [-48.4646333, -1.462698], [-48.4645676, -1.4626471], [-48.4645247, -1.4626062], [-48.4644381, -1.4625263], [-48.4641673, -1.4622894], [-48.4641277, -1.4622579], [-48.4640828, -1.4622358], [-48.4640325, -1.4622197], [-48.4639889, -1.4622116], [-48.4639353, -1.4622103], [-48.4638222, -1.4621997], [-48.4636391, -1.4622125], [-48.4635647, -1.4622245], [-48.4634896, -1.4622353], [-48.4634226, -1.4622578], [-48.4633939, -1.4622916], [-48.4633522, -1.4623076], [-48.463321, -1.4623071], [-48.4632859, -1.4622984], [-48.4631225, -1.4622571], [-48.4630121, -1.4622226], [-48.4628767, -1.4621887], [-48.4627945, -1.4621381], [-48.4627393, -1.4620938], [-48.4626809, -1.4620435], [-48.4626218, -1.462001], [-48.4625424, -1.4619449], [-48.4624803, -1.4619023], [-48.4624184, -1.4619004], [-48.4623452, -1.4618951], [-48.4618243, -1.4618454], [-48.4615037, -1.4618142]]}}, {"type": "Feature", "properties": {"highway": "tertiary"}, "geometry": {"type": "LineString", "coordinates": [[-48.4705245, -1.4648967], [-48.4699189, -1.4648674], [-48.4686895, -1.4648471]]}}, {"type": "Feature", "properties": {"highway": "residential"}, "geometry": {"type": "LineString", "coordinates": [[-48.4618243, -1.4618454], [-48.4618085, -1.4619611], [-48.461781, -1.4620321], [-48.4617468, -1.4621098], [-48.4616248, -1.4623418], [-48.4615966, -1.462378], [-48.4615617, -1.4624049], [-48.4615242, -1.4624269], [-48.4614729, -1.4624451], [-48.4614173, -1.4624713]]}}, {"type": "Feature", "properties": {"highway": "residential"}, "geometry": {"type": "LineString", "coordinates": [[-48.4614173, -1.4624713], [-48.4613949, -1.4624783]]}}, {"type": "Feature", "properties": {"highway": "residential"}, "geometry": {"type": "LineString", "coordinates": [[-48.4638222, -1.4621997], [-48.4638208, -1.4621146], [-48.4638208, -1.4619336], [-48.4638315, -1.4618196], [-48.463857, -1.4616976], [-48.4638906, -1.4615971], [-48.4639599, -1.4614437], [-48.4640367, -1.4612431], [-48.4641266, -1.4609871], [-48.464153, -1.4608795], [-48.4641869, -1.4608141], [-48.4642612, -1.4607288], [-48.4643781, -1.460611], [-48.4645302, -1.4604705], [-48.4646231, -1.4603832], [-48.4646885, -1.4603098], [-48.4647244, -1.4602534], [-48.4647757, -1.4601723], [-48.4647827, -1.4601337], [-48.464774, -1.4600945], [-48.4648373, -1.4599816], [-48.4648655, -1.4598914]]}}, {"type": "Feature", "properties": {"highway": "residential"}, "geometry": {"type": "LineString", "coordinates": [[-48.4655811, -1.4621967], [-48.4656091, -1.462235], [-48.4655978, -1.4623894], [-48.4655645, -1.4629803], [-48.4655636, -1.462996], [-48.4655535, -1.4633762], [-48.465537, -1.4639003], [-48.4655379, -1.463961]]}}, {"type": "Feature", "properties": {"highway": "residential"}, "geometry": {"type": "LineString", "coordinates": [[-48.4632859, -1.4622984], [-48.4632857, -1.4624149], [-48.4632844, -1.462549], [-48.4632818, -1.4628124], [-48.4633053, -1.4631554], [-48.4633078, -1.4633889], [-48.4632972, -1.4638528]]}}, {"type": "Feature", "properties": {"highway": "residential"}, "geometry": {"type": "LineString", "coordinates": [[-48.465554, -1.4622537], [-48.4653977, -1.4622467], [-48.4653373, -1.46225], [-48.4652716, -1.4622467], [-48.4651979, -1.4622373], [-48.4651368, -1.4622272], [-48.4650477, -1.4622111], [-48.4649071, -1.4621872], [-48.4648087, -1.4622357], [-48.4647257, -1.4622733], [-48.4646236, -1.4623387], [-48.4645157, -1.4624312], [-48.4644381, -1.4625263]]}}, {"type": "Feature", "properties": {"highway": "residential"}, "geometry": {"type": "LineString", "coordinates": [[-48.4582735, -1.4641651], [-48.4579876, -1.4639461], [-48.4578049, -1.4638557], [-48.4574976, -1.4636404], [-48.4574576, -1.4636007], [-48.4574211, -1.4635705], [-48.4573899, -1.4635411], [-48.4572575, -1.46345]]}}, {"type": "Feature", "properties": {"highway": "secondary"}, "geometry": {"type": "LineString", "coordinates": [[-48.4583301, -1.4675451], [-48.4584658, -1.4683758], [-48.4584834, -1.4684923], [-48.4586337, -1.4694895], [-48.4586962, -1.4699476], [-48.4587565, -1.4703418], [-48.458788, -1.4705677], [-48.4588184, -1.4707593]]}}, {"type": "Feature", "properties": {"highway": "residential"}, "geometry": {"type": "LineString", "coordinates": [[-48.4580323, -1.4631749], [-48.4581323, -1.4632178], [-48.458212, -1.4632566], [-48.4583194, -1.463323], [-48.4583631, -1.4633821], [-48.4584154, -1.4634371], [-48.4584784, -1.4634907], [-48.4586649, -1.4636116]]}}, {"type": "Feature", "properties": {"highway": "residential"}, "geometry": {"type": "LineString", "coordinates": [[-48.4593002, -1.4672332], [-48.4591457, -1.4665904], [-48.4591122, -1.4664456], [-48.4590934, -1.4663759], [-48.4590532, -1.4662626], [-48.4590063, -1.4661393], [-48.4589835, -1.4660266], [-48.4589613, -1.4658571], [-48.4588909, -1.4649856], [-48.4587622, -1.4637911], [-48.4587541, -1.4637341], [-48.4587414, -1.4637013], [-48.4587136, -1.4636523], [-48.4586649, -1.4636116]]}}, {"type": "Feature", "properties": {"highway": "residential"}, "geometry": {"type": "LineString", "coordinates": [[-48.4580389, -1.4644866], [-48.4579547, -1.4644358], [-48.4578381, -1.464357], [-48.4574841, -1.4641229], [-48.4573651, -1.4640376], [-48.4572587, -1.4639653], [-48.4571502, -1.4639151], [-48.4570979, -1.4638977], [-48.4570094, -1.4638897], [-48.4566958, -1.4638786], [-48.4565448, -1.4638497], [-48.4564806, -1.4637971], [-48.4564447, -1.4637671], [-48.4563751, -1.4637072], [-48.4562758, -1.4635995], [-48.4561595, -1.4634717], [-48.4560675, -1.4633863], [-48.4560371, -1.4633592], [-48.4559836, -1.4633218], [-48.4558648, -1.463238], [-48.4556593, -1.4630993], [-48.4555878, -1.4630359]]}}, {"type": "Feature", "properties": {"highway": "secondary"}, "geometry": {"type": "LineString", "coordinates": [[-48.4589038, -1.4714685], [-48.4588762, -1.4715152], [-48.4588325, -1.4715474], [-48.4587967, -1.4715582], [-48.4587821, -1.4715597], [-48.4587316, -1.4715525]]}}, {"type": "Feature", "properties": {"highway": "tertiary"}, "geometry": {"type": "LineString", "coordinates": [[-48.4583301, -1.4675451], [-48.457814, -1.4676716], [-48.4575605, -1.4677159], [-48.4574358, -1.4677333], [-48.4572079, -1.4677476], [-48.4569881, -1.4677521], [-48.4559881, -1.4677543], [-48.4552996, -1.467753], [-48.4550687, -1.4677134], [-48.4546297, -1.4675956], [-48.4544918, -1.467552], [-48.4543885, -1.4675235]]}}, {"type": "Feature", "properties": {"highway": "residential"}, "geometry": {"type": "LineString", "coordinates": [[-48.4632817, -1.4660441], [-48.4628968, -1.4660427], [-48.462646, -1.4660133], [-48.4623121, -1.4659623], [-48.4620948, -1.4659342], [-48.4620626, -1.4659315], [-48.4620304, -1.4659147], [-48.4619594, -1.465912], [-48.4618199, -1.4659429], [-48.4616918, -1.465973], [-48.4615583, -1.4660086], [-48.4613686, -1.4660669], [-48.4613163, -1.4660673], [-48.4609213, -1.4661554], [-48.4608855, -1.466152], [-48.4605847, -1.4662103], [-48.4604841, -1.4662143], [-48.4604104, -1.466209], [-48.4603628, -1.4661768], [-48.4603366, -1.46615], [-48.4603172, -1.4661393], [-48.4602984, -1.4661359], [-48.4602729, -1.4661386], [-48.459992, -1.4661808], [-48.4598874, -1.4661902], [-48.4598009, -1.4662083], [-48.4595568, -1.4662579], [-48.4593871, -1.4663001], [-48.4590934, -1.4663759], [-48.458612, -1.4665214], [-48.4582438, -1.4666212], [-48.4580317, -1.4666674]]}}, {"type": "Feature", "properties": {"highway": "residential"}, "geometry": {"type": "LineString", "coordinates": [[-48.4632944, -1.4639318], [-48.462986, -1.4639466], [-48.4627982, -1.4639171], [-48.4627245, -1.463906], [-48.462609, -1.4639091], [-48.4624908, -1.4639106], [-48.4623762, -1.4639259], [-48.4622978, -1.4639447], [-48.4622057, -1.4639688]]}}, {"type": "Feature", "properties": {"highway": "residential"}, "geometry": {"type": "LineString", "coordinates": [[-48.4632818, -1.4628124], [-48.4629279, -1.4629591], [-48.4626251, -1.4631051], [-48.4624657, -1.4632179], [-48.4620432, -1.4634824]]}}, {"type": "Feature", "properties": {"highway": "residential"}, "geometry": {"type": "LineString", "coordinates": [[-48.4626251, -1.4631051], [-48.4624428, -1.462903], [-48.4623564, -1.462824], [-48.4621973, -1.4626805], [-48.4620985, -1.4626006], [-48.4619399, -1.4625007], [-48.4618977, -1.4624739], [-48.4618517, -1.4624548]]}}, {"type": "Feature", "properties": {"highway": "residential"}, "geometry": {"type": "LineString", "coordinates": [[-48.4615037, -1.4618142], [-48.4614765, -1.4619651], [-48.4614296, -1.4623103], [-48.4614256, -1.4623754], [-48.4614236, -1.4624129], [-48.4614173, -1.4624713]]}}, {"type": "Feature", "properties": {"highway": "residential"}, "geometry": {"type": "LineString", "coordinates": [[-48.4622276, -1.4652974], [-48.4622224, -1.4653234], [-48.4621793, -1.4655373], [-48.4621029, -1.465717], [-48.4620881, -1.4658296], [-48.4620948, -1.4659342], [-48.4621659, -1.4662345], [-48.4623, -1.4666956], [-48.4623485, -1.4669406], [-48.4623862, -1.4671345], [-48.4624081, -1.4672881], [-48.462406, -1.4674719], [-48.4624046, -1.4676046], [-48.4623932, -1.4677461], [-48.4623575, -1.4679485], [-48.4623002, -1.4682555], [-48.4622773, -1.4683883], [-48.4621491, -1.4688782], [-48.4621371, -1.4689433], [-48.4620969, -1.4692829], [-48.4620519, -1.4697483], [-48.4620056, -1.4701651], [-48.4619983, -1.470231], [-48.4619164, -1.4706841], [-48.4617662, -1.4715207], [-48.4616978, -1.471935], [-48.4615946, -1.4723331], [-48.4615097, -1.4725862]]}}, {"type": "Feature", "properties": {"highway": "residential"}, "geometry": {"type": "LineString", "coordinates": [[-48.4657571, -1.4673345], [-48.465739, -1.4675992], [-48.4657352, -1.4677085], [-48.4657426, -1.4678327], [-48.4657711, -1.4680356], [-48.4657895, -1.4681939], [-48.4657306, -1.4685685], [-48.4657357, -1.4686714]]}}, {"type": "Feature", "properties": {"highway": "residential"}, "geometry": {"type": "LineString", "coordinates": [[-48.4666213, -1.4687706], [-48.4665188, -1.4687666], [-48.4664457, -1.4687586], [-48.466343, -1.4687478], [-48.4660989, -1.468698], [-48.4659518, -1.4686745], [-48.4658266, -1.4686707], [-48.4657681, -1.4686698], [-48.4657357, -1.4686714], [-48.4653563, -1.4687105], [-48.4650545, -1.4688254]]}}, {"type": "Feature", "properties": {"highway": "residential"}, "geometry": {"type": "LineString", "coordinates": [[-48.4651047, -1.4696327], [-48.4650878, -1.469582], [-48.4650761, -1.4695399], [-48.4650606, -1.4694655], [-48.4650432, -1.4693803], [-48.4650249, -1.4692873], [-48.4650204, -1.4689661], [-48.4650238, -1.4689352], [-48.4650281, -1.4688802], [-48.4650545, -1.4688254]]}}, {"type": "Feature", "properties": {"highway": "residential"}, "geometry": {"type": "LineString", "coordinates": [[-48.4685758, -1.4700775], [-48.4680048, -1.4701119], [-48.4676751, -1.4700995], [-48.4673261, -1.4700969], [-48.4669563, -1.4700815], [-48.4668403, -1.4700808], [-48.4667491, -1.4700835], [-48.466664, -1.4700909], [-48.4665607, -1.470115], [-48.4663686, -1.4701572], [-48.4658204, -1.4703161], [-48.4653815, -1.4704341], [-48.4653483, -1.4704444], [-48.4652142, -1.4704669], [-48.4649909, -1.470475], [-48.4649514, -1.4704689], [-48.4649124, -1.4704575], [-48.4648112, -1.4704361], [-48.4646956, -1.4703999], [-48.4645584, -1.470351], [-48.4643874, -1.4703004], [-48.464275, -1.4702726], [-48.4641611, -1.4702317], [-48.4640208, -1.4701586]]}}, {"type": "Feature", "properties": {"highway": "residential"}, "geometry": {"type": "LineString", "coordinates": [[-48.468553, -1.471366], [-48.4679428, -1.4713802], [-48.4674203, -1.4714302], [-48.4670193, -1.4714785], [-48.4665486, -1.4715387], [-48.4655709, -1.4716822], [-48.4651857, -1.4717472], [-48.4648743, -1.4717928], [-48.4646483, -1.4718136], [-48.4644981, -1.4718223], [-48.4643861, -1.4718324], [-48.4643172, -1.4718365], [-48.4641511, -1.4718599], [-48.4639506, -1.4718961], [-48.4637758, -1.471931]]}}, {"type": "Feature", "properties": {"highway": "residential"}, "geometry": {"type": "LineString", "coordinates": [[-48.4685502, -1.4726711], [-48.4679548, -1.472681], [-48.467385, -1.4726908], [-48.4665957, -1.4727177], [-48.4662619, -1.472739], [-48.4660287, -1.4727584], [-48.46573, -1.4727835], [-48.4651656, -1.4728419], [-48.464792, -1.4728528], [-48.4645286, -1.4728667], [-48.4643142, -1.4729051], [-48.4640365, -1.4729642], [-48.4639326, -1.4730047], [-48.4636837, -1.4730415], [-48.4635378, -1.4730651], [-48.4633659, -1.4730723], [-48.4632311, -1.4730618], [-48.4631088, -1.4730459], [-48.4629097, -1.4730038], [-48.4627392, -1.4729648], [-48.4624837, -1.4729026], [-48.4621131, -1.4728246], [-48.4619701, -1.4727595], [-48.4617882, -1.4726923], [-48.4615097, -1.4725862], [-48.4613643, -1.4725402], [-48.4610357, -1.4724437], [-48.460659, -1.4723439], [-48.4598226, -1.4722334]]}}, {"type": "Feature", "properties": {"highway": "residential"}, "geometry": {"type": "LineString", "coordinates": [[-48.4631812, -1.4691492], [-48.4627136, -1.469207], [-48.4620969, -1.4692829], [-48.461785, -1.4693797], [-48.4614404, -1.4694293], [-48.4613223, -1.4694413], [-48.4612372, -1.4694396], [-48.4607725, -1.4694239], [-48.4606317, -1.4694252], [-48.4600698, -1.4694172], [-48.459304, -1.4694226], [-48.4589398, -1.4694587], [-48.4586337, -1.4694895]]}}, {"type": "Feature", "properties": {"highway": "residential"}, "geometry": {"type": "LineString", "coordinates": [[-48.4622773, -1.4683883], [-48.4618275, -1.4683629], [-48.4614465, -1.4683911], [-48.4609617, -1.4683799], [-48.460239, -1.4683789], [-48.4592893, -1.4683738], [-48.4585065, -1.4683757], [-48.4584658, -1.4683758]]}}, {"type": "Feature", "properties": {"highway": "residential"}, "geometry": {"type": "LineString", "coordinates": [[-48.4617167, -1.4672802], [-48.4616388, -1.4675752], [-48.4615488, -1.4679702], [-48.4614465, -1.4683911], [-48.4612372, -1.4694396], [-48.4610975, -1.4700849], [-48.4610015, -1.4705622], [-48.4609017, -1.4710442], [-48.4606942, -1.4720895], [-48.460659, -1.4723439], [-48.4605465, -1.473201], [-48.4604831, -1.4737881], [-48.4604652, -1.473925], [-48.460466, -1.474004], [-48.460434, -1.4742895], [-48.4604343, -1.4745867], [-48.4604693, -1.4747884], [-48.4604938, -1.474921], [-48.4605441, -1.4752422], [-48.460625, -1.4757604]]}}, {"type": "Feature", "properties": {"highway": "residential"}, "geometry": {"type": "LineString", "coordinates": [[-48.4620519, -1.4697483], [-48.4623094, -1.4697818], [-48.4624046, -1.4697939], [-48.4624744, -1.469814], [-48.4625401, -1.4698301], [-48.462642, -1.4698542], [-48.4627653, -1.4698891], [-48.4629686, -1.4699742], [-48.4632556, -1.4701033], [-48.4638604, -1.4704817], [-48.4642483, -1.4707099], [-48.4645781, -1.4709146], [-48.4648698, -1.4710767], [-48.465115, -1.4712443], [-48.4655602, -1.4716011], [-48.4655709, -1.4716822]]}}, {"type": "Feature", "properties": {"highway": "residential"}, "geometry": {"type": "LineString", "coordinates": [[-48.4638604, -1.4704817], [-48.4637833, -1.4706573], [-48.4637578, -1.4707391], [-48.4637243, -1.4708933], [-48.4637082, -1.4710568], [-48.4637011, -1.4714503], [-48.4637001, -1.4715609], [-48.4637095, -1.4716775], [-48.463731, -1.4717781], [-48.4637758, -1.471931], [-48.463806, -1.4720884], [-48.4638258, -1.4721995], [-48.4638403, -1.4723211], [-48.4638619, -1.4724693], [-48.4638952, -1.472856], [-48.4639326, -1.4730047], [-48.4639794, -1.4732148], [-48.4640233, -1.4733494], [-48.4640703, -1.4734472], [-48.4642084, -1.4737395], [-48.4643922, -1.4740324], [-48.4644605, -1.4741792], [-48.4645195, -1.47432], [-48.4647046, -1.474694], [-48.464891, -1.4751418]]}}, {"type": "Feature", "properties": {"highway": "residential"}, "geometry": {"type": "LineString", "coordinates": [[-48.4660323, -1.4749836], [-48.4659851, -1.4746793], [-48.4658377, -1.473646], [-48.4658271, -1.4736054], [-48.4657669, -1.4731321], [-48.46573, -1.4727835], [-48.4656903, -1.4724833], [-48.4656679, -1.4721877], [-48.4656487, -1.4720918], [-48.4655709, -1.4716822]]}}, {"type": "Feature", "properties": {"highway": "residential"}, "geometry": {"type": "LineString", "coordinates": [[-48.4638258, -1.4721995], [-48.4632796, -1.4722037], [-48.4629958, -1.4721945], [-48.4627879, -1.4721806], [-48.4626538, -1.4721619], [-48.4624218, -1.4720908]]}}, {"type": "Feature", "properties": {"highway": "residential"}, "geometry": {"type": "LineString", "coordinates": [[-48.4602906, -1.4617171], [-48.460228, -1.4623251], [-48.4601864, -1.4629203], [-48.4601535, -1.4632605], [-48.460144, -1.4634105], [-48.4601391, -1.463573], [-48.4601328, -1.4637341], [-48.4601288, -1.463836], [-48.4601549, -1.4641028], [-48.460172, -1.4642707], [-48.4601777, -1.4644689], [-48.4602086, -1.4647446], [-48.4602268, -1.4650209], [-48.4602615, -1.4651164], [-48.4602763, -1.4652075], [-48.4602884, -1.4653161], [-48.4602977, -1.465414], [-48.4603192, -1.4656084], [-48.460336, -1.4658004], [-48.4603628, -1.4661768], [-48.4604018, -1.4672554], [-48.4603634, -1.4676542], [-48.4603353, -1.4678875], [-48.460239, -1.4683789], [-48.460227, -1.4684528], [-48.4600698, -1.4694172], [-48.4600107, -1.4701242], [-48.4599812, -1.4704763], [-48.4599734, -1.4705641], [-48.4599178, -1.47123], [-48.4598833, -1.4715797], [-48.4598226, -1.4722334]]}}, {"type": "Feature", "properties": {"highway": "residential"}, "geometry": {"type": "LineString", "coordinates": [[-48.4579423, -1.4661234], [-48.4577937, -1.4660805], [-48.4575676, -1.4660081], [-48.4572706, -1.4659108], [-48.4571709, -1.4658729], [-48.4570703, -1.4658485], [-48.4569372, -1.4658205], [-48.4567075, -1.4658137], [-48.4566411, -1.465809], [-48.4565955, -1.4657996], [-48.4565647, -1.4657795], [-48.4565452, -1.4657641], [-48.4565325, -1.4657225], [-48.4565177, -1.4656548], [-48.4564742, -1.4652893], [-48.4564313, -1.4648965], [-48.456424, -1.4648619], [-48.4564045, -1.464623], [-48.4564032, -1.4644728], [-48.4564058, -1.4643388], [-48.4564219, -1.4642516], [-48.4564474, -1.4641323], [-48.4564796, -1.464017], [-48.4565448, -1.4638497]]}}, {"type": "Feature", "properties": {"highway": "residential"}, "geometry": {"type": "LineString", "coordinates": [[-48.4609576, -1.4629766], [-48.4606048, -1.4629599], [-48.4601864, -1.4629203]]}}, {"type": "Feature", "properties": {"highway": "residential"}, "geometry": {"type": "LineString", "coordinates": [[-48.4650008, -1.4633551], [-48.464998, -1.4633428], [-48.4649847, -1.4633334], [-48.4649337, -1.463327], [-48.4648129, -1.4633003], [-48.4646289, -1.4632714], [-48.4644077, -1.463209], [-48.4642657, -1.4631626], [-48.4642418, -1.463142], [-48.4640395, -1.462987], [-48.4639388, -1.462852], [-48.4638499, -1.4627091], [-48.4638235, -1.4626334], [-48.4638135, -1.4625696], [-48.4638114, -1.462498], [-48.4638133, -1.4623735], [-48.4638168, -1.4622594], [-48.4638222, -1.4621997]]}}, {"type": "Feature", "properties": {"highway": "residential"}, "geometry": {"type": "LineString", "coordinates": [[-48.4588909, -1.4649856], [-48.4586723, -1.4650117], [-48.4585684, -1.4650259], [-48.4584091, -1.4650781], [-48.4582375, -1.4651251], [-48.4579917, -1.465184], [-48.4578504, -1.4652202]]}}, {"type": "Feature", "properties": {"highway": "residential"}, "geometry": {"type": "LineString", "coordinates": [[-48.462018, -1.4649521], [-48.4619999, -1.4649705], [-48.4618588, -1.4650365], [-48.4616733, -1.4650952], [-48.4614055, -1.4651733], [-48.4611862, -1.4652276], [-48.4611547, -1.465232], [-48.4611268, -1.465234], [-48.4611048, -1.465228], [-48.461089, -1.4652276]]}}, {"type": "Feature", "properties": {"highway": "tertiary"}, "geometry": {"type": "LineString", "coordinates": [[-48.463267, -1.4647262], [-48.4634628, -1.4647343], [-48.4639784, -1.4647483], [-48.4644233, -1.4647659], [-48.4648534, -1.4647886], [-48.4652679, -1.4648053], [-48.4654845, -1.4647954], [-48.4655691, -1.4647907], [-48.4659326, -1.4647685], [-48.4661054, -1.4647623], [-48.4662999, -1.4647641], [-48.4663327, -1.4647671], [-48.4665996, -1.4647778], [-48.4669094, -1.464802], [-48.4673257, -1.4648249], [-48.4680212, -1.4648364], [-48.4686895, -1.4648471]]}}, {"type": "Feature", "properties": {"highway": "residential"}, "geometry": {"type": "LineString", "coordinates": [[-48.4673257, -1.4648249], [-48.4674365, -1.4622128]]}}, {"type": "Feature", "properties": {"highway": "residential"}, "geometry": {"type": "LineString", "coordinates": [[-48.466032, -1.4621879], [-48.4660202, -1.4623171], [-48.4660175, -1.4624109], [-48.4660189, -1.4625061], [-48.4660095, -1.4628211], [-48.465976, -1.4633909], [-48.4659411, -1.4638159], [-48.4659277, -1.4640103], [-48.4659326, -1.4647685]]}}, {"type": "Feature", "properties": {"highway": "residential"}, "geometry": {"type": "LineString", "coordinates": [[-48.4665996, -1.4647778], [-48.4666264, -1.4644591], [-48.4666338, -1.4643508], [-48.4666607, -1.4642614], [-48.4666814, -1.4640049], [-48.4667391, -1.463584], [-48.466782, -1.4631858], [-48.4667981, -1.4630236], [-48.4668115, -1.4629377], [-48.4668088, -1.4629015], [-48.4667954, -1.4628774], [-48.466774, -1.4628574]]}}, {"type": "Feature", "properties": {"highway": "residential"}, "geometry": {"type": "LineString", "coordinates": [[-48.4686747, -1.4655064], [-48.4685093, -1.4655199], [-48.4684061, -1.46554], [-48.46828, -1.4655883], [-48.4681472, -1.4656633], [-48.4679595, -1.4657826], [-48.4679198, -1.4658095], [-48.4678508, -1.4658564], [-48.4677127, -1.4659636], [-48.4675862, -1.4660462], [-48.4674961, -1.4661051], [-48.4672594, -1.4662184], [-48.4671477, -1.4662712], [-48.4670582, -1.4663136], [-48.4667082, -1.4664597], [-48.4664172, -1.4665629], [-48.4660967, -1.4666453]]}}, {"type": "Feature", "properties": {"highway": "residential"}, "geometry": {"type": "LineString", "coordinates": [[-48.4661054, -1.4647623], [-48.4661151, -1.4653486], [-48.4661071, -1.4657122], [-48.4661025, -1.4659208], [-48.4661017, -1.4660253], [-48.4660969, -1.4666152], [-48.4660967, -1.4666453], [-48.4660597, -1.4673324], [-48.4660641, -1.467336]]}}, {"type": "Feature", "properties": {"highway": "residential"}, "geometry": {"type": "LineString", "coordinates": [[-48.4673261, -1.4700969], [-48.4673094, -1.4706501], [-48.4673426, -1.4710541], [-48.4674203, -1.4714302], [-48.4674244, -1.471766], [-48.4674161, -1.4720632], [-48.467385, -1.4726908], [-48.4672767, -1.4741421]]}}, {"type": "Feature", "properties": {"highway": "residential"}, "geometry": {"type": "LineString", "coordinates": [[-48.4665486, -1.4715387], [-48.46658, -1.4720678], [-48.4665768, -1.4724002], [-48.4665957, -1.4727177], [-48.4666264, -1.4735451], [-48.4666237, -1.4736255], [-48.466617, -1.4736805], [-48.4665586, -1.4738772], [-48.4665419, -1.4739406], [-48.4665312, -1.4741149], [-48.4665339, -1.4743267], [-48.4665426, -1.4745184], [-48.4665523, -1.4746854], [-48.4665617, -1.4748321], [-48.466562, -1.4749072]]}}, {"type": "Feature", "properties": {"highway": "residential"}, "geometry": {"type": "LineString", "coordinates": [[-48.4663686, -1.4701572], [-48.4664146, -1.4704448], [-48.4664293, -1.4705286], [-48.466444, -1.4706103], [-48.4664534, -1.4707049], [-48.4664648, -1.4707934], [-48.4665336, -1.4713233], [-48.4665486, -1.4715387]]}}, {"type": "Feature", "properties": {"highway": "residential"}, "geometry": {"type": "LineString", "coordinates": [[-48.4662081, -1.4709668], [-48.4655515, -1.4710498]]}}, {"type": "Feature", "properties": {"highway": "residential"}, "geometry": {"type": "LineString", "coordinates": [[-48.466444, -1.4706103], [-48.4662791, -1.4706627], [-48.4657393, -1.4707652]]}}, {"type": "Feature", "properties": {"highway": "residential"}, "geometry": {"type": "LineString", "coordinates": [[-48.4653483, -1.4704444], [-48.4654539, -1.4707474], [-48.4654771, -1.4708095], [-48.4655123, -1.4708822], [-48.4655355, -1.4709673], [-48.4655515, -1.4710498], [-48.4655562, -1.4714751], [-48.4655602, -1.4716011]]}}, {"type": "Feature", "properties": {"highway": "residential"}, "geometry": {"type": "LineString", "coordinates": [[-48.4632972, -1.4638528], [-48.4632944, -1.4639318]]}}, {"type": "Feature", "properties": {"highway": "residential"}, "geometry": {"type": "LineString", "coordinates": [[-48.4632832, -1.467312], [-48.463279, -1.4680577], [-48.4632789, -1.4680905], [-48.463282, -1.468378], [-48.463269, -1.4686765], [-48.4632502, -1.468824], [-48.463214, -1.4690144], [-48.4631812, -1.4691492], [-48.4630584, -1.4696552], [-48.4630289, -1.4697558], [-48.4629686, -1.4699742]]}}, {"type": "Feature", "properties": {"highway": "residential"}, "geometry": {"type": "LineString", "coordinates": [[-48.4620188, -1.4634995], [-48.4619852, -1.4635233]]}}, {"type": "Feature", "properties": {"highway": "residential"}, "geometry": {"type": "LineString", "coordinates": [[-48.4619556, -1.4635437], [-48.4616839, -1.4637156], [-48.4614126, -1.4638899]]}}, {"type": "Feature", "properties": {"highway": "residential"}, "geometry": {"type": "LineString", "coordinates": [[-48.4583301, -1.4675451], [-48.4580317, -1.4666674], [-48.4579423, -1.4661234], [-48.4579175, -1.4658784], [-48.4578504, -1.4652202], [-48.4578162, -1.4648501], [-48.4578254, -1.4647959], [-48.4578448, -1.464743], [-48.4580389, -1.4644866], [-48.4582735, -1.4641651]]}}, {"type": "Feature", "properties": {"highway": "residential"}, "geometry": {"type": "LineString", "coordinates": [[-48.4591891, -1.4614463], [-48.459176, -1.4614742], [-48.4589948, -1.461696], [-48.4588238, -1.4618223], [-48.4586395, -1.4619591], [-48.4584647, -1.4620606], [-48.4583625, -1.4621286], [-48.458289, -1.462215], [-48.4582099, -1.4623009], [-48.4581435, -1.462388], [-48.4580242, -1.4625039], [-48.4579206, -1.4626234], [-48.4578354, -1.4627132], [-48.4577664, -1.4627849], [-48.457685, -1.4628853]]}}, {"type": "Feature", "properties": {"highway": "residential"}, "geometry": {"type": "LineString", "coordinates": [[-48.4705203, -1.4638163], [-48.4687298, -1.4637887]]}}, {"type": "Feature", "properties": {"highway": "secondary"}, "geometry": {"type": "LineString", "coordinates": [[-48.4549215, -1.4724334], [-48.4550025, -1.4724095], [-48.4554657, -1.4722714], [-48.4557746, -1.472184], [-48.456028, -1.4721103], [-48.4561007, -1.472087], [-48.456188, -1.4720617], [-48.4566246, -1.4719349], [-48.4575721, -1.4716569], [-48.4583357, -1.4714362], [-48.4587045, -1.4713094]]}}, {"type": "Feature", "properties": {"highway": "secondary"}, "geometry": {"type": "LineString", "coordinates": [[-48.4687788, -1.4610356], [-48.4687734, -1.4611546], [-48.4687485, -1.4621232], [-48.4687475, -1.4622576], [-48.4687432, -1.4623722], [-48.468741, -1.4627511], [-48.4687393, -1.4635927], [-48.4687298, -1.4637887], [-48.4687222, -1.464034], [-48.4686895, -1.4648471]]}}, {"type": "Feature", "properties": {"highway": "secondary"}, "geometry": {"type": "LineString", "coordinates": [[-48.4588184, -1.4707593], [-48.4588679, -1.4710847]]}}, {"type": "Feature", "properties": {"highway": "residential"}, "geometry": {"type": "LineString", "coordinates": [[-48.4622057, -1.4639688], [-48.4619278, -1.4640985], [-48.4615773, -1.4642826]]}}, {"type": "Feature", "properties": {"highway": "residential"}, "geometry": {"type": "LineString", "coordinates": [[-48.4673944, -1.4693029], [-48.4671676, -1.4692552], [-48.4669628, -1.4692179], [-48.4668364, -1.4691976], [-48.4667496, -1.4691956], [-48.4666788, -1.4692045], [-48.4665805, -1.4692376], [-48.4663722, -1.4693224], [-48.4662871, -1.4693515], [-48.4661897, -1.4693829], [-48.4660679, -1.469404], [-48.4657073, -1.4694448], [-48.4655539, -1.4694848], [-48.4654683, -1.4695113], [-48.4653158, -1.4695629], [-48.4651595, -1.4696169], [-48.4651047, -1.4696327], [-48.46495, -1.4696672], [-48.4648855, -1.4696782], [-48.4648132, -1.4696903], [-48.4647261, -1.4696993], [-48.4646697, -1.4697061], [-48.4646055, -1.4697126], [-48.4644661, -1.4697372], [-48.4643507, -1.4697564], [-48.4641879, -1.4697668]]}}, {"type": "Feature", "properties": {"highway": "residential"}, "geometry": {"type": "LineString", "coordinates": [[-48.4709311, -1.4718522], [-48.470807, -1.471856], [-48.4702527, -1.4719115], [-48.4685504, -1.4720529]]}}, {"type": "Feature", "properties": {"highway": "residential"}, "geometry": {"type": "LineString", "coordinates": [[-48.4721769, -1.4674848], [-48.4717715, -1.4674558], [-48.4713637, -1.467431], [-48.470508, -1.4674198], [-48.4702641, -1.4674277], [-48.4698151, -1.4674453], [-48.4692134, -1.4674397], [-48.4686169, -1.4674242]]}}, {"type": "Feature", "properties": {"highway": "tertiary"}, "geometry": {"type": "LineString", "coordinates": [[-48.4657061, -1.4558727], [-48.4657002, -1.4567207], [-48.4656962, -1.4572147], [-48.4656939, -1.457269], [-48.4656377, -1.4586242], [-48.4656041, -1.4598337], [-48.4655828, -1.4608942], [-48.465577, -1.4611199], [-48.4655697, -1.461603], [-48.4655804, -1.4619618], [-48.4655843, -1.4620263], [-48.4655811, -1.4621967]]}}, {"type": "Feature", "properties": {"highway": "tertiary"}, "geometry": {"type": "LineString", "coordinates": [[-48.4657779, -1.4621617], [-48.466032, -1.4621879], [-48.4674365, -1.4622128], [-48.4677634, -1.4622139], [-48.4679803, -1.462219], [-48.4687475, -1.4622576]]}}, {"type": "Feature", "properties": {"highway": "secondary"}, "geometry": {"type": "LineString", "coordinates": [[-48.4589205, -1.4716928], [-48.4593533, -1.4747851], [-48.4594119, -1.4750746], [-48.45945, -1.4753409], [-48.4594836, -1.4755916], [-48.4595092, -1.4757656], [-48.4595362, -1.4760106], [-48.4595507, -1.4760273], [-48.4595747, -1.4760414]]}}, {"type": "Feature", "properties": {"highway": "residential"}, "geometry": {"type": "LineString", "coordinates": [[-48.4641879, -1.4697668], [-48.4639452, -1.4696474], [-48.4638339, -1.4695791], [-48.4637183, -1.4695185]]}}, {"type": "Feature", "properties": {"highway": "residential"}, "geometry": {"type": "LineString", "coordinates": [[-48.4653815, -1.4704341], [-48.4653363, -1.4702732], [-48.4652947, -1.4701109], [-48.4651595, -1.4696169]]}}, {"type": "Feature", "properties": {"highway": "residential"}, "geometry": {"type": "LineString", "coordinates": [[-48.4657895, -1.4681939], [-48.4658827, -1.4682297], [-48.4659827, -1.4682548], [-48.4660678, -1.4682786], [-48.4663193, -1.4683581], [-48.4665701, -1.4684117], [-48.4666868, -1.4684331], [-48.4668933, -1.4684546], [-48.4670576, -1.4684673], [-48.4673218, -1.4684931], [-48.467699, -1.468542], [-48.4679505, -1.4685577], [-48.4682907, -1.4685598], [-48.4686106, -1.4685472]]}}, {"type": "Feature", "properties": {"highway": "residential"}, "geometry": {"type": "LineString", "coordinates": [[-48.4643832, -1.4688252], [-48.4638635, -1.4684341]]}}, {"type": "Feature", "properties": {"highway": "residential"}, "geometry": {"type": "LineString", "coordinates": [[-48.4671676, -1.4692552], [-48.4672426, -1.4689017], [-48.4673218, -1.4684931]]}}, {"type": "Feature", "properties": {"highway": "residential"}, "geometry": {"type": "LineString", "coordinates": [[-48.467699, -1.468542], [-48.4676792, -1.4679733], [-48.4676671, -1.4676021], [-48.4676686, -1.4674087]]}}, {"type": "Feature", "properties": {"highway": "residential"}, "geometry": {"type": "LineString", "coordinates": [[-48.459304, -1.4694226], [-48.4593514, -1.4700597], [-48.4593858, -1.4705594], [-48.4594193, -1.4707806], [-48.459479, -1.4711591], [-48.459487, -1.4712278], [-48.459481, -1.4712506], [-48.4594622, -1.4712592], [-48.4590471, -1.4713203], [-48.4588881, -1.4713446]]}}, {"type": "Feature", "properties": {"highway": "residential"}, "geometry": {"type": "LineString", "coordinates": [[-48.4646876, -1.4620937], [-48.4646775, -1.462085], [-48.4646715, -1.4620709], [-48.4646701, -1.4620555], [-48.4646778, -1.462004], [-48.4646865, -1.4619577], [-48.4646912, -1.4619081], [-48.4646946, -1.4618398], [-48.464704, -1.4617352], [-48.4647184, -1.4616392], [-48.4647321, -1.4614821]]}}, {"type": "Feature", "properties": {"highway": "residential"}, "geometry": {"type": "LineString", "coordinates": [[-48.466774, -1.4628574], [-48.4667404, -1.4628466], [-48.4666277, -1.4628359], [-48.4664326, -1.462807], [-48.4660095, -1.4628211]]}}, {"type": "Feature", "properties": {"highway": "secondary"}, "geometry": {"type": "LineString", "coordinates": [[-48.4587045, -1.4713094], [-48.4587549, -1.4712908], [-48.4588168, -1.4712955], [-48.45887, -1.4713274]]}}, {"type": "Feature", "properties": {"highway": "secondary"}, "geometry": {"type": "LineString", "coordinates": [[-48.45887, -1.4713274], [-48.4588881, -1.4713446], [-48.4588996, -1.4713699], [-48.4589092, -1.4714021], [-48.4589106, -1.4714356], [-48.4589038, -1.4714685]]}}, {"type": "Feature", "properties": {"highway": "secondary"}, "geometry": {"type": "LineString", "coordinates": [[-48.4587316, -1.4715525], [-48.4586877, -1.4715273], [-48.4586561, -1.4714879], [-48.4586412, -1.4714395], [-48.458645, -1.4713891], [-48.4586672, -1.4713436], [-48.4587045, -1.4713094]]}}, {"type": "Feature", "properties": {"highway": "secondary"}, "geometry": {"type": "LineString", "coordinates": [[-48.4686169, -1.4674242], [-48.4686106, -1.4685472], [-48.4686094, -1.4686124], [-48.4685896, -1.469069], [-48.4685849, -1.4694097], [-48.4685758, -1.4700775], [-48.4685643, -1.4707247], [-48.468554, -1.4712897], [-48.468553, -1.471366], [-48.468552, -1.4714105], [-48.4685504, -1.4720529], [-48.4685502, -1.4726711], [-48.4685501, -1.4727026], [-48.468548, -1.4727955], [-48.4685545, -1.4735268], [-48.4685467, -1.4735655], [-48.4685525, -1.4741293], [-48.4685541, -1.4744205], [-48.4685544, -1.4744818], [-48.4685346, -1.4746028]]}}, {"type": "Feature", "properties": {"highway": "residential"}, "geometry": {"type": "LineString", "coordinates": [[-48.4632972, -1.4638528], [-48.4637708, -1.4638676], [-48.4641756, -1.4638803], [-48.4645901, -1.4638916], [-48.4649755, -1.463899], [-48.4654914, -1.4639088], [-48.465537, -1.4639003]]}}, {"type": "Feature", "properties": {"highway": "residential"}, "geometry": {"type": "LineString", "coordinates": [[-48.4655379, -1.463961], [-48.4654902, -1.463957], [-48.4649587, -1.4639601], [-48.4641709, -1.4639446], [-48.4634359, -1.4639251], [-48.4632944, -1.4639318]]}}, {"type": "Feature", "properties": {"highway": "residential"}, "geometry": {"type": "LineString", "coordinates": [[-48.458289, -1.462215], [-48.4582401, -1.4622076], [-48.4581925, -1.4622016], [-48.4581429, -1.4621976], [-48.4580141, -1.462211], [-48.4579142, -1.4622285], [-48.4576111, -1.4622432], [-48.4575018, -1.4622191], [-48.4573858, -1.4621989], [-48.457291, -1.4621821], [-48.4572259, -1.4621805], [-48.4571244, -1.4621695], [-48.456961, -1.4621694]]}}, {"type": "Feature", "properties": {"highway": "residential"}, "geometry": {"type": "LineString", "coordinates": [[-48.4614173, -1.4624713], [-48.4614417, -1.4625627], [-48.4614628, -1.4626053], [-48.4614833, -1.4626294], [-48.4615517, -1.4627259], [-48.4617052, -1.4629746], [-48.4619238, -1.4633051], [-48.4620432, -1.4634824]]}}, {"type": "Feature", "properties": {"highway": "residential"}, "geometry": {"type": "LineString", "coordinates": [[-48.4619556, -1.4635437], [-48.4617018, -1.4631188], [-48.461665, -1.4630657], [-48.4616194, -1.4629893], [-48.461488, -1.4627735], [-48.4614391, -1.4626877], [-48.4614169, -1.4626475], [-48.4613927, -1.4626079], [-48.461378, -1.4625737], [-48.4613586, -1.4625275], [-48.4613324, -1.4624779]]}}, {"type": "Feature", "properties": {"highway": "residential"}, "geometry": {"type": "LineString", "coordinates": [[-48.4580323, -1.4631749], [-48.458094, -1.4632754], [-48.4581211, -1.4634351], [-48.4581225, -1.4635303], [-48.4581104, -1.4636189], [-48.4580594, -1.4637395], [-48.4579876, -1.4639461]]}}, {"type": "Feature", "properties": {"highway": "residential"}, "geometry": {"type": "LineString", "coordinates": [[-48.4613324, -1.4624779], [-48.4613438, -1.4618364]]}}, {"type": "Feature", "properties": {"highway": "residential"}, "geometry": {"type": "LineString", "coordinates": [[-48.4622263, -1.4638199], [-48.4622557, -1.4638535], [-48.4622977, -1.4638662], [-48.4623593, -1.4638649], [-48.4624871, -1.463831], [-48.4625816, -1.4638216], [-48.4626594, -1.4638166], [-48.4627309, -1.4638156], [-48.4629152, -1.463844], [-48.4630655, -1.4638599], [-48.4631857, -1.463859], [-48.4632972, -1.4638528]]}}, {"type": "Feature", "properties": {"highway": "residential"}, "geometry": {"type": "LineString", "coordinates": [[-48.4652679, -1.4648053], [-48.4652873, -1.4651961], [-48.4652913, -1.4652893], [-48.4652907, -1.4654066], [-48.4652946, -1.4656249], [-48.465298, -1.465897], [-48.465294, -1.4659225], [-48.4652899, -1.4659332], [-48.4652859, -1.4659411], [-48.464936, -1.4659325], [-48.4647881, -1.4659325], [-48.4646438, -1.4659329]]}}, {"type": "Feature", "properties": {"highway": "residential"}, "geometry": {"type": "LineString", "coordinates": [[-48.4646557, -1.4655824], [-48.4649249, -1.4655786], [-48.464938, -1.4655894], [-48.4649464, -1.4656005], [-48.4649446, -1.4656219], [-48.464936, -1.4659325], [-48.464947, -1.4660853], [-48.4649399, -1.4667695], [-48.4649393, -1.4668694], [-48.4649509, -1.4673194]]}}, {"type": "Feature", "properties": {"highway": "residential"}, "geometry": {"type": "LineString", "coordinates": [[-48.4653563, -1.4663504], [-48.4651619, -1.4664141], [-48.4651096, -1.4664288], [-48.4650988, -1.4664395], [-48.4650895, -1.4666098], [-48.4650888, -1.466766], [-48.4649399, -1.4667695]]}}, {"type": "Feature", "properties": {"highway": "living_street"}, "geometry": {"type": "LineString", "coordinates": [[-48.4663175, -1.4653526], [-48.4661151, -1.4653486]]}}, {"type": "Feature", "properties": {"highway": "residential"}, "geometry": {"type": "LineString", "coordinates": [[-48.4648461, -1.464824], [-48.4648474, -1.4650768], [-48.4648487, -1.4651452], [-48.4648468, -1.4653302]]}}, {"type": "Feature", "properties": {"highway": "living_street"}, "geometry": {"type": "LineString", "coordinates": [[-48.4667163, -1.4656915], [-48.4667303, -1.4655983], [-48.4667438, -1.4655634], [-48.4668678, -1.4653694], [-48.4668789, -1.4653469], [-48.4668859, -1.4653278], [-48.4668912, -1.4652873], [-48.4669065, -1.4648231]]}}, {"type": "Feature", "properties": {"highway": "residential"}, "geometry": {"type": "LineString", "coordinates": [[-48.4639759, -1.4647621], [-48.4639777, -1.4648552], [-48.4639736, -1.4649506], [-48.463973, -1.4650245], [-48.463985, -1.4650955]]}}, {"type": "Feature", "properties": {"highway": "residential"}, "geometry": {"type": "LineString", "coordinates": [[-48.4641011, -1.4652618], [-48.4641346, -1.465914], [-48.46414, -1.4659442], [-48.4641507, -1.4659737], [-48.4641655, -1.4660106], [-48.4641769, -1.4660327], [-48.464201, -1.4660561], [-48.4642312, -1.4660669], [-48.4645169, -1.4660589]]}}, {"type": "Feature", "properties": {"highway": "residential"}, "geometry": {"type": "LineString", "coordinates": [[-48.4645168, -1.465178], [-48.4645168, -1.4657317], [-48.4645169, -1.4660589], [-48.4645269, -1.466099], [-48.4645343, -1.4661332], [-48.4645323, -1.4662606], [-48.4645208, -1.466768], [-48.4644886, -1.4672574]]}}, {"type": "Feature", "properties": {"highway": "residential"}, "geometry": {"type": "LineString", "coordinates": [[-48.4622057, -1.4639688], [-48.4622307, -1.4640637], [-48.4622798, -1.4641767], [-48.4623188, -1.4642153], [-48.4623735, -1.4642733], [-48.4624603, -1.4643916], [-48.4625293, -1.4645512], [-48.462584, -1.4646538], [-48.4626205, -1.4647443], [-48.4626281, -1.4647869], [-48.4626292, -1.46481], [-48.4626168, -1.4648281]]}}, {"type": "Feature", "properties": {"highway": "residential"}, "geometry": {"type": "LineString", "coordinates": [[-48.4611322, -1.4634087], [-48.4609629, -1.4635062], [-48.4609522, -1.4635156], [-48.4609482, -1.463529], [-48.4609441, -1.4635612], [-48.4609669, -1.46384], [-48.4609911, -1.4640384], [-48.461042, -1.4645693], [-48.4610756, -1.4649675], [-48.461089, -1.4652276]]}}, {"type": "Feature", "properties": {"highway": "residential"}, "geometry": {"type": "LineString", "coordinates": [[-48.4606048, -1.4629599], [-48.460578, -1.4631281], [-48.4605606, -1.4633091], [-48.4605525, -1.4634847], [-48.4605458, -1.4635598], [-48.4605257, -1.4636617], [-48.4604949, -1.4637515], [-48.4604077, -1.4638655], [-48.4603031, -1.4639634], [-48.4601549, -1.4641028]]}}, {"type": "Feature", "properties": {"highway": "residential"}, "geometry": {"type": "LineString", "coordinates": [[-48.4583519, -1.4658989], [-48.4583364, -1.4657753], [-48.4583038, -1.4655303], [-48.4582837, -1.4653979], [-48.4582375, -1.4651251], [-48.4582159, -1.4649831]]}}, {"type": "Feature", "properties": {"highway": "residential"}, "geometry": {"type": "LineString", "coordinates": [[-48.4601391, -1.463573], [-48.4590759, -1.4636115], [-48.4586937, -1.4635841]]}}, {"type": "Feature", "properties": {"highway": "residential"}, "geometry": {"type": "LineString", "coordinates": [[-48.4603192, -1.4656084], [-48.4602655, -1.4655514], [-48.4601971, -1.4655018], [-48.4600496, -1.4654166], [-48.4599812, -1.4653597], [-48.459935, -1.4653168], [-48.4599108, -1.4652558], [-48.4598833, -1.4651727], [-48.4598632, -1.465103], [-48.4598344, -1.4649943], [-48.4598082, -1.464928], [-48.4597371, -1.4648133], [-48.4592165, -1.4640867], [-48.459191, -1.4640549], [-48.4591497, -1.4640089], [-48.4591189, -1.4639379], [-48.4591001, -1.4638789], [-48.4590854, -1.4637542], [-48.4590759, -1.4636115]]}}, {"type": "Feature", "properties": {"highway": "residential"}, "geometry": {"type": "LineString", "coordinates": [[-48.4583194, -1.463323], [-48.4584789, -1.4630319], [-48.4585681, -1.4628956], [-48.4586509, -1.4627313], [-48.4587246, -1.462605], [-48.4588118, -1.4624118], [-48.4588829, -1.462308], [-48.4589603, -1.4622178], [-48.4589934, -1.4621749], [-48.4590217, -1.4621336], [-48.4590405, -1.4621457], [-48.4590653, -1.4621171], [-48.459089, -1.4620858], [-48.4591143, -1.462058], [-48.4591447, -1.4620301], [-48.4591708, -1.462014]]}}, {"type": "Feature", "properties": {"highway": "residential"}, "geometry": {"type": "LineString", "coordinates": [[-48.4633053, -1.4631554], [-48.4635, -1.4632422], [-48.4637022, -1.4633437], [-48.4637849, -1.4633929], [-48.4640008, -1.4634794]]}}, {"type": "Feature", "properties": {"highway": "residential"}, "geometry": {"type": "LineString", "coordinates": [[-48.4641756, -1.4638803], [-48.4642003, -1.4635585], [-48.4642315, -1.4633863], [-48.464239, -1.4632513], [-48.4642418, -1.463142]]}}, {"type": "Feature", "properties": {"highway": "living_street"}, "geometry": {"type": "LineString", "coordinates": [[-48.4673944, -1.4693029], [-48.4673261, -1.4700969]]}}, {"type": "Feature", "properties": {"highway": "residential"}, "geometry": {"type": "LineString", "coordinates": [[-48.4685896, -1.469069], [-48.4695822, -1.4691011], [-48.4696056, -1.4691015], [-48.4696144, -1.4690954], [-48.4696178, -1.4690803], [-48.4696157, -1.4689325], [-48.4696141, -1.4689087], [-48.4696224, -1.4688923], [-48.4696322, -1.4688826], [-48.4696534, -1.4688796]]}}, {"type": "Feature", "properties": {"highway": "residential"}, "geometry": {"type": "LineString", "coordinates": [[-48.4675118, -1.4674019], [-48.4675155, -1.4673479], [-48.4675145, -1.4673054], [-48.4675162, -1.4672608]]}}, {"type": "Feature", "properties": {"highway": "residential"}, "geometry": {"type": "LineString", "coordinates": [[-48.4646289, -1.4632714], [-48.4646259, -1.4633954], [-48.4646155, -1.4635133], [-48.4645901, -1.4638916]]}}, {"type": "Feature", "properties": {"highway": "service"}, "geometry": {"type": "LineString", "coordinates": [[-48.4650008, -1.4633551], [-48.4649755, -1.463899]]}}, {"type": "Feature", "properties": {"highway": "residential"}, "geometry": {"type": "LineString", "coordinates": [[-48.4632944, -1.4639318], [-48.4632898, -1.4640894], [-48.4632885, -1.4642622], [-48.463267, -1.4647262]]}}, {"type": "Feature", "properties": {"highway": "tertiary"}, "geometry": {"type": "LineString", "coordinates": [[-48.463267, -1.4647262], [-48.4632723, -1.4653872], [-48.4632817, -1.4660441], [-48.4632869, -1.4668608], [-48.4632897, -1.4669142], [-48.4632832, -1.467312]]}}, {"type": "Feature", "properties": {"highway": "residential"}, "geometry": {"type": "LineString", "coordinates": [[-48.4583364, -1.4657753], [-48.4579175, -1.4658784]]}}, {"type": "Feature", "properties": {"highway": "residential"}, "geometry": {"type": "LineString", "coordinates": [[-48.4587246, -1.462605], [-48.4585036, -1.462494]]}}, {"type": "Feature", "properties": {"highway": "residential"}, "geometry": {"type": "LineString", "coordinates": [[-48.460336, -1.4658004], [-48.4600221, -1.4658264]]}}, {"type": "Feature", "properties": {"highway": "secondary"}, "geometry": {"type": "LineString", "coordinates": [[-48.4705568, -1.4622931], [-48.4687475, -1.4622576]]}}, {"type": "Feature", "properties": {"highway": "service"}, "geometry": {"type": "LineString", "coordinates": [[-48.4573292, -1.4724186], [-48.4579488, -1.4722607], [-48.4580856, -1.4722346], [-48.4581479, -1.4722292]]}}, {"type": "Feature", "properties": {"highway": "service"}, "geometry": {"type": "LineString", "coordinates": [[-48.4581479, -1.4722292], [-48.4582123, -1.4722386], [-48.4582646, -1.4722554], [-48.458323, -1.4722808], [-48.4583665, -1.4723083], [-48.4584229, -1.4723546], [-48.4584458, -1.4723888], [-48.4584631, -1.472435], [-48.4584753, -1.4724987], [-48.458504, -1.4726816], [-48.4585153, -1.4727595]]}}, {"type": "Feature", "properties": {"highway": "residential"}, "geometry": {"type": "LineString", "coordinates": [[-48.4641879, -1.4697668], [-48.4640904, -1.4700064], [-48.4640439, -1.470105], [-48.4640208, -1.4701586], [-48.4638604, -1.4704817]]}}, {"type": "Feature", "properties": {"highway": "residential"}, "geometry": {"type": "LineString", "coordinates": [[-48.4718866, -1.4696233], [-48.4708177, -1.469614], [-48.4703191, -1.4695841], [-48.4699356, -1.4695532], [-48.4695183, -1.4695155], [-48.4685849, -1.4694097], [-48.4673944, -1.4693029]]}}, {"type": "Feature", "properties": {"highway": "residential"}, "geometry": {"type": "LineString", "coordinates": [[-48.4705485, -1.4628029], [-48.468741, -1.4627511]]}}, {"type": "Feature", "properties": {"highway": "residential"}, "geometry": {"type": "LineString", "coordinates": [[-48.4649071, -1.4621872], [-48.4648257, -1.4621527], [-48.4647868, -1.4621292], [-48.4647486, -1.4621151], [-48.4646876, -1.4620937]]}}, {"type": "Feature", "properties": {"highway": "residential"}, "geometry": {"type": "LineString", "coordinates": [[-48.4633939, -1.4622916], [-48.4633856, -1.4621139]]}}, {"type": "Feature", "properties": {"highway": "residential"}, "geometry": {"type": "LineString", "coordinates": [[-48.463282, -1.468378], [-48.4629982, -1.4683739], [-48.462779, -1.4683786], [-48.4625225, -1.4683804], [-48.4622773, -1.4683883]]}}, {"type": "Feature", "properties": {"highway": "secondary"}, "geometry": {"type": "LineString", "coordinates": [[-48.4686169, -1.4674242], [-48.4676686, -1.4674087], [-48.4675118, -1.4674019], [-48.4672641, -1.4674071], [-48.4660641, -1.467336]]}}, {"type": "Feature", "properties": {"highway": "residential"}, "geometry": {"type": "LineString", "coordinates": [[-48.4573802, -1.4626261], [-48.457685, -1.4628853], [-48.4578298, -1.463022], [-48.4579304, -1.4631051], [-48.4580323, -1.4631749]]}}, {"type": "Feature", "properties": {"highway": "residential"}, "geometry": {"type": "LineString", "coordinates": [[-48.4601864, -1.4629203], [-48.4590959, -1.4629247]]}}, {"type": "Feature", "properties": {"highway": "residential"}, "geometry": {"type": "LineString", "coordinates": [[-48.4598226, -1.4722334], [-48.4597646, -1.4730799], [-48.4597532, -1.4732481], [-48.4597519, -1.4733909], [-48.459764, -1.4736523], [-48.4598203, -1.4744017], [-48.4598569, -1.4747191]]}}, {"type": "Feature", "properties": {"highway": "secondary"}, "geometry": {"type": "LineString", "coordinates": [[-48.4660641, -1.467336], [-48.4657571, -1.4673345], [-48.4651734, -1.4673301], [-48.4649509, -1.4673194]]}}, {"type": "Feature", "properties": {"highway": "residential"}, "geometry": {"type": "LineString", "coordinates": [[-48.4613675, -1.4624796], [-48.4613324, -1.4624779]]}}, {"type": "Feature", "properties": {"highway": "residential"}, "geometry": {"type": "LineString", "coordinates": [[-48.4613949, -1.4624783], [-48.4613675, -1.4624796]]}}, {"type": "Feature", "properties": {"highway": "residential"}, "geometry": {"type": "LineString", "coordinates": [[-48.4655168, -1.4640483], [-48.4654902, -1.463957]]}}, {"type": "Feature", "properties": {"highway": "residential"}, "geometry": {"type": "LineString", "coordinates": [[-48.4655379, -1.463961], [-48.4655168, -1.4640483]]}}, {"type": "Feature", "properties": {"highway": "residential"}, "geometry": {"type": "LineString", "coordinates": [[-48.4654902, -1.463957], [-48.4654914, -1.4639088], [-48.4655036, -1.4633735], [-48.4655097, -1.4629784], [-48.465554, -1.4622537], [-48.4655553, -1.4622373], [-48.4655811, -1.4621967]]}}, {"type": "Feature", "properties": {"highway": "residential"}, "geometry": {"type": "LineString", "coordinates": [[-48.4655168, -1.4640483], [-48.4654845, -1.4647954]]}}, {"type": "Feature", "properties": {"highway": "residential"}, "geometry": {"type": "LineString", "coordinates": [[-48.4619852, -1.4635233], [-48.4619556, -1.4635437]]}}, {"type": "Feature", "properties": {"highway": "residential"}, "geometry": {"type": "LineString", "coordinates": [[-48.4620432, -1.4634824], [-48.4620188, -1.4634995]]}}, {"type": "Feature", "properties": {"highway": "residential"}, "geometry": {"type": "LineString", "coordinates": [[-48.4621131, -1.4728246], [-48.4622303, -1.4726066], [-48.4623107, -1.4724203], [-48.4624218, -1.4720908], [-48.4627037, -1.4712995], [-48.4627624, -1.4711431], [-48.4630039, -1.4704995], [-48.4630081, -1.4704884], [-48.4630483, -1.4703919], [-48.4630913, -1.470306], [-48.463157, -1.4702162], [-48.4632556, -1.4701033], [-48.4635387, -1.4697582], [-48.4637183, -1.4695185], [-48.4637756, -1.4694374], [-48.4638329, -1.4693683], [-48.4639133, -1.4692666], [-48.4641947, -1.4690056], [-48.4642939, -1.4689154], [-48.4643832, -1.4688252], [-48.4645301, -1.4686997], [-48.4646428, -1.4685927], [-48.4651244, -1.4681744], [-48.4652236, -1.4680792], [-48.46541, -1.4679451], [-48.4655455, -1.4678432], [-48.4657352, -1.4677085]]}}, {"type": "Feature", "properties": {"highway": "service"}, "geometry": {"type": "LineString", "coordinates": [[-48.4583357, -1.4714362], [-48.4582794, -1.4712392], [-48.4579846, -1.4695637], [-48.4578958, -1.4690592]]}}, {"type": "Feature", "properties": {"highway": "service"}, "geometry": {"type": "LineString", "coordinates": [[-48.4579846, -1.4695637], [-48.4573998, -1.4696347]]}}, {"type": "Feature", "properties": {"highway": "service"}, "geometry": {"type": "LineString", "coordinates": [[-48.4642808, -1.4667265], [-48.4642709, -1.4673371]]}}, {"type": "Feature", "properties": {"highway": "service"}, "geometry": {"type": "LineString", "coordinates": [[-48.4600061, -1.4672423], [-48.4600067, -1.467301], [-48.460004, -1.4675979]]}}, {"type": "Feature", "properties": {"highway": "service"}, "geometry": {"type": "LineString", "coordinates": [[-48.4600988, -1.4672466], [-48.4601, -1.4671016], [-48.4600973, -1.4668978]]}}, {"type": "Feature", "properties": {"highway": "residential"}, "geometry": {"type": "LineString", "coordinates": [[-48.46658, -1.4720678], [-48.4669542, -1.4720579]]}}, {"type": "Feature", "properties": {"highway": "service"}, "geometry": {"type": "LineString", "coordinates": [[-48.4610246, -1.4672674], [-48.4610259, -1.4671689], [-48.4610494, -1.4668478], [-48.4610404, -1.4666598], [-48.4610213, -1.4664865]]}}, {"type": "Feature", "properties": {"highway": "service"}, "geometry": {"type": "LineString", "coordinates": [[-48.4638248, -1.466768], [-48.4638235, -1.4671944], [-48.4638315, -1.4673237]]}}, {"type": "Feature", "properties": {"highway": "residential"}, "geometry": {"type": "LineString", "coordinates": [[-48.4687222, -1.464034], [-48.4686542, -1.4640388]]}}, {"type": "Feature", "properties": {"highway": "service"}, "geometry": {"type": "LineString", "coordinates": [[-48.4687393, -1.4635927], [-48.4686279, -1.4635927], [-48.4682813, -1.463596]]}}, {"type": "Feature", "properties": {"highway": "residential"}, "geometry": {"type": "LineString", "coordinates": [[-48.4686542, -1.4640388], [-48.4683467, -1.4640572], [-48.4680375, -1.4640712]]}}, {"type": "Feature", "properties": {"highway": "residential"}, "geometry": {"type": "LineString", "coordinates": [[-48.4675162, -1.4672608], [-48.4675473, -1.4665443]]}}, {"type": "Feature", "properties": {"highway": "secondary"}, "geometry": {"type": "LineString", "coordinates": [[-48.4589205, -1.4716928], [-48.4588607, -1.4716025], [-48.4587967, -1.4715582]]}}, {"type": "Feature", "properties": {"highway": "secondary"}, "geometry": {"type": "LineString", "coordinates": [[-48.4589038, -1.4714685], [-48.4589205, -1.4716928]]}}, {"type": "Feature", "properties": {"highway": "secondary"}, "geometry": {"type": "LineString", "coordinates": [[-48.4587549, -1.4712908], [-48.4588058, -1.4712177], [-48.4588679, -1.4710847]]}}, {"type": "Feature", "properties": {"highway": "secondary"}, "geometry": {"type": "LineString", "coordinates": [[-48.4588679, -1.4710847], [-48.45887, -1.4713274]]}}, {"type": "Feature", "properties": {"highway": "secondary"}, "geometry": {"type": "LineString", "coordinates": [[-48.4587316, -1.4715525], [-48.4581079, -1.47162], [-48.4564012, -1.4721165]]}}, {"type": "Feature", "properties": {"highway": "residential"}, "geometry": {"type": "LineString", "coordinates": [[-48.4672641, -1.4674071], [-48.4673218, -1.4684931]]}}, {"type": "Feature", "properties": {"highway": "residential"}, "geometry": {"type": "LineString", "coordinates": [[-48.4644886, -1.4672574], [-48.4644828, -1.4673461]]}}, {"type": "Feature", "properties": {"highway": "residential"}, "geometry": {"type": "LineString", "coordinates": [[-48.4639784, -1.4647483], [-48.4639759, -1.4647621]]}}, {"type": "Feature", "properties": {"highway": "residential"}, "geometry": {"type": "LineString", "coordinates": [[-48.4648534, -1.4647886], [-48.4648461, -1.464824]]}}, {"type": "Feature", "properties": {"highway": "living_street"}, "geometry": {"type": "LineString", "coordinates": [[-48.4669065, -1.4648231], [-48.4669094, -1.464802]]}}, {"type": "Feature", "properties": {"highway": "residential"}, "geometry": {"type": "LineString", "coordinates": [[-48.4632869, -1.4668608], [-48.4628626, -1.4668493]]}}, {"type": "Feature", "properties": {"highway": "residential"}, "geometry": {"type": "LineString", "coordinates": [[-48.463279, -1.4680577], [-48.4641381, -1.4680688]]}}, {"type": "Feature", "properties": {"highway": "residential"}, "geometry": {"type": "LineString", "coordinates": [[-48.46429, -1.4713708], [-48.4643172, -1.4718365]]}}, {"type": "Feature", "properties": {"highway": "service"}, "geometry": {"type": "LineString", "coordinates": [[-48.4679803, -1.462219], [-48.467974, -1.4622752], [-48.4680124, -1.4622762], [-48.4680124, -1.4624733], [-48.468012, -1.462517], [-48.4679725, -1.4625193]]}}, {"type": "Feature", "properties": {"highway": "service"}, "geometry": {"type": "LineString", "coordinates": [[-48.4686636, -1.4659895], [-48.4690614, -1.4660109]]}}, {"type": "Feature", "properties": {"highway": "residential"}, "geometry": {"type": "LineString", "coordinates": [[-48.4698356, -1.4713146], [-48.4691926, -1.4713082], [-48.468554, -1.4712897]]}}, {"type": "Feature", "properties": {"highway": "service"}, "geometry": {"type": "LineString", "coordinates": [[-48.4601197, -1.4712357], [-48.4599887, -1.4712323], [-48.4599178, -1.47123]]}}, {"type": "Feature", "properties": {"highway": "residential"}, "geometry": {"type": "LineString", "coordinates": [[-48.4662999, -1.4647641], [-48.4662952, -1.464681], [-48.4662938, -1.4645459], [-48.4662971, -1.4644675]]}}, {"type": "Feature", "properties": {"highway": "residential"}, "geometry": {"type": "LineString", "coordinates": [[-48.4685643, -1.4707247], [-48.4686704, -1.4707285], [-48.4692833, -1.4707412]]}}, {"type": "Feature", "properties": {"highway": "residential"}, "geometry": {"type": "LineString", "coordinates": [[-48.4672426, -1.4689017], [-48.4666213, -1.4687706]]}}, {"type": "Feature", "properties": {"highway": "service"}, "geometry": {"type": "LineString", "coordinates": [[-48.4677634, -1.4622139], [-48.4677634, -1.4611734], [-48.4677794, -1.4611037], [-48.4677742, -1.4610897], [-48.4677634, -1.4610608], [-48.4677637, -1.4610203], [-48.4677664, -1.4606406], [-48.4677687, -1.4603153]]}}, {"type": "Feature", "properties": {"highway": "residential"}, "geometry": {"type": "LineString", "coordinates": [[-48.4637849, -1.4633929], [-48.4637708, -1.4638676]]}}, {"type": "Feature", "properties": {"highway": "residential"}, "geometry": {"type": "LineString", "coordinates": [[-48.4646428, -1.4685927], [-48.4644332, -1.4683551]]}}, {"type": "Feature", "properties": {"highway": "residential"}, "geometry": {"type": "LineString", "coordinates": [[-48.4645301, -1.4686997], [-48.464292, -1.4685052]]}}, {"type": "Feature", "properties": {"highway": "residential"}, "geometry": {"type": "LineString", "coordinates": [[-48.4656679, -1.4721877], [-48.4654233, -1.4722316]]}}, {"type": "Feature", "properties": {"highway": "residential"}, "geometry": {"type": "LineString", "coordinates": [[-48.4609617, -1.4683799], [-48.4609799, -1.4681256]]}}, {"type": "Feature", "properties": {"highway": "service"}, "geometry": {"type": "LineString", "coordinates": [[-48.468209, -1.4616061], [-48.4681815, -1.4620955]]}}, {"type": "Feature", "properties": {"highway": "residential"}, "geometry": {"type": "LineString", "coordinates": [[-48.4661871, -1.4642476], [-48.4666607, -1.4642614]]}}, {"type": "Feature", "properties": {"highway": "service"}, "geometry": {"type": "LineString", "coordinates": [[-48.4608449, -1.4672654], [-48.4608365, -1.4668961], [-48.4608486, -1.4668679], [-48.4608757, -1.4668508], [-48.4610494, -1.4668478]]}}, {"type": "Feature", "properties": {"highway": "residential"}, "geometry": {"type": "LineString", "coordinates": [[-48.461089, -1.4652276], [-48.4611242, -1.4653556], [-48.4611661, -1.4655876]]}}, {"type": "Feature", "properties": {"highway": "tertiary"}, "geometry": {"type": "LineString", "coordinates": [[-48.4655843, -1.4620263], [-48.4656673, -1.4621201], [-48.4657779, -1.4621617]]}}, {"type": "Feature", "properties": {"highway": "tertiary"}, "geometry": {"type": "LineString", "coordinates": [[-48.4657779, -1.4621617], [-48.465706, -1.4621633], [-48.4656533, -1.4621886], [-48.4656239, -1.4622093], [-48.4656091, -1.462235]]}}, {"type": "Feature", "properties": {"highway": "secondary"}, "geometry": {"type": "LineString", "coordinates": [[-48.4686895, -1.4648471], [-48.4686747, -1.4655064], [-48.4686636, -1.4659895], [-48.4686615, -1.4660802], [-48.4686169, -1.4674242]]}}]}